"","housenumber","street","city","state","zip","country"
"1","House Number Not Found","Street Not Found","York","Pennsylvania","17401","United States of America"
"2","House Number Not Found","Street Not Found","St. Louis","Missouri","63102-1102","United States of America"
"3","6000","Royalton Road","North Royalton","Ohio","44133","United States of America"
"4","House Number Not Found","West Church Street","Newark","Ohio","43055","United States of America"
"5","House Number Not Found","Fairlawn Avenue","Carthage","Missouri","64836","United States of America"
"6","House Number Not Found","Street Not Found","Forks","Washington","Postcode Not Found","United States of America"
"7","House Number Not Found","Broadway","London","England","SW1H 0BE","United Kingdom"
"8","House Number Not Found","Street Not Found","Fresno","California","93702","United States of America"
"9","House Number Not Found","Street Not Found","City Not Found","State Not Found","Postcode Not Found","Country Not Found"
"10","House Number Not Found","Street Not Found","City Not Found","State Not Found","Postcode Not Found","Country Not Found"
"11","House Number Not Found","Street Not Found","Basel","Basel-City","4057","Switzerland"
"12","House Number Not Found","Korean War Veterans Memorial Highway","Berlin","Connecticut","06023","United States of America"
"13","House Number Not Found","Winkler Avenue","Fort Myers","Florida","33906","United States of America"
"14","House Number Not Found","3rd Street","Detroit","Michigan","48226","United States of America"
"15","150","Greenwich Street","New York City","New York","10007","United States of America"
"16","House Number Not Found","Street Not Found","Bathsheba","State Not Found","Postcode Not Found","Barbados"
"17","House Number Not Found","Street Not Found","Las Vegas","Nevada","89101","United States of America"
"18","House Number Not Found","Street Not Found","Johannesburg","Gauteng","2001","South Africa"
"19","House Number Not Found","Street Not Found","Los Angeles","California","90012","United States of America"
"20","House Number Not Found","Street Not Found","Bristol","England","BS1","United Kingdom"
"21","House Number Not Found","Street Not Found","Eason","Oklahoma","74878","United States of America"
"22","53","Bothwell Street","Glasgow","Scotland","G","United Kingdom"
"23","House Number Not Found","Street Not Found","Philadelphia","Pennsylvania","19140","United States of America"
"24","5060","Kalispell Street","Denver","Colorado","80239","United States of America"
"25","House Number Not Found","Street Not Found","Rugby","England","CV23 1AL","United Kingdom"
"26","411","South Houston Street","Dallas","Texas","75202","United States of America"
"27","212","Western Road","Kilmarnock","Scotland","KA3 1NJ","United Kingdom"
"28","House Number Not Found","Street Not Found","Jefferson","Kansas","67340","United States of America"
"29","House Number Not Found","P.R. Songco Street","Floridablanca","Pampanga","C-2005","Philippines"
"30","House Number Not Found","Street Not Found","Rugby","England","CV23 1AL","United Kingdom"
"31","House Number Not Found","Street Not Found","City Not Found","State Not Found","Postcode Not Found","Country Not Found"
"32","9","Street Not Found","Helsinki","Southern Finland","00100","Finland"
"33","House Number Not Found","Street Not Found","Johannesburg","Gauteng","2001","South Africa"
"34","House Number Not Found","Street Not Found","City Not Found","State Not Found","Postcode Not Found","Country Not Found"
"35","House Number Not Found","Street Not Found","Cambridge","England","CB2 3PA","United Kingdom"
"36","126","Main Street","Leeds and the Thousand Islands","Ontario","K0H 2N0","Canada"
"37","House Number Not Found","Warner Bridge Road","Sims Spring","Tennessee","37160","United States of America"
"38","House Number Not Found","Street Not Found","City Not Found","Zahlé District","1801","Lebanon"
"39","3","Sherman Avenue","Lincoln","Rhode Island","02865","United States of America"
"40","House Number Not Found","Street Not Found","Rugby","England","CV23 1AL","United Kingdom"
"41","House Number Not Found","Street Not Found","City Not Found","Iowa","50141","United States of America"
"42","House Number Not Found","Street Not Found","Saint Petersburg","Florida","33701","United States of America"
"43","House Number Not Found","Main Street","Blarney - Macroom","State Not Found","P12 WK38","Ireland"
"44","House Number Not Found","Street Not Found","Welwyn Hatfield","England","AL6 9BE","United Kingdom"
"45","House Number Not Found","Street Not Found","Fort Smith","Arkansas","72905","United States of America"
"46","House Number Not Found","Broadway","London","England","SW1H 0BE","United Kingdom"
"47","House Number Not Found","Castlereagh St Cycleway (south)","Sydney","New South Wales","2000","Australia"
"48","House Number Not Found","Street Not Found","Soest","Utrecht","3769AK","The Netherlands"
"49","House Number Not Found","Street Not Found","City Not Found","State Not Found","Postcode Not Found","Country Not Found"
"50","House Number Not Found","Street Not Found","Budapest","Central Hungary","1011","Hungary"
"51","150","Greenwich Street","New York City","New York","10007","United States of America"
"52","House Number Not Found","Street Not Found","Johannesburg","Gauteng","2001","South Africa"
"53","House Number Not Found","Station Hill","Bridgend","Wales","CF31 1EA","United Kingdom"
"54","House Number Not Found","Street Not Found","Bartlesville","Oklahoma","74006","United States of America"
"55","House Number Not Found","Street Not Found","City Not Found","State Not Found","Postcode Not Found","Country Not Found"
"56","House Number Not Found","Street Not Found","Coychurch","Wales","CF31 3LQ","United Kingdom"
"57","House Number Not Found","Street Not Found","Bloemfontein","Free State","9321","South Africa"
"58","805","Erskine Avenue","Lynchburg","Virginia","24501","United States of America"
"59","House Number Not Found","Rental Car Road","Charlotte","North Carolina","28208","United States of America"
"60","2A","Rua Aquiles da Mota Lima","Tomar (São João Baptista) e Santa Maria dos Olivais","Centro","2300-475 TOMAR","Portugal"
"61","House Number Not Found","Orange Street","Cape Town","Western Cape","8001","South Africa"
"62","House Number Not Found","Street Not Found","Miami","Florida","33131","United States of America"
"63","House Number Not Found","Street Not Found","Nashville-Davidson","Tennessee","37219","United States of America"
"64","House Number Not Found","Street Not Found","Surat","Gujarat","395001","India"
"65","House Number Not Found","Street Not Found","Maybole","Scotland","KA19 7HS","United Kingdom"
"66","House Number Not Found","Street Not Found","Singapore","State Not Found","574408","Singapore"
"67","House Number Not Found","Street Not Found","Price","Utah","84501","United States of America"
"68","House Number Not Found","Street Not Found","Birmingham","England","B9","United Kingdom"
"69","House Number Not Found","Street Not Found","City Not Found","State Not Found","Postcode Not Found","Country Not Found"
"70","House Number Not Found","Reigate Road","Mole Valley","England","RH4 1SP","United Kingdom"
"71","House Number Not Found","Street Not Found","Le Hunt","Kansas","67301","United States of America"
"72","House Number Not Found","Castlereagh St Cycleway (south)","Sydney","New South Wales","2000","Australia"
"73","House Number Not Found","Street Not Found","City Not Found","State Not Found","Postcode Not Found","Country Not Found"
"74","House Number Not Found","Broadway","London","England","SW1H 0BE","United Kingdom"
"75","House Number Not Found","Broadway","London","England","SW1H 0BE","United Kingdom"
"76","House Number Not Found","Street Not Found","Shinjuku","Tokyo","163-8001","Japan"
"77","House Number Not Found","Street Not Found","Jefferson","Kansas","67340","United States of America"
"78","House Number Not Found","Street Not Found","Cape Town","Western Cape","8001","South Africa"
"79","House Number Not Found","Street Not Found","Reno","Nevada","89505","United States of America"
"80","House Number Not Found","Street Not Found","Cologne","North Rhine-Westphalia","50676","Germany"
"81","House Number Not Found","Street Not Found","Kailua","Hawaii","96734-9998","United States of America"
"82","9","Street Not Found","Helsinki","Southern Finland","00100","Finland"
"83","House Number Not Found","Castlereagh St Cycleway (south)","Sydney","New South Wales","2000","Australia"
"84","House Number Not Found","Street Not Found","Sunderland","England","SR2 8RG","United Kingdom"
"85","House Number Not Found","Field Marshal Cariappa Road","Bengaluru","Karnataka","560 025","India"
"86","House Number Not Found","Street Not Found","Berlin","State Not Found","10179","Germany"
"87","House Number Not Found","Street Not Found","Cape Town","Western Cape","8001","South Africa"
"88","House Number Not Found","Warner Bridge Road","Sims Spring","Tennessee","37160","United States of America"
"89","House Number Not Found","Street Not Found","Murfreesboro","Tennessee","37132","United States of America"
"90","House Number Not Found","Street Not Found","Birmingham","Alabama","35203","United States of America"
"91","House Number Not Found","Street Not Found","Cape Town","Western Cape","8001","South Africa"
"92","House Number Not Found","Moi Avenue","Nairobi","Nairobi","PO BOX 30074-00100 NAIROBI","Kenya"
"93","53","Bothwell Street","Glasgow","Scotland","G","United Kingdom"
"94","House Number Not Found","Main Street","Woodbridge Township","New Jersey","08863","United States of America"
"95","House Number Not Found","Street Not Found","Murun","Hovsgel","97638","Mongolia"
"96","79","Friargate","Preston","England","PR1 2ED","United Kingdom"
"97","House Number Not Found","Wellington Quay","Dublin","State Not Found","D02 Y306","Ireland"
"98","House Number Not Found","Street Not Found","Tulsa","Oklahoma","74115","United States of America"
"99","House Number Not Found","Av Luis Beltran Prieto Figueroa","Punto Fijo","Falcón","4102","Venezuela"
"100","House Number Not Found","Street Not Found","Shah Alam","Selangor","40604","Malaysia"
"101","House Number Not Found","Broadway","London","England","SW1H 0BE","United Kingdom"
"102","House Number Not Found","Street Not Found","City Not Found","State Not Found","Postcode Not Found","Country Not Found"
"103","House Number Not Found","Street Not Found","Johannesburg","Gauteng","2001","South Africa"
"104","House Number Not Found","Broadway","London","England","SW1H 0BE","United Kingdom"
"105","House Number Not Found","Street Not Found","City Not Found","State Not Found","Postcode Not Found","Country Not Found"
"106","House Number Not Found","Street Not Found","Guildford","England","GU1 4HB","United Kingdom"
"107","1","Federal Street","Boston","Massachusetts","02110-1301","United States of America"
"108","150","Greenwich Street","New York City","New York","10007","United States of America"
"109","House Number Not Found","Street Not Found","City Not Found","State Not Found","Postcode Not Found","Country Not Found"
"110","House Number Not Found","Street Not Found","St. Louis","Missouri","63102-1102","United States of America"
"111","House Number Not Found","Street Not Found","Edinburgh","Scotland","EH1 2AW","United Kingdom"
"112","315","Trumbull Street","City of Hartford","Connecticut","06103","United States of America"
"113","35","Lowther Street","Carlisle","England","CA3 8EJ","United Kingdom"
"114","151","North Franklin Street","Chicago","Illinois","60606","United States of America"
"115","House Number Not Found","Street Not Found","Gaborone","South-East District","09267","Botswana"
"116","House Number Not Found","Street Not Found","Milan","Lombardy","20122","Italy"
"117","House Number Not Found","Street Not Found","City Not Found","State Not Found","Postcode Not Found","Country Not Found"
"118","House Number Not Found","Hallett Street","Jackson","Michigan","49202","United States of America"
"119","House Number Not Found","Street Not Found","Rugby","England","CV23 1AL","United Kingdom"
"120","House Number Not Found","Street Not Found","Las Vegas","Nevada","89101","United States of America"
"121","145","Sheikh Zayed Street","Sharjah","Sharjah","9978","United Arab Emirates"
"122","House Number Not Found","Street Not Found","New Delhi","Delhi","110004","India"
"123","House Number Not Found","Main Street","Norwalk","Connecticut","06581","United States of America"
"124","House Number Not Found","Street Not Found","Durham","England","DH1 4HA","United Kingdom"
"125","House Number Not Found","Street Not Found","City Not Found","State Not Found","Postcode Not Found","Country Not Found"
"126","House Number Not Found","Street Not Found","City Not Found","State Not Found","Postcode Not Found","Country Not Found"
"127","House Number Not Found","Castlereagh St Cycleway (south)","Sydney","New South Wales","2000","Australia"
"128","House Number Not Found","Street Not Found","Johannesburg","Gauteng","2001","South Africa"
"129","House Number Not Found","Street Not Found","New Tecumseth","Ontario","L0G 1W0","Canada"
"130","House Number Not Found","Street Not Found","Cambridge","England","CB2 3PA","United Kingdom"
"131","House Number Not Found","Broadway","London","England","SW1H 0BE","United Kingdom"
"132","House Number Not Found","Street Not Found","City Not Found","State Not Found","Postcode Not Found","Country Not Found"
"133","6-8","Upper Aughton Road","Sefton","England","PR8 5NA","United Kingdom"
"134","House Number Not Found","Street Not Found","Surat","Gujarat","395001","India"
"135","House Number Not Found","Street Not Found","Pittsburgh","Pennsylvania","15212","United States of America"
"136","House Number Not Found","Street Not Found","City Not Found","State Not Found","Postcode Not Found","Country Not Found"
"137","House Number Not Found","Street Not Found","Rugby","England","CV23 1AL","United Kingdom"
"138","House Number Not Found","Street Not Found","Virginia Beach","Virginia","23451","United States of America"
"139","House Number Not Found","Broadway","London","England","SW1H 0BE","United Kingdom"
"140","House Number Not Found","Street Not Found","Shrewsbury","England","SY1 1SF","United Kingdom"
"141","House Number Not Found","Street Not Found","Jefferson","Kansas","67340","United States of America"
"142","House Number Not Found","Broadway","London","England","SW1H 0BE","United Kingdom"
"143","House Number Not Found","Street Not Found","Edinburgh","Scotland","EH1 2AW","United Kingdom"
"144","House Number Not Found","Street Not Found","Shawnee","Kansas","66217","United States of America"
"145","House Number Not Found","Jalan Jelok 3","Kajang","Selangor","43000","Malaysia"
"146","House Number Not Found","Warner Bridge Road","Sims Spring","Tennessee","37160","United States of America"
"147","House Number Not Found","Outer Ring Road","City Not Found","Delhi","110034","India"
"148","House Number Not Found","Street Not Found","City Not Found","State Not Found","Postcode Not Found","Country Not Found"
"149","House Number Not Found","Street Not Found","Lucknow","Uttar Pradesh","226001","India"
"150","House Number Not Found","Street Not Found","Level Corner","Pennsylvania","17744","United States of America"
"151","House Number Not Found","Street Not Found","George Town","State Not Found","KY1-1108","Cayman Islands"
"152","House Number Not Found","Street Not Found","City Not Found","State Not Found","Postcode Not Found","Country Not Found"
"153","House Number Not Found","Street Not Found","City of London","England","EC4V 6DU","United Kingdom"
"154","House Number Not Found","Street Not Found","Jefferson","Kansas","67340","United States of America"
"155","House Number Not Found","Street Not Found","City Not Found","State Not Found","Postcode Not Found","Country Not Found"
"156","House Number Not Found","West Hopkins Street","San Marcos","Texas","78666","United States of America"
"157","House Number Not Found","Street Not Found","City Not Found","Pahang","28400","Malaysia"
"158","House Number Not Found","Street Not Found","City Not Found","New Aquitaine","23230","France"
"159","301","West 125th Street","New York City","New York","10027","United States of America"
"160","House Number Not Found","Street Not Found","San Marcos","California","92096","United States of America"
"161","House Number Not Found","Street Not Found","Princeton","Minnesota","55371","United States of America"
"162","House Number Not Found","Street Not Found","Igbobi","Lagos","YABA","Nigeria"
"163","House Number Not Found","Street Not Found","Sachseln","Obwalden","6072","Switzerland"
"164","House Number Not Found","Street Not Found","City Not Found","State Not Found","Postcode Not Found","Country Not Found"
"165","House Number Not Found","Jhamel Road","Patan","Central Development Region","452","Nepal"
"166","House Number Not Found","Murraygate","Dundee","Scotland","DD1 2AZ","United Kingdom"
"167","House Number Not Found","Street Not Found","West Liberty","Ohio","Postcode Not Found","United States of America"
"168","House Number Not Found","Street Not Found","Loongana","Tasmania","Postcode Not Found","Australia"
"169","House Number Not Found","Street Not Found","DeRidder","Louisiana","70634","United States of America"
"170","House Number Not Found","Street Not Found","Soest","Utrecht","3769AK","The Netherlands"
"171","House Number Not Found","Street Not Found","Kent","Ohio","44240","United States of America"
"172","House Number Not Found","Street Not Found","City Not Found","State Not Found","Postcode Not Found","Country Not Found"
"173","House Number Not Found","Street Not Found","Eason","Oklahoma","74878","United States of America"
"174","House Number Not Found","Street Not Found","City Not Found","State Not Found","Postcode Not Found","Country Not Found"
"175","House Number Not Found","Street Not Found","City Not Found","State Not Found","Postcode Not Found","Country Not Found"
"176","House Number Not Found","Street Not Found","Birmingham","England","B4","United Kingdom"
"177","House Number Not Found","Street Not Found","City Not Found","State Not Found","Postcode Not Found","Country Not Found"
"178","150","Greenwich Street","New York City","New York","10007","United States of America"
"179","House Number Not Found","Street Not Found","Appleton","Wisconsin","54914","United States of America"
"180","House Number Not Found","Street Not Found","New Delhi","Delhi","110004","India"
"181","House Number Not Found","Street Not Found","Las Vegas","Nevada","89101","United States of America"
"182","House Number Not Found","Street Not Found","City Not Found","Gauteng","1682","South Africa"
"183","1","Federal Street","Boston","Massachusetts","02110-1301","United States of America"
"184","House Number Not Found","Street Not Found","Bartlesville","Oklahoma","74006","United States of America"
"185","House Number Not Found","Street Not Found","Bakersville","North Carolina","28705","United States of America"
"186","House Number Not Found","Street Not Found","Mississauga","Ontario","L5T 1M9","Canada"
"187","148B","Boschdijk","Eindhoven","North Brabant","5612HG","The Netherlands"
"188","House Number Not Found","Street Not Found","Cologne","North Rhine-Westphalia","50676","Germany"
"189","House Number Not Found","Street Not Found","Rugby","England","CV23 1AL","United Kingdom"
"190","House Number Not Found","Street Not Found","Amelia","Ohio","45102","United States of America"
"191","29","81b Street","Dubai","Dubai","128940","United Arab Emirates"
"192","House Number Not Found","West Penn Street","Carlisle","Pennsylvania","17013","United States of America"
"193","House Number Not Found","Street Not Found","Cape Town","Western Cape","8001","South Africa"
"194","House Number Not Found","Northern Bypass","Kawempe","Kampala","36188","Uganda"
"195","House Number Not Found","Street Not Found","City Not Found","State Not Found","Postcode Not Found","Country Not Found"
"196","House Number Not Found","Street Not Found","Tulsa","Oklahoma","74106","United States of America"
"197","House Number Not Found","Street Not Found","Birmingham","England","B4","United Kingdom"
"198","House Number Not Found","Street Not Found","Jefferson","Kansas","67340","United States of America"
"199","House Number Not Found","Wellbrook Road","London","England","BR6 8PJ","United Kingdom"
"200","House Number Not Found","Street Not Found","City Not Found","Iowa","50141","United States of America"
"201","House Number Not Found","Street Not Found","Stony Brook","New York","11790","United States of America"
"202","House Number Not Found","Street Not Found","Sportsmen Acres Community","Oklahoma","Postcode Not Found","United States of America"
"203","House Number Not Found","Street Not Found","Jefferson","Kansas","67340","United States of America"
"204","House Number Not Found","Street Not Found","Bangor","Northern Ireland","BT20 4TH","United Kingdom"
"205","House Number Not Found","Street Not Found","City Not Found","State Not Found","Postcode Not Found","Country Not Found"
"206","31/33","Valnu iela","Riga","Vidzeme","LV-1050","Latvia"
"207","House Number Not Found","Broadway","London","England","SW1H 0BE","United Kingdom"
"208","1392","Atlantic Avenue","New York City","New York","11216","United States of America"
"209","273","Columbus Avenue","New York City","New York","10023","United States of America"
"210","House Number Not Found","Borstal Avenue","Accra","Greater Accra Region","16033","Ghana"
"211","House Number Not Found","Street Not Found","City Not Found","Louisiana","71362","United States of America"
"212","House Number Not Found","Street Not Found","City Not Found","State Not Found","Postcode Not Found","Country Not Found"
"213","House Number Not Found","Wyckoff Avenue","New York City","New York","11385","United States of America"
"214","House Number Not Found","Street Not Found","Pullman","Washington","99164","United States of America"
"215","House Number Not Found","Street Not Found","Ville de Bruxelles - Stad Brussel","Brussels-Capital","1000","Belgium"
"216","House Number Not Found","Street Not Found","West Liberty","Ohio","Postcode Not Found","United States of America"
"217","House Number Not Found","Street Not Found","Columbus","Ohio","43216","United States of America"
"218","House Number Not Found","Street Not Found","Les Bons Villers","Wallonia","6211","Belgium"
"219","House Number Not Found","Street Not Found","Oklahoma City","Oklahoma","73169","United States of America"
"220","House Number Not Found","Ajmer Road","Jaipur Municipal Corporation","Rajasthan","302006","India"
"221","411","South Houston Street","Dallas","Texas","75202","United States of America"
"222","House Number Not Found","Street Not Found","City Not Found","State Not Found","Postcode Not Found","Country Not Found"
"223","House Number Not Found","Ajmer Road","Jaipur Municipal Corporation","Rajasthan","302006","India"
"224","House Number Not Found","Rukkedalsvegen","City Not Found","Buskerud","Postcode Not Found","Norway"
"225","House Number Not Found","Bryants Bottom Road","Wycombe","England","HP16 0JR","United Kingdom"
"226","House Number Not Found","Street Not Found","Cape Town","Western Cape","8001","South Africa"
"227","House Number Not Found","Street Not Found","Birmingham","England","Postcode Not Found","United Kingdom"
"228","House Number Not Found","Castlereagh St Cycleway (south)","Sydney","New South Wales","2000","Australia"
"229","House Number Not Found","Street Not Found","Bedford","England","MK40 1SL","United Kingdom"
"230","House Number Not Found","Broadway","London","England","SW1H 0BE","United Kingdom"
"231","29","81b Street","Dubai","Dubai","128940","United Arab Emirates"
"232","House Number Not Found","Street Not Found","Los Angeles","California","90012","United States of America"
"233","House Number Not Found","Street Not Found","Walker","Louisiana","70855","United States of America"
"234","House Number Not Found","Street Not Found","City Not Found","State Not Found","Postcode Not Found","Country Not Found"
"235","House Number Not Found","Street Not Found","Northampton","Massachusetts","01061","United States of America"
"236","9","Street Not Found","Helsinki","Southern Finland","00100","Finland"
"237","House Number Not Found","Street Not Found","Edinburgh","Scotland","EH1 2AW","United Kingdom"
"238","House Number Not Found","Street Not Found","City Not Found","Victoria","3002","Australia"
"239","46-56","Leicester Road","Charnwood","England","LE11 2AL","United Kingdom"
"240","House Number Not Found","Street Not Found","Houston","Texas","77003:77007","United States of America"
"241","House Number Not Found","Street Not Found","Limoneira","California","Postcode Not Found","United States of America"
"242","House Number Not Found","Street Not Found","City Not Found","State Not Found","Postcode Not Found","Country Not Found"
"243","House Number Not Found","Street Not Found","Port Elizabeth","Eastern Cape","6006","South Africa"
"244","House Number Not Found","Street Not Found","Guilderland","New York","12084","United States of America"
"245","House Number Not Found","Street Not Found","Singapore","State Not Found","575734","Singapore"
"246","House Number Not Found","Street Not Found","Los Angeles","California","90012","United States of America"
"247","House Number Not Found","Street Not Found","Adelaide","South Australia","5000","Australia"
"248","House Number Not Found","Street Not Found","Nashville-Davidson","Tennessee","37219","United States of America"
"249","House Number Not Found","Street Not Found","Berlin","State Not Found","10179","Germany"
"250","House Number Not Found","Street Not Found","Frasco","Ticino","6636","Switzerland"
"251","House Number Not Found","Railway Avenue","Chilliwack","British Columbia","V2P 4P6","Canada"
"252","House Number Not Found","Street Not Found","City Not Found","State Not Found","Postcode Not Found","Country Not Found"
"253","House Number Not Found","Street Not Found","Sportsmen Acres Community","Oklahoma","Postcode Not Found","United States of America"
"254","House Number Not Found","Street Not Found","Munster","Indiana","46324","United States of America"
"255","House Number Not Found","Street Not Found","Jefferson","Kansas","67340","United States of America"
"256","House Number Not Found","Street Not Found","Canton","Michigan","48188","United States of America"
"257","House Number Not Found","Street Not Found","Jefferson","Kansas","67340","United States of America"
"258","House Number Not Found","Street Not Found","San Diego","California","92117","United States of America"
"259","15361","State Route 207","Coles Corner","Washington","98826","United States of America"
"260","House Number Not Found","Street Not Found","Reading","England","RG4 7SY","United Kingdom"
"261","House Number Not Found","Street Not Found","Carrollton","Georgia","30117","United States of America"
"262","House Number Not Found","Street Not Found","Adelaide","South Australia","5000","Australia"
"263","House Number Not Found","Swami Vivekanand Road","Mumbai","Maharashtra","400064","India"
"264","411","South Houston Street","Dallas","Texas","75202","United States of America"
"265","House Number Not Found","Street Not Found","Jefferson","Kansas","67340","United States of America"
"266","House Number Not Found","Street Not Found","Valdosta","Georgia","31601","United States of America"
"267","House Number Not Found","Street Not Found","Point O'Rocks","Florida","34242","United States of America"
"268","500","North Main Street","Roswell","New Mexico","88210","United States of America"
"269","150","Greenwich Street","New York City","New York","10007","United States of America"
"270","House Number Not Found","Street Not Found","Los Angeles","California","90012","United States of America"
"271","House Number Not Found","Street Not Found","Bologna","Emilia-Romagna","40121","Italy"
"272","15361","State Route 207","Coles Corner","Washington","98826","United States of America"
"273","House Number Not Found","Street Not Found","Horsham","England","RH20 4HG","United Kingdom"
"274","House Number Not Found","West Side Highway","Sacramento","California","95814","United States of America"
"275","House Number Not Found","Street Not Found","City Not Found","State Not Found","Postcode Not Found","Country Not Found"
"276","House Number Not Found","Street Not Found","Eason","Oklahoma","74878","United States of America"
"277","House Number Not Found","Street Not Found","Jefferson","Kansas","67340","United States of America"
"278","201","South 4th Street","San José","California","95112","United States of America"
"279","House Number Not Found","Street Not Found","City Not Found","State Not Found","Postcode Not Found","Country Not Found"
"280","House Number Not Found","Street Not Found","Knoxville","Tennessee","37916","United States of America"
"281","House Number Not Found","Street Not Found","Jackson","Mississippi","39201","United States of America"
"282","House Number Not Found","Mawdsley Street","Manchester","England","M3 4JP","United Kingdom"
"283","55","Kleine Rittergasse","Frankfurt am Main","Hesse","60594","Germany"
"284","House Number Not Found","<U+91CE><U+6BDB><U+3053><U+3046><U+3058>","Yokohama","Kanagawa Prefecture","231-0064","Japan"
"285","House Number Not Found","Ohlone Way","Emeryville","California","94608","United States of America"
"286","House Number Not Found","Street Not Found","Enniskillen","Northern Ireland","BT74 6DE","United Kingdom"
"287","House Number Not Found","Forest Road","Nederland","Colorado","80466","United States of America"
"288","House Number Not Found","Street Not Found","Las Vegas","Nevada","89101","United States of America"
"289","House Number Not Found","Street Not Found","Folkestone and Hythe","England","CT20 2DF","United Kingdom"
"290","House Number Not Found","Street Not Found","Winton","California","95388","United States of America"
"291","House Number Not Found","Street Not Found","Oceanside","California","92054","United States of America"
"292","House Number Not Found","Street Not Found","Beltsville","Maryland","20705","United States of America"
"293","House Number Not Found","Street Not Found","Cape Town","Western Cape","8001","South Africa"
"294","House Number Not Found","Street Not Found","Escondido","California","92027-2310","United States of America"
"295","House Number Not Found","Street Not Found","Kyle","Texas","78640-6137","United States of America"
"296","1635","Farrington Road","Bells","North Carolina","27523","United States of America"
"297","House Number Not Found","Street Not Found","Omaha","Nebraska","68182","United States of America"
"298","House Number Not Found","Street Not Found","London","England","SE19","United Kingdom"
"299","House Number Not Found","Street Not Found","Fresno","California","93721","United States of America"
"300","630","West 168th Street","New York City","New York","10032","United States of America"
"301","1","Federal Street","Boston","Massachusetts","02110-1301","United States of America"
"302","House Number Not Found","West Cross Street","New Braunfels","Texas","78130","United States of America"
"303","House Number Not Found","Street Not Found","City Not Found","State Not Found","Postcode Not Found","Country Not Found"
"304","House Number Not Found","Street Not Found","Andover","Kansas","67002","United States of America"
"305","House Number Not Found","Street Not Found","City Not Found","Victoria","3002","Australia"
"306","House Number Not Found","Street Not Found","Six Forks","Delaware","19954","United States of America"
"307","House Number Not Found","Street Not Found","Plumsted Township","New Jersey","08533","United States of America"
"308","House Number Not Found","Street Not Found","Perth","Western Australia","6004","Australia"
"309","House Number Not Found","Street Not Found","Jefferson","Kansas","67340","United States of America"
"310","House Number Not Found","Street Not Found","Missoula","Montana","59802","United States of America"
"311","House Number Not Found","Street Not Found","San Diego","California","92101","United States of America"
"312","House Number Not Found","Street Not Found","Los Angeles","California","91406-1232","United States of America"
"313","House Number Not Found","Street Not Found","Maun","North-West District","P.O. BOX 217","Botswana"
"314","House Number Not Found","Street Not Found","Seoul","State Not Found","04521","South Korea"
"315","House Number Not Found","Street Not Found","Denver","Colorado","80290","United States of America"
"316","House Number Not Found","Street Not Found","Jefferson","Kansas","67340","United States of America"
"317","House Number Not Found","Street Not Found","Fresno","California","93702","United States of America"
"318","House Number Not Found","Street Not Found","City Not Found","State Not Found","Postcode Not Found","Country Not Found"
"319","House Number Not Found","Street Not Found","Fresno","California","93702","United States of America"
"320","House Number Not Found","Street Not Found","West Liberty","Ohio","Postcode Not Found","United States of America"
"321","House Number Not Found","Castlereagh St Cycleway (south)","Sydney","New South Wales","2000","Australia"
"322","House Number Not Found","Street Not Found","Hussain Abad","State Not Found","Postcode Not Found","Pakistan"
"323","House Number Not Found","Penang Road","George Town","Penang","10200","Malaysia"
"324","House Number Not Found","Broadway","London","England","SW1H 0BE","United Kingdom"
"325","House Number Not Found","Moi Avenue","Nairobi","Nairobi","PO BOX 30074-00100 NAIROBI","Kenya"
"326","House Number Not Found","Street Not Found","City Not Found","Missouri","65401","United States of America"
"327","9","Street Not Found","Helsinki","Southern Finland","00100","Finland"
"328","House Number Not Found","Mawdsley Street","Manchester","England","M3 4JP","United Kingdom"
"329","House Number Not Found","Street Not Found","City Not Found","South Australia","5220","Australia"
"330","House Number Not Found","Street Not Found","Kansas City","Missouri","64106","United States of America"
"331","House Number Not Found","Street Not Found","San Diego","California","92130","United States of America"
"332","15361","State Route 207","Coles Corner","Washington","98826","United States of America"
"333","700","5th Avenue","Seattle","Washington","98104","United States of America"
"334","House Number Not Found","Street Not Found","Chammenkuzhi","Kerala","679335","India"
"335","House Number Not Found","Street Not Found","City Not Found","State Not Found","Postcode Not Found","Country Not Found"
"336","House Number Not Found","Street Not Found","Jefferson","Kansas","67340","United States of America"
"337","House Number Not Found","Street Not Found","Putnam Township","Michigan","48169","United States of America"
"338","House Number Not Found","Street Not Found","City Not Found","State Not Found","Postcode Not Found","Country Not Found"
"339","House Number Not Found","Street Not Found","Elias Motsoaledi Local Municipality","Limpopo","0470","South Africa"
"340","House Number Not Found","Street Not Found","Broken Arrow","Oklahoma","74102","United States of America"
"341","House Number Not Found","Street Not Found","City Not Found","State Not Found","Postcode Not Found","Country Not Found"
"342","House Number Not Found","East Merced Street","Dinuba","California","93618","United States of America"
"343","House Number Not Found","Street Not Found","Ville de Bruxelles - Stad Brussel","Brussels-Capital","1000","Belgium"
"344","House Number Not Found","Street Not Found","Beaverton","Oregon","97005","United States of America"
"345","House Number Not Found","Street Not Found","Perth","Western Australia","6004","Australia"
"346","House Number Not Found","St. Peter's Street","Maidstone","England","ME16 0GW","United Kingdom"
"347","House Number Not Found","Street Not Found","Port Jefferson","New York","11777","United States of America"
"348","1392","Atlantic Avenue","New York City","New York","11216","United States of America"
"349","House Number Not Found","Street Not Found","Seneca","Missouri","64865","United States of America"
"350","House Number Not Found","Street Not Found","Compton","California","90221","United States of America"
"351","House Number Not Found","Street Not Found","Jefferson","Kansas","67340","United States of America"
"352","House Number Not Found","Broadway","London","England","SW1H 0BE","United Kingdom"
"353","214/1-8","Magan Nathuram Road","Mumbai","Maharashtra","400070","India"
"354","House Number Not Found","Street Not Found","Washington","District of Columbia","20420","United States of America"
"355","House Number Not Found","Street Not Found","Redhouse","Kentucky","Postcode Not Found","United States of America"
"356","House Number Not Found","Street Not Found","Jefferson","Kansas","67340","United States of America"
"357","House Number Not Found","<U+062D><U+064A> <U+0642><U+0644><U+0628> <U+064A><U+0633><U+0648><U+0639>","Ghazir","Keserwan District","25323","Lebanon"
"358","5","Torbay Crescent","City of Nottingham","England","NG5 5HG","United Kingdom"
"359","House Number Not Found","Street Not Found","Los Angeles","California","90012","United States of America"
"360","House Number Not Found","Street Not Found","Oxford","Ohio","45056","United States of America"
"361","House Number Not Found","Street Not Found","Jefferson","Kansas","67340","United States of America"
"362","House Number Not Found","Street Not Found","Kuching","Sarawak","93XXX","Malaysia"
"363","House Number Not Found","Street Not Found","Rancho Cucamonga","California","91701-9998","United States of America"
"364","House Number Not Found","Street Not Found","Cape Town","Western Cape","8001","South Africa"
"365","House Number Not Found","Street Not Found","Sudbury","Massachusetts","01733","United States of America"
"366","House Number Not Found","Street Not Found","City Not Found","State Not Found","Postcode Not Found","Country Not Found"
"367","House Number Not Found","Street Not Found","City Not Found","State Not Found","Postcode Not Found","Country Not Found"
"368","House Number Not Found","Street Not Found","City Not Found","State Not Found","Postcode Not Found","Country Not Found"
"369","House Number Not Found","Street Not Found","St. Louis","Missouri","63102-1102","United States of America"
"370","79","Friargate","Preston","England","PR1 2ED","United Kingdom"
"371","House Number Not Found","Jalan Tropicana Selatan 1","Petaling Jaya","Selangor","47410","Malaysia"
"372","151","North Franklin Street","Chicago","Illinois","60606","United States of America"
"373","House Number Not Found","Street Not Found","Adelaide","South Australia","5000","Australia"
"374","House Number Not Found","Street Not Found","Paradise","Nevada","89109-4338","United States of America"
"375","House Number Not Found","Street Not Found","Buffalo","New York","14202","United States of America"
"376","House Number Not Found","Street Not Found","Tarpon Springs","Florida","34689","United States of America"
"377","151","North Franklin Street","Chicago","Illinois","60606","United States of America"
"378","House Number Not Found","Street Not Found","Phoenix","Arizona","85004","United States of America"
"379","House Number Not Found","Street Not Found","Waitemata","Auckland","1001","New Zealand"
"380","House Number Not Found","Warner Bridge Road","Sims Spring","Tennessee","37160","United States of America"
"381","House Number Not Found","Street Not Found","Jefferson","Kansas","67340","United States of America"
"382","House Number Not Found","Street Not Found","City Not Found","State Not Found","Postcode Not Found","Country Not Found"
"383","House Number Not Found","Street Not Found","Pretoria","Gauteng","0028","South Africa"
"384","151","North Franklin Street","Chicago","Illinois","60606","United States of America"
"385","House Number Not Found","Bond Street","Walsh Point","New South Wales","2300","Australia"
"386","House Number Not Found","Street Not Found","City Not Found","State Not Found","Postcode Not Found","Country Not Found"
"387","House Number Not Found","Street Not Found","Madison","Wisconsin","53715","United States of America"
"388","House Number Not Found","Street Not Found","City Not Found","State Not Found","Postcode Not Found","Country Not Found"
"389","151","North Franklin Street","Chicago","Illinois","60606","United States of America"
"390","House Number Not Found","Castlereagh St Cycleway (south)","Sydney","New South Wales","2000","Australia"
"391","House Number Not Found","Street Not Found","El Paso","Texas","79901","United States of America"
"392","House Number Not Found","Street Not Found","Fresno","California","93702","United States of America"
"393","House Number Not Found","Street Not Found","Independence","Kansas","67301","United States of America"
"394","House Number Not Found","Street Not Found","City Not Found","Minnesota","56273","United States of America"
"395","House Number Not Found","Street Not Found","Houston","Texas","77003:77007","United States of America"
"396","House Number Not Found","Street Not Found","Madison","Wisconsin","53715","United States of America"
"397","House Number Not Found","Street Not Found","Birmingham","Alabama","35203","United States of America"
"398","House Number Not Found","Street Not Found","Tulsa","Oklahoma","74106","United States of America"
"399","House Number Not Found","Street Not Found","Igbobi","Lagos","YABA","Nigeria"
"400","House Number Not Found","Street Not Found","City Not Found","Victoria","3002","Australia"
"401","House Number Not Found","Myrtle Place","Myrtle Beach","South Carolina","29577","United States of America"
"402","House Number Not Found","Street Not Found","Bahay Toro","State Not Found","1106","Philippines"
"403","House Number Not Found","Street Not Found","Anaheim","California","92805","United States of America"
"404","House Number Not Found","Street Not Found","Virginia Beach","Virginia","23451","United States of America"
"405","House Number Not Found","Castlereagh St Cycleway (south)","Sydney","New South Wales","2000","Australia"
"406","House Number Not Found","Street Not Found","City Not Found","State Not Found","Postcode Not Found","Country Not Found"
"407","150","Greenwich Street","New York City","New York","10007","United States of America"
"408","House Number Not Found","Street Not Found","Jefferson","Kansas","67340","United States of America"
"409","House Number Not Found","Street Not Found","Hong Kong","State Not Found","1F","China"
"410","House Number Not Found","Street Not Found","Rome","Lazio","00169","Italy"
"411","House Number Not Found","Street Not Found","Pelahatchie","Mississippi","39145","United States of America"
"412","House Number Not Found","North Main Street","Upland","Indiana","46989","United States of America"
"413","House Number Not Found","Castlereagh St Cycleway (south)","Sydney","New South Wales","2000","Australia"
"414","House Number Not Found","Street Not Found","Jefferson","Kansas","67340","United States of America"
"415","House Number Not Found","Street Not Found","Moorpark Home Acres","California","91320","United States of America"
"416","House Number Not Found","Street Not Found","City Not Found","State Not Found","Postcode Not Found","Country Not Found"
"417","House Number Not Found","Street Not Found","Monrovia","California","91016","United States of America"
"418","House Number Not Found","Los Angeles Avenue","Ventura","California","93084","United States of America"
"419","House Number Not Found","Street Not Found","Fresno","California","93702","United States of America"
"420","House Number Not Found","Street Not Found","Paris","Ile-de-France","75003","France"
"421","House Number Not Found","Street Not Found","Rugby","England","CV23 1AL","United Kingdom"
"422","House Number Not Found","Burdett Street","Sydney","New South Wales","2077","Australia"
"423","House Number Not Found","Street Not Found","Los Angeles","California","CA 90038","United States of America"
"424","House Number Not Found","Broadway","London","England","SW1H 0BE","United Kingdom"
"425","House Number Not Found","Street Not Found","Scottsdale","Arizona","Postcode Not Found","United States of America"
"426","House Number Not Found","Street Not Found","Baxley","Georgia","31513","United States of America"
"427","House Number Not Found","Street Not Found","City Not Found","State Not Found","Postcode Not Found","Country Not Found"
"428","House Number Not Found","Street Not Found","Fresno","California","93702","United States of America"
"429","House Number Not Found","Street Not Found","Tuscaloosa","Alabama","35401:35476","United States of America"
"430","House Number Not Found","Street Not Found","Garden Valley","California","95633","United States of America"
"431","House Number Not Found","Street Not Found","Portland","Oregon","97240","United States of America"
"432","House Number Not Found","Prussman Avenue","Fort Carson","Colorado","80913","United States of America"
"433","House Number Not Found","Street Not Found","City Not Found","Missouri","65401","United States of America"
"434","House Number Not Found","Street Not Found","City Not Found","State Not Found","Postcode Not Found","Country Not Found"
"435","House Number Not Found","Street Not Found","City Not Found","State Not Found","Postcode Not Found","Country Not Found"
"436","House Number Not Found","Street Not Found","New Delhi","Delhi","110004","India"
"437","House Number Not Found","Warner Bridge Road","Sims Spring","Tennessee","37160","United States of America"
"438","House Number Not Found","Street Not Found","Garden Valley","California","95633","United States of America"
"439","155","Keeler Road","Cramahe","Ontario","K0K 1S0","Canada"
"440","House Number Not Found","Street Not Found","City Not Found","State Not Found","Postcode Not Found","Country Not Found"
"441","House Number Not Found","Morris Park Avenue","New York City","New York","10461","United States of America"
"442","House Number Not Found","Street Not Found","City Not Found","State Not Found","Postcode Not Found","Country Not Found"
"443","309","East 11th Street","Austin","Texas","78701","United States of America"
"444","House Number Not Found","Street Not Found","City Not Found","State Not Found","Postcode Not Found","Country Not Found"
"445","House Number Not Found","Street Not Found","Pittsburgh","Pennsylvania","15219","United States of America"
"446","House Number Not Found","Street Not Found","Madrid","Community of Madrid","28001","Spain"
"447","House Number Not Found","Street Not Found","Ashland","Oregon","97520","United States of America"
"448","House Number Not Found","Street Not Found","Omaha","Nebraska","68012","United States of America"
"449","10","Alexander Street","Whangarei","Northland","0110","New Zealand"
"450","House Number Not Found","Anson Road","North West Leicestershire","England","DE74 2PS","United Kingdom"
"451","House Number Not Found","Street Not Found","City Not Found","State Not Found","Postcode Not Found","Country Not Found"
"452","House Number Not Found","Street Not Found","Gayville","South Dakota","57031","United States of America"
"453","House Number Not Found","Herrängsvägen","Herräng","Stockholm County","760 49","Sweden"
"454","127","Pine Avenue West","Crestview","Florida","32536","United States of America"
"455","House Number Not Found","Street Not Found","Columbus","Ohio","43216","United States of America"
"456","House Number Not Found","Street Not Found","La Cité-Limoilou","Quebec","G1R 2J7","Canada"
"457","House Number Not Found","Street Not Found","Niles","Ohio","44446","United States of America"
"458","House Number Not Found","Street Not Found","Nashville-Davidson","Tennessee","37219","United States of America"
"459","House Number Not Found","Jalan Karet Pasar Baru","Jakarta Special Capital Region","State Not Found","10210","Indonesia"
"460","1304","Elati Street","Denver","Colorado","80204","United States of America"
"461","House Number Not Found","Street Not Found","Fresno","California","93702","United States of America"
"462","House Number Not Found","Street Not Found","Baton Rouge","Louisiana","70802","United States of America"
"463","House Number Not Found","Street Not Found","Jefferson","Kansas","67340","United States of America"
"464","House Number Not Found","Street Not Found","Wichita","Kansas","67203","United States of America"
"465","House Number Not Found","Street Not Found","Broken Arrow","Oklahoma","74012","United States of America"
"466","House Number Not Found","Street Not Found","Wichita","Kansas","67206","United States of America"
"467","House Number Not Found","Street Not Found","City Not Found","Arkansas","72082:72102:72143","United States of America"
"468","House Number Not Found","Street Not Found","St. Louis","Missouri","63104","United States of America"
"469","House Number Not Found","Street Not Found","Philadelphia","Pennsylvania","19102","United States of America"
"470","House Number Not Found","Street Not Found","Kansas City","Missouri","64106","United States of America"
"471","House Number Not Found","Street Not Found","Okanogan County","Washington","98855","United States of America"
"472","House Number Not Found","Street Not Found","Bowie","Maryland","20715","United States of America"
"473","House Number Not Found","Street Not Found","Jefferson","Kansas","67340","United States of America"
"474","House Number Not Found","Street Not Found","Wichita","Kansas","67203","United States of America"
"475","House Number Not Found","Castlereagh St Cycleway (south)","Sydney","New South Wales","2000","Australia"
"476","House Number Not Found","Wielkopolska","Stargard","West Pomeranian Voivodeship","73-110","Poland"
"477","House Number Not Found","Street Not Found","Nampa","Idaho","83689","United States of America"
"478","House Number Not Found","Street Not Found","Shinjuku","Tokyo","163-8001","Japan"
"479","House Number Not Found","Street Not Found","Grande Prairie","Alberta","T8V 7X3","Canada"
"480","House Number Not Found","Street Not Found","Los Angeles","California","90012","United States of America"
"481","House Number Not Found","Street Not Found","City Not Found","State Not Found","Postcode Not Found","Country Not Found"
"482","House Number Not Found","Street Not Found","Laredo","Texas","78040","United States of America"
"483","House Number Not Found","Street Not Found","City Not Found","Georgia","Postcode Not Found","United States of America"
"484","1<U+0410>","<U+0443><U+043B><U+0438><U+0446><U+0430> <U+0421><U+0442><U+0440><U+043E><U+0438><U+0442><U+0435><U+043B><U+0435><U+0439>","<U+0411><U+0443><U+043B><U+0433><U+0430><U+043A><U+043E><U+0432><U+0441><U+043A><U+0438><U+0439> <U+0441><U+0435><U+043B><U+044C><U+0441><U+043E><U+0432><U+0435><U+0442>","Bashkortostan","450056","Russia"
"485","House Number Not Found","Street Not Found","South Norfolk","England","NR35 2JH","United Kingdom"
"486","700","5th Avenue","Seattle","Washington","98104","United States of America"
"487","House Number Not Found","Street Not Found","Valdosta","Georgia","31601","United States of America"
"488","7","Dauphin Street","Mobile","Alabama","36602","United States of America"
"489","House Number Not Found","Street Not Found","Hilton Head Island","South Carolina","29926","United States of America"
"490","House Number Not Found","Street Not Found","Jefferson","Kansas","67340","United States of America"
"491","309","East 11th Street","Austin","Texas","78701","United States of America"
"492","151","North Franklin Street","Chicago","Illinois","60606","United States of America"
"493","309","East 11th Street","Austin","Texas","78701","United States of America"
"494","House Number Not Found","Street Not Found","Marysville","Ohio","43040","United States of America"
"495","214/1-8","Magan Nathuram Road","Mumbai","Maharashtra","400070","India"
"496","House Number Not Found","North A Street","Arkansas City","Kansas","67005","United States of America"
"497","House Number Not Found","Street Not Found","Warrenton","Virginia","20186","United States of America"
"498","House Number Not Found","Street Not Found","Portland","Oregon","97258","United States of America"
"499","House Number Not Found","Street Not Found","City Not Found","State Not Found","Postcode Not Found","Country Not Found"
"500","House Number Not Found","Morris Park Avenue","New York City","New York","10461","United States of America"
"501","House Number Not Found","Street Not Found","City Not Found","State Not Found","Postcode Not Found","Country Not Found"
"502","House Number Not Found","Street Not Found","Virginia Beach","Virginia","23451","United States of America"
"503","House Number Not Found","Tainui Rise","Hamilton","Waikato","2100","New Zealand"
"504","House Number Not Found","Street Not Found","La Cité-Limoilou","Quebec","G1R 4A8","Canada"
"505","House Number Not Found","Street Not Found","Atlanta","Georgia","30303","United States of America"
"506","14550","Plantation Road","Cape Coral","Florida","33912","United States of America"
"507","House Number Not Found","Street Not Found","Madrid","Community of Madrid","28001","Spain"
"508","19","Street Not Found","Broken Bow","Oklahoma","74728","United States of America"
"509","House Number Not Found","Street Not Found","City Not Found","State Not Found","Postcode Not Found","Country Not Found"
"510","House Number Not Found","Street Not Found","Reno","Nevada","89505","United States of America"
"511","House Number Not Found","Street Not Found","San Diego","California","92101","United States of America"
"512","House Number Not Found","Street Not Found","City Not Found","State Not Found","Postcode Not Found","Country Not Found"
"513","House Number Not Found","Street Not Found","Mississauga","Ontario","L5B 4C1","Canada"
"514","House Number Not Found","Street Not Found","Oklahoma City","Oklahoma","73102:73104","United States of America"
"515","180","Euclid Avenue","Cleveland","Ohio","44113","United States of America"
"516","House Number Not Found","Street Not Found","Jefferson","Kansas","67340","United States of America"
"517","House Number Not Found","Street Not Found","North Las Vegas","Nevada","NV 89030","United States of America"
"518","House Number Not Found","Ohlone Way","Emeryville","California","94608","United States of America"
"519","House Number Not Found","Street Not Found","Norman","Oklahoma","73060","United States of America"
"520","House Number Not Found","Street Not Found","Carlsbad","California","92008","United States of America"
"521","House Number Not Found","Street Not Found","Cincinnati","Ohio","45202","United States of America"
"522","House Number Not Found","Street Not Found","City Not Found","State Not Found","Postcode Not Found","Country Not Found"
"523","1200","East Hillside Drive","Broken Arrow","Oklahoma","740122","United States of America"
"524","House Number Not Found","Castlereagh St Cycleway (south)","Sydney","New South Wales","2000","Australia"
"525","House Number Not Found","Street Not Found","Jefferson","Kansas","67340","United States of America"
"526","House Number Not Found","Street Not Found","Saint Petersburg","Florida","33701","United States of America"
"527","House Number Not Found","Railway Station Square","Wollongong","New South Wales","2500","Australia"
"528","34","35th Street","New York City","New York","11232","United States of America"
"529","House Number Not Found","Street Not Found","Los Angeles","California","90012","United States of America"
"530","House Number Not Found","Arlegui","Quiapo","State Not Found","1001","Philippines"
"531","2922","2nd Road North","Arlington","Virginia","22201","United States of America"
"532","House Number Not Found","Street Not Found","Marshall","Texas","75670","United States of America"
"533","1","Early Street","Queanbeyan","New South Wales","2620","Australia"
"534","House Number Not Found","Street Not Found","Tustin","California","92780","United States of America"
"535","House Number Not Found","Street Not Found","Fresno","California","93702","United States of America"
"536","House Number Not Found","Street Not Found","City Not Found","State Not Found","Postcode Not Found","Country Not Found"
"537","House Number Not Found","Street Not Found","Overland Park","Kansas","66215","United States of America"
"538","House Number Not Found","Street Not Found","Wollongong","New South Wales","2500","Australia"
"539","House Number Not Found","Munn Oval","Cleveland","Ohio","44111","United States of America"
"540","House Number Not Found","Street Not Found","Edmond","Oklahoma","73034","United States of America"
"541","202","Mott Street","New York City","New York","10012","United States of America"
"542","House Number Not Found","Street Not Found","Eugene","Oregon","97401","United States of America"
"543","House Number Not Found","Street Not Found","Brownwood","Texas","76801","United States of America"
"544","House Number Not Found","Street Not Found","Fresno","California","93702","United States of America"
"545","House Number Not Found","Street Not Found","Marietta","Georgia","30060","United States of America"
"546","House Number Not Found","Street Not Found","Vancouver","British Columbia","V6Z","Canada"
"547","38","Archibald Mews","Toronto","Ontario","M1P 2S1","Canada"
"548","House Number Not Found","Padvlot Avenue","Grand Bras","State Not Found","Postcode Not Found","Grenada"
"549","1392","Atlantic Avenue","New York City","New York","11216","United States of America"
"550","House Number Not Found","Street Not Found","Cheney","Washington","99024","United States of America"
"551","House Number Not Found","Street Not Found","Los Angeles","California","90012","United States of America"
"552","House Number Not Found","Street Not Found","City Not Found","State Not Found","Postcode Not Found","Country Not Found"
"553","House Number Not Found","Street Not Found","Oklahoma City","Oklahoma","73085","United States of America"
"554","House Number Not Found","Street Not Found","City Not Found","Australian Capital Territory","2609","Australia"
"555","House Number Not Found","Street Not Found","West Liberty","Ohio","Postcode Not Found","United States of America"
"556","House Number Not Found","Street Not Found","Tyler","Texas","75702","United States of America"
"557","151","North Franklin Street","Chicago","Illinois","60606","United States of America"
"558","House Number Not Found","Street Not Found","Jefferson","Kansas","67340","United States of America"
"559","House Number Not Found","Street Not Found","Bakersfield","California","93305","United States of America"
"560","House Number Not Found","Street Not Found","New Orleans","Louisiana","70012","United States of America"
"561","House Number Not Found","Street Not Found","Moody","New York","12986","United States of America"
"562","151","North Franklin Street","Chicago","Illinois","60606","United States of America"
"563","7","Dauphin Street","Mobile","Alabama","36602","United States of America"
"564","House Number Not Found","Street Not Found","Phoenix","Arizona","85004","United States of America"
"565","House Number Not Found","Street Not Found","Grand Forks","North Dakota","58206","United States of America"
"566","House Number Not Found","Street Not Found","Lahore","State Not Found","54660","Pakistan"
"567","House Number Not Found","Street Not Found","Beverly Hills","California","90212","United States of America"
"568","House Number Not Found","Street Not Found","Putnam Township","Michigan","48169","United States of America"
"569","House Number Not Found","Street Not Found","Jefferson","Kansas","67340","United States of America"
"570","202","Mott Street","New York City","New York","10012","United States of America"
"571","1629","West Avenue J","Lancaster","California","93534","United States of America"
"572","House Number Not Found","Street Not Found","Sherwood","Arkansas","72116","United States of America"
"573","House Number Not Found","12th Street","Oakland","California","94607","United States of America"
"574","House Number Not Found","Street Not Found","West Hollywood","California","90046","United States of America"
"575","House Number Not Found","Street Not Found","San Diego","California","92037-4291","United States of America"
"576","House Number Not Found","Street Not Found","Jefferson","Kansas","67340","United States of America"
"577","House Number Not Found","Street Not Found","Carthage","Illinois","Postcode Not Found","United States of America"
"578","House Number Not Found","Street Not Found","City Not Found","State Not Found","Postcode Not Found","Country Not Found"
"579","15361","State Route 207","Coles Corner","Washington","98826","United States of America"
"580","House Number Not Found","Street Not Found","Garland","Texas","75040","United States of America"
"581","House Number Not Found","East Lee Avenue","Sapulpa","Oklahoma","74066","United States of America"
"582","151","North Franklin Street","Chicago","Illinois","60606","United States of America"
"583","House Number Not Found","Street Not Found","Lee Vining","California","93541","United States of America"
"584","15361","State Route 207","Coles Corner","Washington","98826","United States of America"
"585","House Number Not Found","Street Not Found","Memphis","Tennessee","38128","United States of America"
"586","2325","Grandview Terrace","Manhattan","Kansas","66502","United States of America"
"587","House Number Not Found","Street Not Found","Oklahoma City","Oklahoma","73118","United States of America"
"588","House Number Not Found","Street Not Found","Chula Vista","California","Postcode Not Found","United States of America"
"589","House Number Not Found","Street Not Found","City Not Found","State Not Found","Postcode Not Found","Country Not Found"
"590","309","East 11th Street","Austin","Texas","78701","United States of America"
"591","House Number Not Found","Street Not Found","Cincinnati","Ohio","45202","United States of America"
"592","House Number Not Found","Street Not Found","City Not Found","State Not Found","Postcode Not Found","Country Not Found"
"593","House Number Not Found","Street Not Found","Toronto","Ontario","M5J 1S9","Canada"
"594","House Number Not Found","Street Not Found","City Not Found","State Not Found","Postcode Not Found","Country Not Found"
"595","House Number Not Found","Street Not Found","Los Angeles","California","90012","United States of America"
"596","601","Adams Street","Toledo","Ohio","43624","United States of America"
"597","House Number Not Found","Street Not Found","San Diego","California","92037-4291","United States of America"
"598","House Number Not Found","Street Not Found","City Not Found","State Not Found","Postcode Not Found","Country Not Found"
"599","House Number Not Found","Street Not Found","Indianapolis","Indiana","46225","United States of America"
"600","909","Broadway","New York City","New York","10010","United States of America"
"601","117","South Ashley Street","Ann Arbor","Michigan","48104","United States of America"
"602","29","81b Street","Dubai","Dubai","128940","United Arab Emirates"
"603","House Number Not Found","Street Not Found","Atlanta","Georgia","30312","United States of America"
"604","House Number Not Found","Street Not Found","Jefferson","Kansas","67340","United States of America"
"605","House Number Not Found","Street Not Found","Columbus","Ohio","43216","United States of America"
"606","House Number Not Found","Street Not Found","New Orleans","Louisiana","70012","United States of America"
"607","305","Calle de la Luna","San Juan","Puerto Rico","00901","United States of America"
"608","700","5th Avenue","Seattle","Washington","98104","United States of America"
"609","House Number Not Found","Street Not Found","Geneva","Geneva","1201","Switzerland"
"610","House Number Not Found","West Hopkins Street","San Marcos","Texas","78666","United States of America"
"611","House Number Not Found","Street Not Found","Grove City","Ohio","43123","United States of America"
"612","House Number Not Found","West Side Highway","Sacramento","California","95814","United States of America"
"613","House Number Not Found","Park Avenue","Baxter Springs","Kansas","66713","United States of America"
"614","House Number Not Found","Street Not Found","Coffeyville","Kansas","67337","United States of America"
"615","House Number Not Found","Street Not Found","City Not Found","State Not Found","Postcode Not Found","Country Not Found"
"616","House Number Not Found","Street Not Found","San Francisco","California","94103","United States of America"
"617","House Number Not Found","Street Not Found","Washington","District of Columbia","20420","United States of America"
"618","House Number Not Found","Street Not Found","City Not Found","State Not Found","Postcode Not Found","Country Not Found"
"619","House Number Not Found","Street Not Found","Kenner","Louisiana","70062","United States of America"
"620","1392","Atlantic Avenue","New York City","New York","11216","United States of America"
"621","309","East 11th Street","Austin","Texas","78701","United States of America"
"622","67","Galtney-Lott Plaza","University","Mississippi","38677","United States of America"
"623","House Number Not Found","Street Not Found","Pittsburgh","Pennsylvania","15219","United States of America"
"624","House Number Not Found","Street Not Found","Fort Worth","Texas","76102","United States of America"
"625","House Number Not Found","Street Not Found","Garden City Park","New York","11040:11530","United States of America"
"626","House Number Not Found","Street Not Found","Lansing","Michigan","48906","United States of America"
"627","House Number Not Found","Street Not Found","Charleston","South Carolina","29401","United States of America"
"628","House Number Not Found","Castlereagh St Cycleway (south)","Sydney","New South Wales","2000","Australia"
"629","House Number Not Found","Street Not Found","City Not Found","Guam","96921","United States of America"
"630","House Number Not Found","Street Not Found","Keizer","Oregon","97303","United States of America"
"631","House Number Not Found","Street Not Found","City Not Found","Iowa","50141","United States of America"
"632","700","5th Avenue","Seattle","Washington","98104","United States of America"
"633","House Number Not Found","Street Not Found","DeLand","Florida","32724","United States of America"
"634","41","Amherst Road","Pelham","Massachusetts","01002","United States of America"
"635","House Number Not Found","Street Not Found","Jefferson","Kansas","67340","United States of America"
"636","House Number Not Found","Street Not Found","City Not Found","Missouri","65401","United States of America"
"637","House Number Not Found","Jalan Sultan Hishamuddin","City Not Found","Kuala Lumpur","50566","Malaysia"
"638","House Number Not Found","Street Not Found","Jefferson","Kansas","67340","United States of America"
"639","180","Euclid Avenue","Cleveland","Ohio","44113","United States of America"
"640","House Number Not Found","Paquin Road","Winnipeg","Manitoba","R2C 3A8","Canada"
"641","House Number Not Found","Street Not Found","Philadelphia","Pennsylvania","19102","United States of America"
"642","House Number Not Found","Street Not Found","Garden Valley","California","95633","United States of America"
"643","House Number Not Found","Street Not Found","City Not Found","State Not Found","Postcode Not Found","Country Not Found"
"644","House Number Not Found","Street Not Found","San Francisco","California","94103","United States of America"
"645","House Number Not Found","Street Not Found","City Not Found","State Not Found","Postcode Not Found","Country Not Found"
"646","500","East Trade Street","Charlotte","North Carolina","28202","United States of America"
"647","350","Canal Walk","Indianapolis","Indiana","46202","United States of America"
"648","House Number Not Found","West Cherry Street","Culpeper","Virginia","22701","United States of America"
"649","House Number Not Found","Street Not Found","Chennai","Tamil Nadu","60003","India"
"650","House Number Not Found","Street Not Found","New Orleans","Louisiana","70012","United States of America"
"651","House Number Not Found","Street Not Found","Coffeyville","Kansas","67337","United States of America"
"652","House Number Not Found","Street Not Found","Cape Coral","Florida","33994","United States of America"
"653","House Number Not Found","Castlereagh St Cycleway (south)","Sydney","New South Wales","2000","Australia"
"654","House Number Not Found","East Pine Street","Dunmore","Pennsylvania","18512","United States of America"
"655","House Number Not Found","Street Not Found","Mangere-Otahuhu","Auckland","2022","New Zealand"
"656","House Number Not Found","Street Not Found","Sliders","Virginia","Postcode Not Found","United States of America"
"657","House Number Not Found","Street Not Found","Lahore","State Not Found","54660","Pakistan"
"658","House Number Not Found","Street Not Found","Msunduzi Local Municipality","KwaZulu-Natal","3201","South Africa"
"659","House Number Not Found","Street Not Found","Washington","District of Columbia","20420","United States of America"
"660","House Number Not Found","East 5th Street","Dayton","Ohio","45403","United States of America"
"661","House Number Not Found","Street Not Found","Denton","Texas","76201","United States of America"
"662","House Number Not Found","Street Not Found","City Not Found","State Not Found","Postcode Not Found","Country Not Found"
"663","House Number Not Found","Street Not Found","Veazie","Maine","04401","United States of America"
"664","House Number Not Found","Street Not Found","Jefferson","Kansas","67340","United States of America"
"665","House Number Not Found","Street Not Found","Jefferson","Kansas","67340","United States of America"
"666","151","North Franklin Street","Chicago","Illinois","60606","United States of America"
"667","House Number Not Found","Street Not Found","West Grand Bahama","State Not Found","Postcode Not Found","Bahamas"
"668","House Number Not Found","Street Not Found","Santiago de Cali","Valle del Cauca","760044","Colombia"
"669","133","South 3rd Street","Louisville","Kentucky","40202","United States of America"
"670","House Number Not Found","Street Not Found","Los Angeles","California","90012","United States of America"
"671","House Number Not Found","Street Not Found","Baltimore","Maryland","21202","United States of America"
"672","House Number Not Found","Street Not Found","Auburn","Alabama","36830","United States of America"
"673","House Number Not Found","Street Not Found","Redhouse","Kentucky","Postcode Not Found","United States of America"
"674","House Number Not Found","River Walk","San Antonio","Texas","78205","United States of America"
"675","House Number Not Found","Flinders Street East","Townsville","Queensland","4810","Australia"
"676","House Number Not Found","Street Not Found","Jakarta Special Capital Region","State Not Found","12150","Indonesia"
"677","House Number Not Found","Street Not Found","Salisbury","Maryland","21801","United States of America"
"678","House Number Not Found","Street Not Found","Washington","District of Columbia","20420","United States of America"
"679","House Number Not Found","Street Not Found","Khan Yunis","State Not Found","Postcode Not Found","Palestinian Territory"
"680","House Number Not Found","West Fay Street","Edinburg","Texas","78539","United States of America"
"681","House Number Not Found","Street Not Found","City Not Found","North Dakota","Postcode Not Found","United States of America"
"682","150","Greenwich Street","New York City","New York","10007","United States of America"
"683","House Number Not Found","Street Not Found","Nashik","Maharashtra","422001","India"
"684","150","Greenwich Street","New York City","New York","10007","United States of America"
"685","House Number Not Found","Street Not Found","Jefferson","Kansas","67340","United States of America"
"686","House Number Not Found","Street Not Found","La Puente","California","91744","United States of America"
"687","180","Euclid Avenue","Cleveland","Ohio","44113","United States of America"
"688","411","South Houston Street","Dallas","Texas","75202","United States of America"
"689","House Number Not Found","Street Not Found","Singapore","State Not Found","574408","Singapore"
"690","350","Canal Walk","Indianapolis","Indiana","46202","United States of America"
"691","House Number Not Found","Street Not Found","Pittsburgh","Pennsylvania","15219","United States of America"
"692","House Number Not Found","Street Not Found","North Canton","Ohio","44720","United States of America"
"693","House Number Not Found","Street Not Found","City Not Found","State Not Found","Postcode Not Found","Country Not Found"
"694","House Number Not Found","Street Not Found","Jefferson","Kansas","67340","United States of America"
"695","House Number Not Found","Slijkeinde","The Hague","South Holland","2513EH","The Netherlands"
"696","House Number Not Found","Street Not Found","Jyväskylä","Western Finland","Postcode Not Found","Finland"
"697","House Number Not Found","Street Not Found","Le Hunt","Kansas","67301","United States of America"
"698","House Number Not Found","Street Not Found","Jefferson","Kansas","67340","United States of America"
"699","House Number Not Found","Street Not Found","Norfolk","Virginia","23510","United States of America"
"700","House Number Not Found","Street Not Found","Los Angeles","California","90066","United States of America"
"701","House Number Not Found","Street Not Found","Redhouse","Kentucky","Postcode Not Found","United States of America"
"702","House Number Not Found","Street Not Found","Weymouth","Massachusetts","02189","United States of America"
"703","House Number Not Found","Street Not Found","Angel City","Florida","32952","United States of America"
"704","House Number Not Found","Street Not Found","Mountain View","California","94041","United States of America"
"705","House Number Not Found","Street Not Found","Toronto","Ontario","M5J 1S9","Canada"
"706","House Number Not Found","Street Not Found","Pittsburgh","Pennsylvania","15219","United States of America"
"707","House Number Not Found","Street Not Found","Fresno","California","93702","United States of America"
"708","House Number Not Found","Street Not Found","Mount Sterling","Ohio","43143","United States of America"
"709","House Number Not Found","Street Not Found","Jefferson","Kansas","67340","United States of America"
"710","House Number Not Found","Street Not Found","Hope","New York","Postcode Not Found","United States of America"
"711","House Number Not Found","Street Not Found","City Not Found","State Not Found","Postcode Not Found","Country Not Found"
"712","House Number Not Found","Street Not Found","Perth","Western Australia","6004","Australia"
"713","House Number Not Found","Robie Lane","Los Gatos","California","95032","United States of America"
"714","House Number Not Found","Jalan Sultan Hishamuddin","City Not Found","Kuala Lumpur","50566","Malaysia"
"715","House Number Not Found","Street Not Found","Atlanta","Georgia","30303","United States of America"
"716","House Number Not Found","Hargrave Street","Winnipeg","Manitoba","R3A 0H7","Canada"
"717","House Number Not Found","Wisteria Way","Richardson","Texas","75080","United States of America"
"718","150","Greenwich Street","New York City","New York","10007","United States of America"
"719","House Number Not Found","Street Not Found","Las Vegas","Nevada","89101","United States of America"
"720","House Number Not Found","Street Not Found","Los Angeles","California","90012","United States of America"
"721","House Number Not Found","Street Not Found","Loveland","Tennessee","37917","United States of America"
"722","House Number Not Found","Street Not Found","Houston","Texas","77003:77007","United States of America"
"723","House Number Not Found","Street Not Found","City Not Found","State Not Found","Postcode Not Found","Country Not Found"
"724","House Number Not Found","Street Not Found","Bijnor","Uttar Pradesh","246700","India"
"725","411","South Houston Street","Dallas","Texas","75202","United States of America"
"726","House Number Not Found","West Hopkins Street","San Marcos","Texas","78666","United States of America"
"727","House Number Not Found","Street Not Found","Chapelton","State Not Found","JMACN03","Country Not Found"
"728","House Number Not Found","North Buffalo Road","Youngberg","Arizona","85199","United States of America"
"729","411","South Houston Street","Dallas","Texas","75202","United States of America"
"730","House Number Not Found","Street Not Found","Jefferson","Kansas","67340","United States of America"
"731","151","North Franklin Street","Chicago","Illinois","60606","United States of America"
"732","House Number Not Found","Street Not Found","Phoenix","Arizona","85004","United States of America"
"733","House Number Not Found","Street Not Found","Double Springs","Alabama","35553","United States of America"
"734","House Number Not Found","Street Not Found","Tetersburg","Indiana","46045","United States of America"
"735","House Number Not Found","Street Not Found","Fort Stockton","Texas","79735","United States of America"
"736","House Number Not Found","West Side Highway","Sacramento","California","95814","United States of America"
"737","House Number Not Found","Chaussée de Bruxelles","Waterloo","Wallonia","1410","Belgium"
"738","House Number Not Found","Street Not Found","City Not Found","Arkansas","72082:72102:72143","United States of America"
"739","House Number Not Found","Street Not Found","City Not Found","State Not Found","Postcode Not Found","Country Not Found"
"740","141","Westhill Lane","Sheffield","England","S1 4EW","United Kingdom"
"741","House Number Not Found","River Walk","San Antonio","Texas","78205","United States of America"
"742","730","Dalworth Drive","Mesquite","Texas","75149","United States of America"
"743","3710","Richmond Road","New York City","New York","10306","United States of America"
"744","House Number Not Found","Street Not Found","Oakley","California","94561","United States of America"
"745","350","Canal Walk","Indianapolis","Indiana","46202","United States of America"
"746","House Number Not Found","Street Not Found","Singapore","State Not Found","574408","Singapore"
"747","House Number Not Found","Street Not Found","City Not Found","State Not Found","Postcode Not Found","Country Not Found"
"748","411","South Houston Street","Dallas","Texas","75202","United States of America"
"749","House Number Not Found","ryan lake Trail","Holbrook","Georgia","30155","United States of America"
"750","House Number Not Found","Street Not Found","City Not Found","State Not Found","Postcode Not Found","Country Not Found"
"751","House Number Not Found","Street Not Found","City Not Found","State Not Found","Postcode Not Found","Country Not Found"
"752","House Number Not Found","Montgomery Street","Middletown","New York","10940","United States of America"
"753","House Number Not Found","Street Not Found","City Not Found","State Not Found","Postcode Not Found","Country Not Found"
"754","House Number Not Found","Ohlone Way","Emeryville","California","94608","United States of America"
"755","15361","State Route 207","Coles Corner","Washington","98826","United States of America"
"756","House Number Not Found","Street Not Found","Baltimore","Maryland","21202","United States of America"
"757","180","Clifton Street","Peterborough","Ontario","K9H 7N9","Canada"
"758","House Number Not Found","Street Not Found","Phoenix","Arizona","85004","United States of America"
"759","House Number Not Found","Street Not Found","Conway","Arkansas","72034","United States of America"
"760","411","South Houston Street","Dallas","Texas","75202","United States of America"
"761","House Number Not Found","Street Not Found","City Not Found","Victoria","3002","Australia"
"762","1305","North Broadway Street","Milwaukee","Wisconsin","53202","United States of America"
"763","House Number Not Found","Street Not Found","Richmond","Kentucky","40475","United States of America"
"764","House Number Not Found","Street Not Found","Pittsburgh","Pennsylvania","15219","United States of America"
"765","1005","South Public Road","Lafayette","Colorado","80026","United States of America"
"766","1305","North Broadway Street","Milwaukee","Wisconsin","53202","United States of America"
"767","House Number Not Found","Street Not Found","Sliders","Virginia","Postcode Not Found","United States of America"
"768","House Number Not Found","East Steve Owens Boulevard","Miami","Oklahoma","74354","United States of America"
"769","House Number Not Found","3rd Street","Detroit","Michigan","48226","United States of America"
"770","55","Carrer de Ferran","Barcelona","Catalonia","08002","Spain"
"771","House Number Not Found","Street Not Found","Philadelphia","Pennsylvania","19102","United States of America"
"772","House Number Not Found","Street Not Found","Rhinecliff","New York","12574","United States of America"
"773","151","North Franklin Street","Chicago","Illinois","60606","United States of America"
"774","74","Berry Street","Brisbane","Queensland","4004","Australia"
"775","House Number Not Found","Street Not Found","Lyon","Auvergne-Rhône-Alpes","69006","France"
"776","232","Lowell Street","Manchester","New Hampshire","03104","United States of America"
"777","House Number Not Found","Street Not Found","City Not Found","State Not Found","Postcode Not Found","Country Not Found"
"778","House Number Not Found","Street Not Found","Level Corner","Pennsylvania","17744","United States of America"
"779","House Number Not Found","Street Not Found","Columbus","Ohio","43216","United States of America"
"780","House Number Not Found","Street Not Found","Plumsted Township","New Jersey","08533","United States of America"
"781","2922","2nd Road North","Arlington","Virginia","22201","United States of America"
"782","House Number Not Found","Street Not Found","Jefferson","Kansas","67340","United States of America"
"783","150","Greenwich Street","New York City","New York","10007","United States of America"
"784","House Number Not Found","West 11th Street","Little Rock","Arkansas","72202","United States of America"
"785","House Number Not Found","Street Not Found","Shreveport","Louisiana","71101","United States of America"
"786","House Number Not Found","West Side Highway","Sacramento","California","95814","United States of America"
"787","House Number Not Found","Street Not Found","Bossier City","Louisiana","71101","United States of America"
"788","House Number Not Found","Street Not Found","London","England","KT3 4DN","United Kingdom"
"789","House Number Not Found","Arch Street","Berkeley","California","94709","United States of America"
"790","House Number Not Found","Street Not Found","City Not Found","State Not Found","Postcode Not Found","Country Not Found"
"791","10","Jalan Teuku Umar","Denpasar","Bali","80114","Indonesia"
"792","House Number Not Found","Street Not Found","El Granada","California","94018","United States of America"
"793","151","North Franklin Street","Chicago","Illinois","60606","United States of America"
"794","House Number Not Found","Street Not Found","Charlotte","North Carolina","28203","United States of America"
"795","House Number Not Found","Street Not Found","Eason","Oklahoma","74878","United States of America"
"796","House Number Not Found","Street Not Found","Sportsmen Acres Community","Oklahoma","Postcode Not Found","United States of America"
"797","House Number Not Found","Street Not Found","Kansas City","Missouri","64110","United States of America"
"798","House Number Not Found","West Oglethorpe Avenue","Savannah","Georgia","31401","United States of America"
"799","House Number Not Found","Street Not Found","Atlanta","Georgia","30303","United States of America"
"800","House Number Not Found","Street Not Found","Redhouse","Kentucky","Postcode Not Found","United States of America"
"801","House Number Not Found","Street Not Found","Tulsa","Oklahoma","74106","United States of America"
"802","House Number Not Found","Street Not Found","Moreno Valley","California","92553","United States of America"
"803","House Number Not Found","Street Not Found","College Station","Texas","77841","United States of America"
"804","House Number Not Found","Street Not Found","San Francisco","California","94103","United States of America"
"805","House Number Not Found","Street Not Found","City Not Found","State Not Found","Postcode Not Found","Country Not Found"
"806","House Number Not Found","Street Not Found","Las Vegas","Nevada","89101","United States of America"
"807","House Number Not Found","Street Not Found","Asheville","North Carolina","28801","United States of America"
"808","House Number Not Found","Street Not Found","Jefferson","Kansas","67340","United States of America"
"809","House Number Not Found","Street Not Found","City Not Found","Georgia","Postcode Not Found","United States of America"
"810","House Number Not Found","Street Not Found","Coquitlam","British Columbia","V3B 0C6","Canada"
"811","151","North Franklin Street","Chicago","Illinois","60606","United States of America"
"812","House Number Not Found","Street Not Found","City Not Found","North Dakota","Postcode Not Found","United States of America"
"813","House Number Not Found","Street Not Found","Toronto","Ontario","M5J 1S9","Canada"
"814","House Number Not Found","Street Not Found","Toronto","Ontario","M5J 1S9","Canada"
"815","House Number Not Found","Street Not Found","New Orleans","Louisiana","70012","United States of America"
"816","House Number Not Found","Street Not Found","Baltimore","Maryland","21202","United States of America"
"817","House Number Not Found","Street Not Found","Tetersburg","Indiana","46045","United States of America"
"818","315","Main Street","Edmonds","Washington","98020","United States of America"
"819","151","North Franklin Street","Chicago","Illinois","60606","United States of America"
"820","350","Canal Walk","Indianapolis","Indiana","46202","United States of America"
"821","House Number Not Found","Street Not Found","Jefferson","Kansas","67340","United States of America"
"822","House Number Not Found","Street Not Found","City Not Found","State Not Found","Postcode Not Found","Country Not Found"
"823","House Number Not Found","Street Not Found","Tyler","Texas","75702","United States of America"
"824","House Number Not Found","Central Avenue","Newark","New Jersey","07102:07103","United States of America"
"825","1030","Ouellette Avenue","Windsor","Ontario","N9A 1E1","Canada"
"826","House Number Not Found","Street Not Found","Iowa City","Iowa","52246","United States of America"
"827","House Number Not Found","Street Not Found","Richmond City","Virginia","23234","United States of America"
"828","House Number Not Found","Street Not Found","Elizabeth City","North Carolina","27909","United States of America"
"829","709","2nd Street North","Fargo","North Dakota","58102-4608","United States of America"
"830","House Number Not Found","Street Not Found","Coloma","Michigan","49038","United States of America"
"831","309","East 11th Street","Austin","Texas","78701","United States of America"
"832","House Number Not Found","Street Not Found","Laurinburg","North Carolina","28352","United States of America"
"833","150","Greenwich Street","New York City","New York","10007","United States of America"
"834","House Number Not Found","Street Not Found","City Not Found","State Not Found","Postcode Not Found","Country Not Found"
"835","House Number Not Found","Street Not Found","City Not Found","State Not Found","Postcode Not Found","Country Not Found"
"836","House Number Not Found","Castlereagh St Cycleway (south)","Sydney","New South Wales","2000","Australia"
"837","House Number Not Found","Street Not Found","Atlanta","Georgia","30303","United States of America"
"838","House Number Not Found","Street Not Found","Aviano","Friuli Venezia Giulia","33081","Italy"
"839","House Number Not Found","Street Not Found","Clearfield","Utah","84015","United States of America"
"840","House Number Not Found","Street Not Found","City Not Found","State Not Found","Postcode Not Found","Country Not Found"
"841","House Number Not Found","Street Not Found","Mississauga","Ontario","L5B 4C1","Canada"
"842","House Number Not Found","Street Not Found","Jefferson","Kansas","67340","United States of America"
"843","House Number Not Found","Street Not Found","City Not Found","State Not Found","Postcode Not Found","Country Not Found"
"844","House Number Not Found","Street Not Found","City Not Found","State Not Found","Postcode Not Found","Country Not Found"
"845","House Number Not Found","Street Not Found","City Not Found","State Not Found","Postcode Not Found","Country Not Found"
"846","House Number Not Found","Street Not Found","City Not Found","State Not Found","Postcode Not Found","Country Not Found"
"847","350","Canal Walk","Indianapolis","Indiana","46202","United States of America"
"848","House Number Not Found","Street Not Found","City Not Found","State Not Found","Postcode Not Found","Country Not Found"
"849","House Number Not Found","Street Not Found","City Not Found","State Not Found","Postcode Not Found","Country Not Found"
"850","House Number Not Found","Flagpole Plaza","New York City","Liberty Island","10004","United States of America"
"851","House Number Not Found","13th Street","Lubbock","Texas","79401","United States of America"
"852","House Number Not Found","Street Not Found","Tetersburg","Indiana","46045","United States of America"
"853","House Number Not Found","Essex Street","Lynn","Massachusetts","01907","United States of America"
"854","House Number Not Found","Street Not Found","Wichita Falls","Texas","76301","United States of America"
"855","House Number Not Found","Street Not Found","San Francisco","California","94103","United States of America"
"856","House Number Not Found","Street Not Found","Columbus","Ohio","43214","United States of America"
"857","House Number Not Found","Street Not Found","Putnam Township","Michigan","48169","United States of America"
"858","House Number Not Found","East Main Street","Riceville","Iowa","50466","United States of America"
"859","House Number Not Found","Street Not Found","Bellingham","Washington","98225-5215","United States of America"
"860","House Number Not Found","Street Not Found","Columbus","Ohio","43216","United States of America"
"861","700","5th Avenue","Seattle","Washington","98104","United States of America"
"862","1635","Farrington Road","Bells","North Carolina","27523","United States of America"
"863","1","Federal Street","Boston","Massachusetts","02110-1301","United States of America"
"864","House Number Not Found","Street Not Found","Bremer Junction","Queensland","4070","Australia"
"865","House Number Not Found","Street Not Found","Washington","District of Columbia","20420","United States of America"
"866","House Number Not Found","Street Not Found","Chertsey","England","KT16 8JJ","United Kingdom"
"867","350","Canal Walk","Indianapolis","Indiana","46202","United States of America"
"868","House Number Not Found","Street Not Found","City Not Found","State Not Found","Postcode Not Found","Country Not Found"
"869","House Number Not Found","Street Not Found","Los Angeles","California","90039-2720","United States of America"
"870","150","Greenwich Street","New York City","New York","10007","United States of America"
"871","House Number Not Found","Street Not Found","Washington","District of Columbia","20420","United States of America"
"872","House Number Not Found","Street Not Found","Plumsted Township","New Jersey","08533","United States of America"
"873","House Number Not Found","Vine Street","Lafayette","Louisiana","70501","United States of America"
"874","House Number Not Found","Street Not Found","Bowling Green","Kentucky","42101","United States of America"
"875","1","Federal Street","Boston","Massachusetts","02110-1301","United States of America"
"876","13670","East 13th Place","Aurora","Colorado","80011","United States of America"
"877","House Number Not Found","Street Not Found","Washington","District of Columbia","20420","United States of America"
"878","House Number Not Found","Street Not Found","Portland","Oregon","97258","United States of America"
"879","House Number Not Found","Hargrave Street","Winnipeg","Manitoba","R3A 0H7","Canada"
"880","House Number Not Found","Street Not Found","Fresno","California","93702","United States of America"
"881","House Number Not Found","Street Not Found","Cleveland","Tennessee","37311","United States of America"
"882","House Number Not Found","25th Main Road","Bengaluru","Karnataka","560069","India"
"883","House Number Not Found","Street Not Found","Le Hunt","Kansas","67301","United States of America"
"884","House Number Not Found","Street Not Found","Batesville","Arkansas","72501","United States of America"
"885","House Number Not Found","Street Not Found","Atlantis","Florida","33462","United States of America"
"886","House Number Not Found","Street Not Found","Washington","District of Columbia","20420","United States of America"
"887","House Number Not Found","West 26th Street","Bryan","Texas","77803","United States of America"
"888","House Number Not Found","Ames Plaza","Bloomington","Illinois","61701","United States of America"
"889","House Number Not Found","Street Not Found","Long Beach","California","90802","United States of America"
"890","House Number Not Found","Street Not Found","Norfolk","Virginia","23510","United States of America"
"891","House Number Not Found","Street Not Found","Washington","District of Columbia","20420","United States of America"
"892","House Number Not Found","Street Not Found","Jefferson","Kansas","67340","United States of America"
"893","House Number Not Found","Street Not Found","City Not Found","Georgia","Postcode Not Found","United States of America"
"894","37","Hoffman Drive","Kings Park","New York","11754","United States of America"
"895","House Number Not Found","Street Not Found","City Not Found","State Not Found","Postcode Not Found","Country Not Found"
"896","House Number Not Found","Street Not Found","Los Angeles","California","90012","United States of America"
"897","133","South 3rd Street","Louisville","Kentucky","40202","United States of America"
"898","House Number Not Found","Street Not Found","City Not Found","State Not Found","Postcode Not Found","Country Not Found"
"899","House Number Not Found","North Duke Street","Shepherdstown","West Virginia","25443","United States of America"
"900","House Number Not Found","Street Not Found","City Not Found","State Not Found","Postcode Not Found","Country Not Found"
"901","House Number Not Found","Street Not Found","Level Corner","Pennsylvania","17744","United States of America"
"902","House Number Not Found","Street Not Found","Baton Rouge","Louisiana","70806","United States of America"
"903","House Number Not Found","Street Not Found","San Francisco","California","94103","United States of America"
"904","House Number Not Found","Street Not Found","Cleveland","Oklahoma","74020","United States of America"
"905","House Number Not Found","Street Not Found","El Paso","Texas","79901","United States of America"
"906","House Number Not Found","Street Not Found","Singapore","State Not Found","574408","Singapore"
"907","House Number Not Found","Rua Hermann Blumenau","Florianópolis","Santa Catarina","88020-001","Brazil"
"908","House Number Not Found","Main Street","Hackensack","New Jersey","07661","United States of America"
"909","House Number Not Found","Street Not Found","Omaha","Nebraska","68012","United States of America"
"910","102","Madison Street","Port Clinton","Ohio","43452","United States of America"
"911","House Number Not Found","Street Not Found","City Not Found","State Not Found","Postcode Not Found","Country Not Found"
"912","House Number Not Found","Street Not Found","Menomonee Falls","Wisconsin","53051","United States of America"
"913","House Number Not Found","Street Not Found","Broken Hill","New South Wales","2880","Australia"
"914","House Number Not Found","Street Not Found","Bartlesville","Oklahoma","74006","United States of America"
"915","House Number Not Found","Street Not Found","Portland","Oregon","97258","United States of America"
"916","House Number Not Found","Street Not Found","Annapolis","Maryland","21411","United States of America"
"917","House Number Not Found","Street Not Found","Jefferson","Kansas","67340","United States of America"
"918","411","South Houston Street","Dallas","Texas","75202","United States of America"
"919","House Number Not Found","Street Not Found","Bridge City","Texas","77611","United States of America"
"920","House Number Not Found","Street Not Found","City Not Found","Illinois","62938","United States of America"
"921","House Number Not Found","Street Not Found","Big Run","West Virginia","26217","United States of America"
"922","House Number Not Found","Street Not Found","City Not Found","Ontario","Postcode Not Found","Canada"
"923","272","Elm Street","New Haven","Connecticut","06511","United States of America"
"924","House Number Not Found","Street Not Found","North Guilford","Maine","Postcode Not Found","United States of America"
"925","House Number Not Found","Street Not Found","City Not Found","Louisiana","70079","United States of America"
"926","House Number Not Found","Street Not Found","New Orleans","Louisiana","70012","United States of America"
"927","House Number Not Found","Street Not Found","New Orleans","Louisiana","70012","United States of America"
"928","House Number Not Found","Street Not Found","Oneida","Tennessee","37841","United States of America"
"929","House Number Not Found","Street Not Found","Los Angeles","California","90012","United States of America"
"930","House Number Not Found","Street Not Found","Albuquerque","New Mexico","87102","United States of America"
"931","House Number Not Found","Street Not Found","Tyler","Texas","75702","United States of America"
"932","House Number Not Found","Street Not Found","Union","New Jersey","07083","United States of America"
"933","House Number Not Found","Street Not Found","Toronto","Ontario","M5J 1S9","Canada"
"934","House Number Not Found","Jalan Tropicana Selatan 1","Petaling Jaya","Selangor","47410","Malaysia"
"935","House Number Not Found","Street Not Found","Eason","Oklahoma","74878","United States of America"
"936","House Number Not Found","Street Not Found","Lapithos","Northern Cyprus","99440","Cyprus"
"937","201","South 4th Street","San José","California","95112","United States of America"
"938","House Number Not Found","Street Not Found","Lexington","Kentucky","40508","United States of America"
"939","House Number Not Found","Street Not Found","Los Angeles","California","90012","United States of America"
"940","1635","Farrington Road","Bells","North Carolina","27523","United States of America"
"941","House Number Not Found","Warner Bridge Road","Sims Spring","Tennessee","37160","United States of America"
"942","House Number Not Found","3rd Street","Detroit","Michigan","48226","United States of America"
"943","House Number Not Found","Street Not Found","City Not Found","State Not Found","Postcode Not Found","Country Not Found"
"944","407","East Main Street","Waunakee","Wisconsin","53597","United States of America"
"945","House Number Not Found","Dadri Road","Barola","Uttar Pradesh","201305","India"
"946","150","Greenwich Street","New York City","New York","10007","United States of America"
"947","House Number Not Found","Street Not Found","City Not Found","Missouri","65401","United States of America"
"948","House Number Not Found","Ohlone Way","Emeryville","California","94608","United States of America"
"949","House Number Not Found","Street Not Found","Jefferson","Kansas","67340","United States of America"
"950","House Number Not Found","West 11th Street","Little Rock","Arkansas","72202","United States of America"
"951","House Number Not Found","Street Not Found","Escondido","California","92027-2310","United States of America"
"952","544","Hubbard Avenue","Aquebogue","New York","11901","United States of America"
"953","House Number Not Found","Street Not Found","Knoxville","Tennessee","37916","United States of America"
"954","House Number Not Found","Street Not Found","City Not Found","State Not Found","Postcode Not Found","Country Not Found"
"955","House Number Not Found","Outer Circle","Winfield","Kansas","67156","United States of America"
"956","74","Berry Street","Brisbane","Queensland","4004","Australia"
"957","House Number Not Found","Street Not Found","Inglewood","California","90304","United States of America"
"958","730","Dalworth Drive","Mesquite","Texas","75149","United States of America"
"959","House Number Not Found","Street Not Found","Atlanta","Georgia","30327","United States of America"
"960","309","East 11th Street","Austin","Texas","78701","United States of America"
"961","House Number Not Found","Street Not Found","West Liberty","Ohio","Postcode Not Found","United States of America"
"962","House Number Not Found","Street Not Found","West Liberty","Ohio","Postcode Not Found","United States of America"
"963","House Number Not Found","Street Not Found","Jefferson","Kansas","67340","United States of America"
"964","House Number Not Found","East 2nd Avenue","Bowling Green","Kentucky","42101","United States of America"
"965","House Number Not Found","Street Not Found","Los Angeles","California","90012","United States of America"
"966","House Number Not Found","Street Not Found","Baton Rouge","Louisiana","70802","United States of America"
"967","House Number Not Found","Street Not Found","City Not Found","Kentucky","40108","United States of America"
"968","House Number Not Found","Street Not Found","Rural Retreat","Virginia","24368","United States of America"
"969","House Number Not Found","Street Not Found","West Liberty","Ohio","Postcode Not Found","United States of America"
"970","House Number Not Found","Street Not Found","City Not Found","State Not Found","Postcode Not Found","Country Not Found"
"971","House Number Not Found","Street Not Found","Greenfield","Indiana","46140","United States of America"
"972","House Number Not Found","Street Not Found","Onarga","Illinois","60955","United States of America"
"973","House Number Not Found","Street Not Found","St. Louis","Missouri","63102-1102","United States of America"
"974","House Number Not Found","Street Not Found","Jefferson","Kansas","67340","United States of America"
"975","House Number Not Found","Mamo Street","Hilo CDP","Hawaii","96720","United States of America"
"976","House Number Not Found","Lafayette Boulevard","Fredericksburg","Virginia","22401","United States of America"
"977","House Number Not Found","Street Not Found","Hackensack","New Jersey","07646:07666","United States of America"
"978","House Number Not Found","Street Not Found","Atlanta","Georgia","30303","United States of America"
"979","150","Greenwich Street","New York City","New York","10007","United States of America"
"980","House Number Not Found","Street Not Found","Colleyville","Texas","76034","United States of America"
"981","House Number Not Found","Street Not Found","Germantown","Maryland","20874","United States of America"
"982","151","North Franklin Street","Chicago","Illinois","60606","United States of America"
"983","500","East Trade Street","Charlotte","North Carolina","28202","United States of America"
"984","House Number Not Found","Union Turnpike","New York City","New York","11366","United States of America"
"985","House Number Not Found","Street Not Found","Houston","Texas","77003:77007","United States of America"
"986","House Number Not Found","Street Not Found","Tulsa","Oklahoma","74106","United States of America"
"987","151","North Franklin Street","Chicago","Illinois","60606","United States of America"
"988","1304","Elati Street","Denver","Colorado","80204","United States of America"
"989","House Number Not Found","Street Not Found","El Paso","Texas","79901","United States of America"
"990","1635","Farrington Road","Bells","North Carolina","27523","United States of America"
"991","House Number Not Found","Street Not Found","Jefferson","Kansas","67340","United States of America"
"992","House Number Not Found","Street Not Found","City Not Found","State Not Found","Postcode Not Found","Country Not Found"
"993","House Number Not Found","Street Not Found","Oakville","Connecticut","06795","United States of America"
"994","69","Aripo Road","Aripo","Tunapuna-Piarco","0000","Trinidad and Tobago"
"995","House Number Not Found","West Side Highway","Sacramento","California","95814","United States of America"
"996","House Number Not Found","Street Not Found","Redhouse","Kentucky","Postcode Not Found","United States of America"
"997","House Number Not Found","Street Not Found","Tanager Forest","Maryland","21108","United States of America"
"998","House Number Not Found","Street Not Found","Coffeyville","Kansas","67337","United States of America"
"999","House Number Not Found","Street Not Found","Diamond Bar","California","CA 91765","United States of America"
"1000","House Number Not Found","Street Not Found","City Not Found","State Not Found","Postcode Not Found","Country Not Found"
