"","housenumber","street","city","state","zip","country"
"1","House Number Not Found","Street Not Found","City Not Found","State Not Found","Postcode Not Found","Country Not Found"
"2","House Number Not Found","Street Not Found","Round Rock","Texas","78664","United States of America"
"3","House Number Not Found","Street Not Found","Tulsa","Oklahoma","74106","United States of America"
"4","House Number Not Found","Street Not Found","City Not Found","State Not Found","Postcode Not Found","Country Not Found"
"5","House Number Not Found","Street Not Found","Durban","KwaZulu-Natal","4025","South Africa"
"6","465","MacLaren Street","Ottawa","Ontario","K2P 0M7","Canada"
"7","House Number Not Found","Street Not Found","Kota Kinabalu","Sabah","88220","Malaysia"
"8","151","North Franklin Street","Chicago","Illinois","60606","United States of America"
"9","House Number Not Found","Street Not Found","Durban","KwaZulu-Natal","4025","South Africa"
"10","House Number Not Found","Street Not Found","Nashville-Davidson","Tennessee","37219","United States of America"
"11","150","Greenwich Street","New York City","New York","10007","United States of America"
"12","House Number Not Found","Street Not Found","Athlone Municipal District","State Not Found","Postcode Not Found","Ireland"
"13","150","Greenwich Street","New York City","New York","10007","United States of America"
"14","1392","Atlantic Avenue","New York City","New York","11216","United States of America"
"15","House Number Not Found","Street Not Found","Jefferson","Kansas","67340","United States of America"
"16","House Number Not Found","Street Not Found","City Not Found","Utah","Postcode Not Found","United States of America"
"17","House Number Not Found","Street Not Found","Yogo Crossing","Montana","Postcode Not Found","United States of America"
"18","House Number Not Found","Street Not Found","City Not Found","Texas","Postcode Not Found","United States of America"
"19","House Number Not Found","Street Not Found","City Not Found","State Not Found","Postcode Not Found","Country Not Found"
"20","House Number Not Found","Street Not Found","Bristol","England","BS1","United Kingdom"
"21","House Number Not Found","Street Not Found","City Not Found","State Not Found","Postcode Not Found","Country Not Found"
"22","House Number Not Found","Street Not Found","Beaverton","Oregon","97005","United States of America"
"23","House Number Not Found","Street Not Found","Portland","Oregon","97258","United States of America"
"24","House Number Not Found","Street Not Found","Owasso","Oklahoma","74055","United States of America"
"25","House Number Not Found","West Side Highway","Sacramento","California","95814","United States of America"
"26","House Number Not Found","Street Not Found","Las Vegas","Nevada","89101","United States of America"
"27","House Number Not Found","Street Not Found","Columbus","Ohio","43216","United States of America"
"28","House Number Not Found","Street Not Found","Pittsburgh","Pennsylvania","15219","United States of America"
"29","House Number Not Found","Street Not Found","Houston","Texas","77003:77007","United States of America"
"30","House Number Not Found","Street Not Found","Phoenix","Arizona","85008-4905","United States of America"
"31","House Number Not Found","Street Not Found","Muskegon","Michigan","49442","United States of America"
"32","150","Greenwich Street","New York City","New York","10007","United States of America"
"33","House Number Not Found","Street Not Found","Atlanta","Georgia","30303","United States of America"
"34","House Number Not Found","Street Not Found","Dartford","England","DA1 5GL","United Kingdom"
"35","House Number Not Found","Street Not Found","Wichita","Kansas","67202","United States of America"
"36","House Number Not Found","Summers Street","Charleston","West Virginia","25301","United States of America"
"37","House Number Not Found","Street Not Found","Plumsted Township","New Jersey","08533","United States of America"
"38","House Number Not Found","Street Not Found","Bethesda","Maryland","22814","United States of America"
"39","House Number Not Found","Street Not Found","North Guilford","Maine","Postcode Not Found","United States of America"
"40","House Number Not Found","Street Not Found","Durham","North Carolina","27701","United States of America"
"41","House Number Not Found","Street Not Found","Pittsburgh","Pennsylvania","15219","United States of America"
"42","House Number Not Found","Street Not Found","Kistler Park","Colorado","80129","United States of America"
"43","House Number Not Found","Street Not Found","Jefferson","Kansas","67340","United States of America"
"44","House Number Not Found","Broadway","London","England","SW1H 0BE","United Kingdom"
"45","133-135","Mansfield Road","City of Nottingham","England","NG1 3FQ","United Kingdom"
"46","411","South Houston Street","Dallas","Texas","75202","United States of America"
"47","House Number Not Found","Hermesplantsoen","Rotterdam","South Holland","3014GW","The Netherlands"
"48","House Number Not Found","Street Not Found","San José","California","95123","United States of America"
"49","House Number Not Found","Street Not Found","Verdi-Mogul","Nevada","89515","United States of America"
"50","House Number Not Found","Street Not Found","City Not Found","Michigan","49455","United States of America"
"51","House Number Not Found","Street Not Found","Huntsville","Alabama","35801","United States of America"
"52","House Number Not Found","Boulevard De Maisonneuve Ouest","Montreal","Quebec","H3A 3L4","Canada"
"53","House Number Not Found","Street Not Found","Walsall","England","WS4 2LX","United Kingdom"
"54","House Number Not Found","Street Not Found","San Diego","California","92128","United States of America"
"55","House Number Not Found","Street Not Found","City Not Found","State Not Found","Postcode Not Found","Country Not Found"
"56","House Number Not Found","Street Not Found","Waterloo","Ontario","N2G 1T6","Canada"
"57","House Number Not Found","Street Not Found","Poole","England","BH15 1HJ","United Kingdom"
"58","House Number Not Found","Street Not Found","City Not Found","State Not Found","Postcode Not Found","Country Not Found"
"59","9645","Washington Street","Thornton","Colorado","80229","United States of America"
"60","House Number Not Found","Warner Bridge Road","Sims Spring","Tennessee","37160","United States of America"
"61","1305","North Broadway Street","Milwaukee","Wisconsin","53202","United States of America"
"62","350","Canal Walk","Indianapolis","Indiana","46202","United States of America"
"63","18","Perkins Street","Ottawa","Ontario","K1R 7G5","Canada"
"64","House Number Not Found","Street Not Found","Columbia","Kentucky","42728","United States of America"
"65","House Number Not Found","Street Not Found","Emory","Texas","75440","United States of America"
"66","150","Greenwich Street","New York City","New York","10007","United States of America"
"67","House Number Not Found","Street Not Found","Auburn","Alabama","36830","United States of America"
"68","House Number Not Found","Street Not Found","Pittsburg","Kansas","66762","United States of America"
"69","50","East Washington Street","Petaluma","California","94952","United States of America"
"70","House Number Not Found","Street Not Found","New Albany","Ohio","43054","United States of America"
"71","House Number Not Found","Mawdsley Street","Manchester","England","M3 4JP","United Kingdom"
"72","411","South Houston Street","Dallas","Texas","75202","United States of America"
"73","House Number Not Found","Street Not Found","Igbobi","Lagos","YABA","Nigeria"
"74","House Number Not Found","Mesa Verde Avenue","Ventura","California","93003","United States of America"
"75","House Number Not Found","Street Not Found","City Not Found","State Not Found","Postcode Not Found","Country Not Found"
"76","House Number Not Found","Street Not Found","Sliders","Virginia","Postcode Not Found","United States of America"
"77","House Number Not Found","Wellington Quay","Dublin","State Not Found","D02 Y306","Ireland"
"78","475","North M Street","Tulare","California","93274","United States of America"
"79","House Number Not Found","Street Not Found","Columbus","Ohio","43216","United States of America"
"80","House Number Not Found","Street Not Found","Town of Rocky Hill","Connecticut","06067","United States of America"
"81","House Number Not Found","Street Not Found","Baker","Louisiana","70714","United States of America"
"82","House Number Not Found","Street Not Found","City Not Found","State Not Found","Postcode Not Found","Country Not Found"
"83","151","North Franklin Street","Chicago","Illinois","60606","United States of America"
"84","House Number Not Found","Morris Park Avenue","New York City","New York","10461","United States of America"
"85","House Number Not Found","Street Not Found","Jefferson","Kansas","67340","United States of America"
"86","House Number Not Found","Street Not Found","Fresno","California","93702","United States of America"
"87","House Number Not Found","Street Not Found","Dubuque","Iowa","52001","United States of America"
"88","House Number Not Found","Street Not Found","Fresno","California","93702","United States of America"
"89","House Number Not Found","Street Not Found","Columbus","Ohio","43216","United States of America"
"90","House Number Not Found","Street Not Found","Rugby","England","CV23 1AL","United Kingdom"
"91","House Number Not Found","Street Not Found","Toronto","Ontario","M5J 1S9","Canada"
"92","House Number Not Found","Street Not Found","Baton Rouge","Louisiana","70802","United States of America"
"93","House Number Not Found","Street Not Found","Williston","Vermont","05495","United States of America"
"94","House Number Not Found","Street Not Found","Clyde","Ohio","43410","United States of America"
"95","House Number Not Found","Street Not Found","Jefferson","Kansas","67340","United States of America"
"96","House Number Not Found","Street Not Found","Columbus","Ohio","43216","United States of America"
"97","House Number Not Found","Street Not Found","San Diego","California","92037-4291","United States of America"
"98","House Number Not Found","Street Not Found","Cherryvale","Kansas","67335","United States of America"
"99","House Number Not Found","Street Not Found","Washington","District of Columbia","20420","United States of America"
"100","House Number Not Found","Street Not Found","Tulsa","Oklahoma","74106","United States of America"
"101","151","North Franklin Street","Chicago","Illinois","60606","United States of America"
"102","NAIA Terminal 2","NAIA T2 Carpark Driveway","City Not Found","State Not Found","1301","Philippines"
"103","House Number Not Found","Street Not Found","City Not Found","State Not Found","Postcode Not Found","Country Not Found"
"104","House Number Not Found","Street Not Found","Columbus","Ohio","43204","United States of America"
"105","5782","North Newburgh Road","Westland","Michigan","48185","United States of America"
"106","House Number Not Found","Gali 90","Islamabad","State Not Found","44000","Pakistan"
"107","411","South Houston Street","Dallas","Texas","75202","United States of America"
"108","150","Greenwich Street","New York City","New York","10007","United States of America"
"109","House Number Not Found","Street Not Found","Minneapolis","Minnesota","55401","United States of America"
"110","House Number Not Found","Street Not Found","Columbus","Ohio","43216","United States of America"
"111","House Number Not Found","Fairlawn Avenue","Carthage","Missouri","64836","United States of America"
"112","1","Federal Street","Boston","Massachusetts","02110-1301","United States of America"
"113","House Number Not Found","Street Not Found","Normal","Illinois","61790","United States of America"
"114","House Number Not Found","Street Not Found","Los Angeles","California","90012","United States of America"
"115","House Number Not Found","Street Not Found","Tetersburg","Indiana","46045","United States of America"
"116","1635","Farrington Road","Bells","North Carolina","27523","United States of America"
"117","House Number Not Found","Street Not Found","North Guilford","Maine","Postcode Not Found","United States of America"
"118","350","Canal Walk","Indianapolis","Indiana","46202","United States of America"
"119","180","Euclid Avenue","Cleveland","Ohio","44113","United States of America"
"120","House Number Not Found","Street Not Found","Nashville-Davidson","Tennessee","37219","United States of America"
"121","House Number Not Found","Street Not Found","Level Corner","Pennsylvania","17744","United States of America"
"122","House Number Not Found","Street Not Found","Jefferson","Kansas","67340","United States of America"
"123","House Number Not Found","Street Not Found","Oakville","Connecticut","06795","United States of America"
"124","House Number Not Found","Street Not Found","City of Flint","Michigan","48532","United States of America"
"125","House Number Not Found","Street Not Found","City Not Found","State Not Found","Postcode Not Found","Country Not Found"
"126","House Number Not Found","Street Not Found","City Not Found","Kaunas County","58148","Lithuania"
"127","House Number Not Found","Street Not Found","Delaware","Ohio","43015","United States of America"
"128","House Number Not Found","Street Not Found","Gulfport","Mississippi","39502","United States of America"
"129","House Number Not Found","Street Not Found","Eason","Oklahoma","74878","United States of America"
"130","House Number Not Found","3rd Street","Detroit","Michigan","48226","United States of America"
"131","House Number Not Found","Street Not Found","Liverpool","England","L15 1EU","United Kingdom"
"132","House Number Not Found","Street Not Found","Georgetown","Georgia","31419","United States of America"
"133","House Number Not Found","Street Not Found","St. Louis","Missouri","63102-1102","United States of America"
"134","House Number Not Found","Street Not Found","College Station","Texas","77841","United States of America"
"135","House Number Not Found","Street Not Found","Columbus","Ohio","43216","United States of America"
"136","House Number Not Found","Metric Boulevard","Austin","Texas","78728","United States of America"
"137","House Number Not Found","Street Not Found","Jyväskylä","Western Finland","Postcode Not Found","Finland"
"138","House Number Not Found","West Hundred Road","Chester","Virginia","23831","United States of America"
"139","House Number Not Found","Street Not Found","Muskogee","Oklahoma","74401","United States of America"
"140","House Number Not Found","Street Not Found","Atlanta","Georgia","30303","United States of America"
"141","House Number Not Found","Street Not Found","Sportsmen Acres Community","Oklahoma","Postcode Not Found","United States of America"
"142","House Number Not Found","Street Not Found","Suffolk","Virginia","23434","United States of America"
"143","House Number Not Found","Street Not Found","City Not Found","Louisiana","71362","United States of America"
"144","House Number Not Found","Street Not Found","Sandusky","Ohio","44870","United States of America"
"145","House Number Not Found","Street Not Found","Punxsutawney","Pennsylvania","15767","United States of America"
"146","House Number Not Found","Street Not Found","City Not Found","State Not Found","Postcode Not Found","Country Not Found"
"147","House Number Not Found","Street Not Found","New Orleans","Louisiana","70012","United States of America"
"148","House Number Not Found","Street Not Found","Pittsburgh","Pennsylvania","15219","United States of America"
"149","House Number Not Found","Street Not Found","City Not Found","Missouri","65401","United States of America"
"150","House Number Not Found","Street Not Found","Fairfield","Texas","75840","United States of America"
"151","House Number Not Found","Street Not Found","Wellington","Florida","33414","United States of America"
"152","House Number Not Found","Street Not Found","Columbus","Ohio","43216","United States of America"
"153","House Number Not Found","Street Not Found","Sliders","Virginia","Postcode Not Found","United States of America"
"154","30","Dolna Panny Marii","Lublin","Lublin Voivodeship","20-010","Poland"
"155","House Number Not Found","Street Not Found","Newport","Wales","NP20","United Kingdom"
"156","House Number Not Found","Street Not Found","St. Louis","Missouri","63102-1102","United States of America"
"157","151","North Franklin Street","Chicago","Illinois","60606","United States of America"
"158","125","Locust Street","Akron","Ohio","44302","United States of America"
"159","1392","Atlantic Avenue","New York City","New York","11216","United States of America"
"160","House Number Not Found","Street Not Found","L-Imgarr","Malta","SPB15","Malta"
"161","99 West","South Street","Orlando","Florida","32801","United States of America"
"162","House Number Not Found","Street Not Found","Mississauga","Ontario","L5C 3G1","Canada"
"163","House Number Not Found","Street Not Found","Baton Rouge","Louisiana","70802","United States of America"
"164","150","Greenwich Street","New York City","New York","10007","United States of America"
"165","House Number Not Found","Street Not Found","Philadelphia","Pennsylvania","19102","United States of America"
"166","House Number Not Found","Broadway","London","England","SW1H 0BE","United Kingdom"
"167","House Number Not Found","Street Not Found","Philadelphia","Pennsylvania","19102","United States of America"
"168","1635","Farrington Road","Bells","North Carolina","27523","United States of America"
"169","House Number Not Found","Street Not Found","Springfield","Massachusetts","01101","United States of America"
"170","House Number Not Found","Street Not Found","Plumsted Township","New Jersey","08533","United States of America"
"171","House Number Not Found","Street Not Found","Rugby","England","CV23 1AL","United Kingdom"
"172","House Number Not Found","Street Not Found","City Not Found","State Not Found","Postcode Not Found","Country Not Found"
"173","House Number Not Found","Street Not Found","Bathsheba","State Not Found","Postcode Not Found","Barbados"
"174","House Number Not Found","Street Not Found","Jefferson","Kansas","67340","United States of America"
"175","House Number Not Found","John Glenn Drive","Oakland","California","CA 94603","United States of America"
"176","House Number Not Found","Main Street (Old Rt. 24)","Chester","New Jersey","07930","United States of America"
"177","House Number Not Found","Street Not Found","City Not Found","State Not Found","Postcode Not Found","Country Not Found"
"178","House Number Not Found","Street Not Found","City Not Found","State Not Found","Postcode Not Found","Country Not Found"
"179","House Number Not Found","Street Not Found","City Not Found","State Not Found","Postcode Not Found","Country Not Found"
"180","House Number Not Found","Street Not Found","Milwaukee","Wisconsin","53202-6169","United States of America"
"181","House Number Not Found","Street Not Found","City Not Found","State Not Found","Postcode Not Found","Country Not Found"
"182","House Number Not Found","Street Not Found","State College","Pennsylvania","16801","United States of America"
"183","House Number Not Found","Street Not Found","San Francisco","California","94110","United States of America"
"184","House Number Not Found","Street Not Found","City Not Found","State Not Found","Postcode Not Found","Country Not Found"
"185","House Number Not Found","Broadway","London","England","SW1H 0BE","United Kingdom"
"186","House Number Not Found","Street Not Found","West Liberty","Ohio","Postcode Not Found","United States of America"
"187","House Number Not Found","Street Not Found","Lyndon","Vermont","05851","United States of America"
"188","House Number Not Found","Street Not Found","Jefferson","Kansas","67340","United States of America"
"189","House Number Not Found","Street Not Found","Lansing","Michigan","48906","United States of America"
"190","House Number Not Found","Street Not Found","Mountain View","California","94041","United States of America"
"191","House Number Not Found","Street Not Found","Rugby","England","CV23 1AL","United Kingdom"
"192","1","Federal Street","Boston","Massachusetts","02110-1301","United States of America"
"193","House Number Not Found","Shires Lane","Embsay","England","BD23","United Kingdom"
"194","House Number Not Found","daimon kaidou","Nagawa","Nagano Prefecture","Postcode Not Found","Japan"
"195","House Number Not Found","Street Not Found","Tigard","Oregon","97223","United States of America"
"196","House Number Not Found","Street Not Found","Durham","North Carolina","27701","United States of America"
"197","House Number Not Found","Street Not Found","Manalapan Township","New Jersey","07726","United States of America"
"198","House Number Not Found","Street Not Found","City Not Found","Georgia","Postcode Not Found","United States of America"
"199","House Number Not Found","Street Not Found","Seaside","California","93955","United States of America"
"200","House Number Not Found","Street Not Found","Victoria","Texas","77901","United States of America"
"201","House Number Not Found","Street Not Found","City Not Found","State Not Found","Postcode Not Found","Country Not Found"
"202","House Number Not Found","South Street","Fitchburg","Massachusetts","01420","United States of America"
"203","House Number Not Found","Wellington Quay","Dublin","State Not Found","D02 Y306","Ireland"
"204","House Number Not Found","Street Not Found","City Not Found","Iowa","50141","United States of America"
"205","House Number Not Found","Street Not Found","Sharpes Hill","South Carolina","29053","United States of America"
"206","House Number Not Found","Street Not Found","West Liberty","Ohio","Postcode Not Found","United States of America"
"207","House Number Not Found","Street Not Found","Jefferson","Kansas","67340","United States of America"
"208","House Number Not Found","Street Not Found","Hamilton","Ontario","L8P 2C7","Canada"
"209","House Number Not Found","West Alaska Drive","Lakewood","Colorado","80226","United States of America"
"210","House Number Not Found","Street Not Found","Los Angeles","California","90230-6482","United States of America"
"211","House Number Not Found","Street Not Found","City Not Found","State Not Found","Postcode Not Found","Country Not Found"
"212","House Number Not Found","Street Not Found","Philadelphia","Pennsylvania","19102","United States of America"
"213","House Number Not Found","Street Not Found","Athens","Attica","10681","Greece"
"214","House Number Not Found","Street Not Found","Sliders","Virginia","Postcode Not Found","United States of America"
"215","1392","Atlantic Avenue","New York City","New York","11216","United States of America"
"216","House Number Not Found","Street Not Found","Tustin","California","92780","United States of America"
"217","1392","Atlantic Avenue","New York City","New York","11216","United States of America"
"218","House Number Not Found","Ashby Road East","South Derbyshire","England","DE15 0PU","United Kingdom"
"219","House Number Not Found","Street Not Found","Richland Township","Pennsylvania","15904","United States of America"
"220","House Number Not Found","Street Not Found","City Not Found","State Not Found","Postcode Not Found","Country Not Found"
"221","House Number Not Found","Street Not Found","City Not Found","State Not Found","Postcode Not Found","Country Not Found"
"222","House Number Not Found","Street Not Found","City Not Found","New Aquitaine","23230","France"
"223","House Number Not Found","Street Not Found","City Not Found","Georgia","Postcode Not Found","United States of America"
"224","House Number Not Found","Street Not Found","City Not Found","State Not Found","Postcode Not Found","Country Not Found"
"225","House Number Not Found","Fairgrounds Road","Pleasanton","California","94566","United States of America"
"226","House Number Not Found","Street Not Found","Largo","Florida","33770","United States of America"
"227","1","Markt","Oldenburg","Lower Saxony","26122","Germany"
"228","House Number Not Found","Street Not Found","Mooresville","North Carolina","28115","United States of America"
"229","1751","Fowler Street","Tri-Cities","Washington","99336-1117","United States of America"
"230","House Number Not Found","LOVERS LANE","Lusaka","Lusaka Province","10101","Zambia"
"231","House Number Not Found","Street Not Found","Houston","Texas","77003:77007","United States of America"
"232","House Number Not Found","River Walk","San Antonio","Texas","78205","United States of America"
"233","House Number Not Found","Street Not Found","San Francisco","California","94103","United States of America"
"234","House Number Not Found","Street Not Found","Houston","Texas","77003:77007","United States of America"
"235","1635","Farrington Road","Bells","North Carolina","27523","United States of America"
"236","House Number Not Found","Street Not Found","City Not Found","State Not Found","Postcode Not Found","Country Not Found"
"237","957","Sound Shore Road","Northville","New York","11901","United States of America"
"238","House Number Not Found","East Wilshire Boulevard","Oklahoma City","Oklahoma","73049","United States of America"
"239","700","5th Avenue","Seattle","Washington","98104","United States of America"
"240","1","Federal Street","Boston","Massachusetts","02110-1301","United States of America"
"241","House Number Not Found","Street Not Found","San Francisco","California","914105","United States of America"
"242","House Number Not Found","Street Not Found","Tallmadge","Ohio","44278","United States of America"
"243","House Number Not Found","Street Not Found","City Not Found","Texas","75126","United States of America"
"244","House Number Not Found","Street Not Found","Fredonia","Kansas","66736","United States of America"
"245","House Number Not Found","Street Not Found","Toronto","Ontario","M5J 1S9","Canada"
"246","House Number Not Found","Street Not Found","Forest Hill","Texas","76119","United States of America"
"247","House Number Not Found","Street Not Found","Washington","District of Columbia","20420","United States of America"
"248","House Number Not Found","Wheldrake Lane","Crockey Hill","England","YO19 4SH","United Kingdom"
"249","House Number Not Found","Street Not Found","West Orange","New Jersey","07052:07068","United States of America"
"250","3","Church Street","New Milford","Connecticut","06776","United States of America"
"251","House Number Not Found","Boarshaw Road","Rochdale","England","M24 6AG","United Kingdom"
"252","224","Walnut Avenue","Cranford","New Jersey","07016","United States of America"
"253","House Number Not Found","Street Not Found","Yoakum","Texas","77995","United States of America"
"254","House Number Not Found","Street Not Found","New Delhi","Delhi","110004","India"
"255","House Number Not Found","Street Not Found","Jefferson","Kansas","67340","United States of America"
"256","150","Greenwich Street","New York City","New York","10007","United States of America"
"257","141","Westhill Lane","Sheffield","England","S1 4EW","United Kingdom"
"258","House Number Not Found","Street Not Found","Houston","Texas","77003:77007","United States of America"
"259","House Number Not Found","Street Not Found","City Not Found","Kansas","67227","United States of America"
"260","House Number Not Found","Street Not Found","Kansas City","Missouri","64106","United States of America"
"261","House Number Not Found","Richmond Road","New York City","New York","10304","United States of America"
"262","House Number Not Found","Street Not Found","Toronto","Ontario","M5J 1S9","Canada"
"263","House Number Not Found","Street Not Found","Grundy","Virginia","24614","United States of America"
"264","House Number Not Found","Street Not Found","Colina","Santiago Metropolitan Region","Postcode Not Found","Chile"
"265","House Number Not Found","Street Not Found","Le Hunt","Kansas","67301","United States of America"
"266","House Number Not Found","Street Not Found","Pensacola","Florida","32501","United States of America"
"267","House Number Not Found","Street Not Found","Dudley","England","DY2 8RZ","United Kingdom"
"268","House Number Not Found","Street Not Found","Pittsburgh","Pennsylvania","15219","United States of America"
"269","House Number Not Found","Street Not Found","Cape Town","Western Cape","8001","South Africa"
"270","House Number Not Found","Street Not Found","Level Corner","Pennsylvania","17744","United States of America"
"271","House Number Not Found","Street Not Found","Oakville","Ontario","L6J 3J1","Canada"
"272","1","Federal Street","Boston","Massachusetts","02110-1301","United States of America"
"273","House Number Not Found","Street Not Found","Hamilton","Ohio","45011","United States of America"
"274","House Number Not Found","Street Not Found","City Not Found","State Not Found","Postcode Not Found","Country Not Found"
"275","House Number Not Found","Street Not Found","Le Hunt","Kansas","67301","United States of America"
"276","House Number Not Found","Street Not Found","Igbobi","Lagos","YABA","Nigeria"
"277","House Number Not Found","Street Not Found","Fort Worth","Texas","76101","United States of America"
"278","House Number Not Found","West 121st Street","New York City","New York","10027","United States of America"
"279","House Number Not Found","Street Not Found","City Not Found","State Not Found","Postcode Not Found","Country Not Found"
"280","House Number Not Found","Street Not Found","Rugby","England","CV23 1AL","United Kingdom"
"281","House Number Not Found","Street Not Found","Commerce","Texas","75428","United States of America"
"282","House Number Not Found","Street Not Found","Los Angeles","California","90012","United States of America"
"283","House Number Not Found","Street Not Found","Panama City","Florida","32401","United States of America"
"284","House Number Not Found","Street Not Found","City Not Found","Missouri","65401","United States of America"
"285","House Number Not Found","Street Not Found","North Guilford","Maine","Postcode Not Found","United States of America"
"286","House Number Not Found","Posterngate","Hull","England","HU1 2LS","United Kingdom"
"287","House Number Not Found","Street Not Found","Sandton","Gauteng","2196","South Africa"
"288","House Number Not Found","Street Not Found","St. Louis","Missouri","63102-1102","United States of America"
"289","547","East Oakland Avenue","Tallahassee","Florida","32301","United States of America"
"290","House Number Not Found","Street Not Found","Decatur","Alabama","35601","United States of America"
"291","House Number Not Found","Street Not Found","San Francisco","California","94103","United States of America"
"292","House Number Not Found","Street Not Found","Jefferson","Kansas","67340","United States of America"
"293","House Number Not Found","Street Not Found","Coffeyville","Kansas","67337","United States of America"
"294","House Number Not Found","Street Not Found","West Liberty","Ohio","Postcode Not Found","United States of America"
"295","26","City Center","Portland","Maine","04101","United States of America"
"296","46915","Pearson Drive","Dale City","Virginia","22193","United States of America"
"297","House Number Not Found","East Olive Street","Amite City","Louisiana","70422","United States of America"
"298","House Number Not Found","Street Not Found","Bristol","Pennsylvania","19007","United States of America"
"299","House Number Not Found","Street Not Found","Eagan","Minnesota","55122","United States of America"
"300","House Number Not Found","Street Not Found","Washington","District of Columbia","20420","United States of America"
"301","House Number Not Found","Street Not Found","Las Vegas","Nevada","89101","United States of America"
"302","House Number Not Found","Street Not Found","Snohomish","Washington","98291","United States of America"
"303","House Number Not Found","Street Not Found","Los Angeles","California","90012","United States of America"
"304","21","Dane Street","Somerville","Massachusetts","02143","United States of America"
"305","House Number Not Found","Street Not Found","Gurugram","Haryana","122003","India"
"306","House Number Not Found","Street Not Found","Cedar Falls","Iowa","50613","United States of America"
"307","House Number Not Found","Street Not Found","Tulsa","Oklahoma","74106","United States of America"
"308","55","Webster Avenue","New Rochelle","New York","10801","United States of America"
"309","1392","Atlantic Avenue","New York City","New York","11216","United States of America"
"310","House Number Not Found","Street Not Found","City Not Found","State Not Found","Postcode Not Found","Country Not Found"
"311","301","Street Not Found","Hill City","South Dakota","57745","United States of America"
"312","House Number Not Found","Street Not Found","Pittsburgh","Pennsylvania","15219","United States of America"
"313","House Number Not Found","Street Not Found","New Delhi","Delhi","110004","India"
"314","1860","Street Not Found","Brodheadsville","Pennsylvania","18322","United States of America"
"315","House Number Not Found","Street Not Found","Fresno","California","93702","United States of America"
"316","House Number Not Found","Street Not Found","Izmir","Izmir","00000","Turkey"
"317","House Number Not Found","Street Not Found","City Not Found","State Not Found","Postcode Not Found","Country Not Found"
"318","House Number Not Found","Street Not Found","New Orleans","Louisiana","70012","United States of America"
"319","House Number Not Found","Street Not Found","Atlanta","Georgia","30303","United States of America"
"320","House Number Not Found","Street Not Found","Grand Rapids","Michigan","49503","United States of America"
"321","House Number Not Found","Street Not Found","City Not Found","State Not Found","Postcode Not Found","Country Not Found"
"322","House Number Not Found","Street Not Found","City Not Found","State Not Found","Postcode Not Found","Country Not Found"
"323","House Number Not Found","Street Not Found","Vancouver","British Columbia","V6Z","Canada"
"324","House Number Not Found","Street Not Found","Sliders","Virginia","Postcode Not Found","United States of America"
"325","House Number Not Found","Street Not Found","City Not Found","State Not Found","Postcode Not Found","Country Not Found"
"326","House Number Not Found","Hill Street","Rocky Mount","North Carolina","27801","United States of America"
"327","254","West 47th Street","New York City","New York","10036","United States of America"
"328","House Number Not Found","Street Not Found","Columbus","Ohio","43216","United States of America"
"329","House Number Not Found","Street Not Found","Los Angeles","California","90012","United States of America"
"330","House Number Not Found","Street Not Found","Toronto","Ontario","M5J 1S9","Canada"
"331","House Number Not Found","Street Not Found","Butler","Pennsylvania","16045","United States of America"
"332","House Number Not Found","Street Not Found","City Not Found","State Not Found","Postcode Not Found","Country Not Found"
"333","1392","Atlantic Avenue","New York City","New York","11216","United States of America"
"334","House Number Not Found","Calle 129B","Suba","Bogota Capital District","111111","Colombia"
"335","1635","Farrington Road","Bells","North Carolina","27523","United States of America"
"336","House Number Not Found","Street Not Found","Birmingham","Alabama","35203","United States of America"
"337","House Number Not Found","Street Not Found","Midnight Thicket","Delaware","19956","United States of America"
"338","House Number Not Found","Street Not Found","City Not Found","State Not Found","Postcode Not Found","Country Not Found"
"339","House Number Not Found","Street Not Found","City Not Found","State Not Found","Postcode Not Found","Country Not Found"
"340","House Number Not Found","Street Not Found","Raleigh","North Carolina","27603","United States of America"
"341","House Number Not Found","Street Not Found","Rochester Hills","Michigan","48309","United States of America"
"342","House Number Not Found","Morris Park Avenue","New York City","New York","10461","United States of America"
"343","House Number Not Found","Street Not Found","London","England","HA9 9RR","United Kingdom"
"344","150","Greenwich Street","New York City","New York","10007","United States of America"
"345","House Number Not Found","Street Not Found","Tetersburg","Indiana","46045","United States of America"
"346","House Number Not Found","Via Laveggio","Mendrisio","Ticino","6850","Switzerland"
"347","House Number Not Found","Mahavir Marg","Jalandhar","Punjab","144001","India"
"348","2001","Blake Street","Denver","Colorado","80202","United States of America"
"349","House Number Not Found","Street Not Found","Jefferson","Kansas","67340","United States of America"
"350","House Number Not Found","Field Marshal Cariappa Road","Bengaluru","Karnataka","560 025","India"
"351","House Number Not Found","Street Not Found","City Not Found","State Not Found","Postcode Not Found","Country Not Found"
"352","House Number Not Found","Street Not Found","City Not Found","State Not Found","Postcode Not Found","Country Not Found"
"353","House Number Not Found","Jalan Sultan Hishamuddin","City Not Found","Kuala Lumpur","50566","Malaysia"
"354","150","Greenwich Street","New York City","New York","10007","United States of America"
"355","House Number Not Found","Street Not Found","New Orleans","Louisiana","70113","United States of America"
"356","House Number Not Found","Street Not Found","Columbus","Ohio","43216","United States of America"
"357","House Number Not Found","Street Not Found","Jefferson","Kansas","67340","United States of America"
"358","House Number Not Found","Field Marshal Cariappa Road","Bengaluru","Karnataka","560 025","India"
"359","House Number Not Found","Street Not Found","Fresno","California","93702","United States of America"
"360","House Number Not Found","Street Not Found","Le Hunt","Kansas","67301","United States of America"
"361","House Number Not Found","Street Not Found","Jefferson","Kansas","67340","United States of America"
"362","House Number Not Found","Street Not Found","Atlanta","Georgia","30303","United States of America"
"363","201","South 4th Street","San José","California","95112","United States of America"
"364","House Number Not Found","Street Not Found","Philadelphia","Pennsylvania","19102","United States of America"
"365","House Number Not Found","Street Not Found","Cedar Falls","Iowa","50613","United States of America"
"366","House Number Not Found","Street Not Found","City Not Found","Louisiana","71362","United States of America"
"367","House Number Not Found","Street Not Found","Tucson","Arizona","85701","United States of America"
"368","10364","105 Street NW","Edmonton","Alberta","T5J 0C4","Canada"
"369","House Number Not Found","Street Not Found","Cincinnati","Ohio","45202","United States of America"
"370","House Number Not Found","Street Not Found","Middlesbrough","England","TS2 1DT","United Kingdom"
"371","House Number Not Found","Street Not Found","Washington","District of Columbia","20420","United States of America"
"372","House Number Not Found","Street Not Found","City Not Found","Oklahoma","Postcode Not Found","United States of America"
"373","House Number Not Found","Street Not Found","Sportsmen Acres Community","Oklahoma","Postcode Not Found","United States of America"
"374","House Number Not Found","Street Not Found","City Not Found","State Not Found","Postcode Not Found","Country Not Found"
"375","House Number Not Found","Street Not Found","City Not Found","State Not Found","Postcode Not Found","Country Not Found"
"376","House Number Not Found","Street Not Found","The Woodlands","Texas","Postcode Not Found","United States of America"
"377","150","Greenwich Street","New York City","New York","10007","United States of America"
"378","House Number Not Found","Street Not Found","City Not Found","State Not Found","Postcode Not Found","Country Not Found"
"379","House Number Not Found","Street Not Found","Thibodaux","Louisiana","70301","United States of America"
"380","House Number Not Found","Street Not Found","Norman","Oklahoma","73060","United States of America"
"381","House Number Not Found","Street Not Found","Dyer","Indiana","46311","United States of America"
"382","House Number Not Found","Street Not Found","Tampa","Florida","33613-4628","United States of America"
"383","House Number Not Found","Street Not Found","Payne Beach","New York","14468","United States of America"
"384","House Number Not Found","Street Not Found","Jefferson","Kansas","67340","United States of America"
"385","House Number Not Found","Street Not Found","Les Bons Villers","Wallonia","6211","Belgium"
"386","House Number Not Found","Street Not Found","Atlanta","Georgia","30303","United States of America"
"387","House Number Not Found","Street Not Found","City Not Found","State Not Found","Postcode Not Found","Country Not Found"
"388","House Number Not Found","Street Not Found","Breckland","England","IP25 7RP","United Kingdom"
"389","House Number Not Found","Dickinson Avenue","Greenville","North Carolina","27834","United States of America"
"390","House Number Not Found","Street Not Found","Livermore Falls","Maine","04254","United States of America"
"391","House Number Not Found","Street Not Found","Independence","Kansas","67301","United States of America"
"392","House Number Not Found","Mawdsley Street","Manchester","England","M3 4JP","United Kingdom"
"393","150","Greenwich Street","New York City","New York","10007","United States of America"
"394","House Number Not Found","<U+77E5><U+540D><U+6C96><U+6C38><U+826F><U+90E8><U+7A7A><U+6E2F><U+7DDA>","China","Kagoshima Prefecture","Postcode Not Found","Japan"
"395","House Number Not Found","Street Not Found","Oriskany","New York","13424","United States of America"
"396","House Number Not Found","Street Not Found","Boca Raton","Florida","33486","United States of America"
"397","10","Bridle Road","Maidenhead","England","SL6 7RP","United Kingdom"
"398","House Number Not Found","Street Not Found","Cuyahoga Falls","Ohio","44221","United States of America"
"399","House Number Not Found","Street Not Found","Morganton","North Carolina","28655","United States of America"
"400","House Number Not Found","Street Not Found","City Not Found","State Not Found","Postcode Not Found","Country Not Found"
"401","House Number Not Found","Street Not Found","Washington","District of Columbia","20420","United States of America"
"402","House Number Not Found","Street Not Found","City Not Found","State Not Found","Postcode Not Found","Country Not Found"
"403","House Number Not Found","Street Not Found","Fresno","California","93702","United States of America"
"404","House Number Not Found","Dixon Street","Wyre Forest","England","DY10 1AL","United Kingdom"
"405","House Number Not Found","Street Not Found","Warrington Township","Pennsylvania","18914","United States of America"
"406","House Number Not Found","Street Not Found","Miami","Florida","33131","United States of America"
"407","House Number Not Found","Street Not Found","Jefferson","Kansas","67340","United States of America"
"408","133","South 3rd Street","Louisville","Kentucky","40202","United States of America"
"409","150","Greenwich Street","New York City","New York","10007","United States of America"
"410","150","Greenwich Street","New York City","New York","10007","United States of America"
"411","House Number Not Found","New Street","Plainfield","New Jersey","07060","United States of America"
"412","House Number Not Found","Street Not Found","London","Ontario","N6A 2T3","Canada"
"413","House Number Not Found","Street Not Found","City Not Found","State Not Found","Postcode Not Found","Country Not Found"
"414","House Number Not Found","Street Not Found","City Not Found","State Not Found","Postcode Not Found","Country Not Found"
"415","House Number Not Found","Summers Street","Charleston","West Virginia","25301","United States of America"
"416","House Number Not Found","Broadway","London","England","SW1H 0BE","United Kingdom"
"417","House Number Not Found","Street Not Found","Atlanta","Georgia","30303","United States of America"
"418","133","South 3rd Street","Louisville","Kentucky","40202","United States of America"
"419","House Number Not Found","Street Not Found","Vaughan","Ontario","L4K 5R3","Canada"
"420","657","Broadway","New York City","New York","10003","United States of America"
"421","House Number Not Found","Street Not Found","City Not Found","State Not Found","Postcode Not Found","Country Not Found"
"422","House Number Not Found","East 5th Street","Dayton","Ohio","45403","United States of America"
"423","House Number Not Found","Street Not Found","Berlin","State Not Found","10117","Germany"
"424","House Number Not Found","Street Not Found","City Not Found","Georgia","Postcode Not Found","United States of America"
"425","House Number Not Found","Street Not Found","City Not Found","State Not Found","Postcode Not Found","Country Not Found"
"426","House Number Not Found","Street Not Found","Kansas City","Missouri","64106","United States of America"
"427","House Number Not Found","High Street","Carteret","New Jersey","07008","United States of America"
"428","House Number Not Found","Street Not Found","Perth","Western Australia","6004","Australia"
"429","House Number Not Found","Street Not Found","Los Angeles","California","90012","United States of America"
"430","207","Houghton Street","De Soto","Wisconsin","54624","United States of America"
"431","House Number Not Found","Street Not Found","Groveland","California","95321-9444","United States of America"
"432","House Number Not Found","Street Not Found","Brentwood","England","CM14 4LX","United Kingdom"
"433","House Number Not Found","Main Avenue","Logan","West Virginia","25653","United States of America"
"434","House Number Not Found","Street Not Found","Igbobi","Lagos","YABA","Nigeria"
"435","House Number Not Found","Street Not Found","City Not Found","State Not Found","Postcode Not Found","Country Not Found"
"436","22","East Leigh Street","Richmond City","Virginia","23219","United States of America"
"437","House Number Not Found","Street Not Found","Philadelphia","Pennsylvania","19102","United States of America"
"438","5b","Theodor-Storm-Straße","Wankendorf","Schleswig-Holstein","24601","Germany"
"439","House Number Not Found","Preston Lancaster Road","Wyre","England","PR3 0QR","United Kingdom"
"440","House Number Not Found","Street Not Found","Sumter","South Carolina","29150","United States of America"
"441","House Number Not Found","Street Not Found","Cincinnati","Ohio","45202","United States of America"
"442","House Number Not Found","Outer Ring Road","City Not Found","Delhi","110034","India"
"443","House Number Not Found","Street Not Found","Redhouse","Kentucky","Postcode Not Found","United States of America"
"444","350","Canal Walk","Indianapolis","Indiana","46202","United States of America"
"445","House Number Not Found","Street Not Found","St. Louis","Missouri","63102-1102","United States of America"
"446","House Number Not Found","Street Not Found","Archville","Tennessee","37369","United States of America"
"447","House Number Not Found","Street Not Found","San Diego","California","92101","United States of America"
"448","House Number Not Found","Street Not Found","Jefferson","Kansas","67340","United States of America"
"449","House Number Not Found","Street Not Found","Berlin","State Not Found","10179","Germany"
"450","House Number Not Found","Street Not Found","Sudbury","Massachusetts","01733","United States of America"
"451","House Number Not Found","Street Not Found","Pittsburgh","Pennsylvania","15219","United States of America"
"452","House Number Not Found","Street Not Found","City Not Found","State Not Found","Postcode Not Found","Country Not Found"
"453","House Number Not Found","Street Not Found","Bathsheba","State Not Found","Postcode Not Found","Barbados"
"454","House Number Not Found","Street Not Found","Athens","Attica","10681","Greece"
"455","House Number Not Found","Charles Avenue","Parma","Ohio","44129","United States of America"
"456","House Number Not Found","Street Not Found","Jefferson","Kansas","67340","United States of America"
"457","House Number Not Found","Street Not Found","Atlanta","Georgia","30303","United States of America"
"458","House Number Not Found","Street Not Found","City Not Found","State Not Found","Postcode Not Found","Country Not Found"
"459","House Number Not Found","Street Not Found","Jefferson","Kansas","67340","United States of America"
"460","House Number Not Found","Street Not Found","City Not Found","Louisiana","71362","United States of America"
"461","House Number Not Found","Street Not Found","Soest","Utrecht","3769AK","The Netherlands"
"462","House Number Not Found","Street Not Found","Singapore","State Not Found","574408","Singapore"
"463","House Number Not Found","Street Not Found","Duluth","Minnesota","55812","United States of America"
"464","1635","Farrington Road","Bells","North Carolina","27523","United States of America"
"465","House Number Not Found","Street Not Found","Los Angeles","California","90012","United States of America"
"466","House Number Not Found","Street Not Found","Seoul","State Not Found","04521","South Korea"
"467","House Number Not Found","Broadway","London","England","SW1H 0BE","United Kingdom"
"468","House Number Not Found","Street Not Found","Kansas City","Missouri","64106","United States of America"
"469","House Number Not Found","West 111th Street","Worth","Illinois","60482","United States of America"
"470","House Number Not Found","Street Not Found","Kolkata","West Bengal","700012","India"
"471","24022","4th Avenue","Siren","Wisconsin","54872","United States of America"
"472","House Number Not Found","Street Not Found","Carrizo Springs","Texas","78834","United States of America"
"473","House Number Not Found","Street Not Found","City Not Found","State Not Found","Postcode Not Found","Country Not Found"
"474","House Number Not Found","Street Not Found","Corn","Oklahoma","73024","United States of America"
"475","House Number Not Found","Street Not Found","Jefferson","Kansas","67340","United States of America"
"476","House Number Not Found","Street Not Found","Polokwane Local Municipality","Limpopo","0700","South Africa"
"477","House Number Not Found","Street Not Found","Irvona","Pennsylvania","16656","United States of America"
"478","House Number Not Found","Chatsworth Street","Detroit","Michigan","48224","United States of America"
"479","House Number Not Found","Street Not Found","Sudbury","Massachusetts","01733","United States of America"
"480","House Number Not Found","Wellington Quay","Dublin","State Not Found","D02 Y306","Ireland"
"481","House Number Not Found","Street Not Found","Jefferson","Kansas","67340","United States of America"
"482","House Number Not Found","Street Not Found","City Not Found","State Not Found","Postcode Not Found","Country Not Found"
"483","House Number Not Found","Street Not Found","City Not Found","State Not Found","Postcode Not Found","Country Not Found"
"484","79","Friargate","Preston","England","PR1 2ED","United Kingdom"
"485","1","Federal Street","Boston","Massachusetts","02110-1301","United States of America"
"486","5864","Main Street","Waitsfield","Vermont","05673","United States of America"
"487","House Number Not Found","Street Not Found","City Not Found","State Not Found","Postcode Not Found","Country Not Found"
"488","House Number Not Found","Street Not Found","Hesperange","State Not Found","1842","Luxembourg"
"489","House Number Not Found","Street Not Found","North Kingstown","Rhode Island","02852","United States of America"
"490","House Number Not Found","Street Not Found","Le Hunt","Kansas","67301","United States of America"
"491","2922","2nd Road North","Arlington","Virginia","22201","United States of America"
"492","House Number Not Found","Street Not Found","Los Angeles","California","CA 91343","United States of America"
"493","House Number Not Found","Hollis Court Boulevard","New York City","New York","11365","United States of America"
"494","House Number Not Found","Street Not Found","City Not Found","State Not Found","Postcode Not Found","Country Not Found"
"495","House Number Not Found","Street Not Found","Denver","Colorado","80290","United States of America"
"496","725","Northeast Campus Street","Pullman","Washington","99164","United States of America"
"497","House Number Not Found","Q Street","Omaha","Nebraska","68127","United States of America"
"498","31","Street 15","City Not Found","Hawalli","00965","Kuwait"
"499","House Number Not Found","Street Not Found","City Not Found","State Not Found","Postcode Not Found","Country Not Found"
"500","House Number Not Found","Street Not Found","Cleburne","Texas","76033","United States of America"
"501","House Number Not Found","Street Not Found","Johannesburg","Gauteng","2001","South Africa"
"502","House Number Not Found","Street Not Found","City Not Found","Georgia","Postcode Not Found","United States of America"
"503","House Number Not Found","1st Avenue Northeast","Austin","Minnesota","55912","United States of America"
"504","House Number Not Found","Street Not Found","Milan","Lombardy","20122","Italy"
"505","House Number Not Found","Street Not Found","Newcastle upon Tyne","England","NE1 7XF","United Kingdom"
"506","House Number Not Found","Street Not Found","Jefferson","Kansas","67340","United States of America"
"507","150","Greenwich Street","New York City","New York","10007","United States of America"
"508","House Number Not Found","Street Not Found","Moosic","Pennsylvania","18518","United States of America"
"509","House Number Not Found","Street Not Found","Forest Heath","England","CB8 8NT","United Kingdom"
"510","House Number Not Found","Street Not Found","City Not Found","State Not Found","Postcode Not Found","Country Not Found"
"511","309","East 11th Street","Austin","Texas","78701","United States of America"
"512","House Number Not Found","Street Not Found","Birr Municipal District","State Not Found","Postcode Not Found","Ireland"
"513","House Number Not Found","Street Not Found","Palmyra","Wisconsin","53156","United States of America"
"514","House Number Not Found","Street Not Found","Canton","Ohio","44707","United States of America"
"515","House Number Not Found","Street Not Found","Jyväskylä","Western Finland","Postcode Not Found","Finland"
"516","420","South Howes Street","Fort Collins","Colorado","80521-2871","United States of America"
"517","House Number Not Found","Street Not Found","Level Corner","Pennsylvania","17744","United States of America"
"518","House Number Not Found","Street Not Found","Madrid","Community of Madrid","28001","Spain"
"519","House Number Not Found","Street Not Found","Noorvik","Alaska","99763","United States of America"
"520","House Number Not Found","Street Not Found","Plumsted Township","New Jersey","08533","United States of America"
"521","House Number Not Found","Street Not Found","Poole","England","BH15 1HJ","United Kingdom"
"522","235","Hellyer Road","Northern Bruce Peninsula","Ontario","N0H 1W0","Canada"
"523","House Number Not Found","Street Not Found","Jefferson","Kansas","67340","United States of America"
"524","House Number Not Found","West Rock Island Avenue","Boyd","Texas","76023","United States of America"
"525","House Number Not Found","Morris Park Avenue","New York City","New York","10461","United States of America"
"526","House Number Not Found","Street Not Found","Capitola","California","95010","United States of America"
"527","House Number Not Found","Street Not Found","St. Louis","Missouri","63102-1102","United States of America"
"528","500","East Trade Street","Charlotte","North Carolina","28202","United States of America"
"529","House Number Not Found","Street Not Found","Tetersburg","Indiana","46045","United States of America"
"530","House Number Not Found","Street Not Found","City Not Found","State Not Found","Postcode Not Found","Country Not Found"
"531","180","Euclid Avenue","Cleveland","Ohio","44113","United States of America"
"532","House Number Not Found","Street Not Found","West Liberty","Ohio","Postcode Not Found","United States of America"
"533","House Number Not Found","Street Not Found","City Not Found","State Not Found","Postcode Not Found","Country Not Found"
"534","House Number Not Found","Broadway","London","England","SW1H 0BE","United Kingdom"
"535","House Number Not Found","Broadway","London","England","SW1H 0BE","United Kingdom"
"536","House Number Not Found","Street Not Found","Macon","Georgia","31201","United States of America"
"537","133","South 3rd Street","Louisville","Kentucky","40202","United States of America"
"538","House Number Not Found","Street Not Found","Vancouver","British Columbia","V6Z","Canada"
"539","133","Bishop Street","New Haven","Connecticut","06511","United States of America"
"540","House Number Not Found","Street Not Found","New Orleans","Louisiana","70012","United States of America"
"541","House Number Not Found","Street Not Found","Claremore","Oklahoma","74017","United States of America"
"542","House Number Not Found","Street Not Found","City Not Found","State Not Found","Postcode Not Found","Country Not Found"
"543","House Number Not Found","Street Not Found","Bristol Township","Pennsylvania","19007","United States of America"
"544","House Number Not Found","Street Not Found","Wichita","Kansas","67213","United States of America"
"545","House Number Not Found","Street Not Found","Victoria","Minnesota","55386","United States of America"
"546","House Number Not Found","Street Not Found","Longview","Texas","75601","United States of America"
"547","House Number Not Found","Street Not Found","Paramus","New Jersey","07507","United States of America"
"548","House Number Not Found","Street Not Found","Jefferson","Kansas","67340","United States of America"
"549","House Number Not Found","Street Not Found","North Guilford","Maine","Postcode Not Found","United States of America"
"550","House Number Not Found","Street Not Found","Tetersburg","Indiana","46045","United States of America"
"551","House Number Not Found","Street Not Found","Fayetteville","North Carolina","28301","United States of America"
"552","House Number Not Found","Street Not Found","Winston-Salem","North Carolina","Postcode Not Found","United States of America"
"553","29","81b Street","Dubai","Dubai","128940","United Arab Emirates"
"554","House Number Not Found","Street Not Found","Jefferson","Kansas","67340","United States of America"
"555","House Number Not Found","Street Not Found","Jefferson","Kansas","67340","United States of America"
"556","151","North Franklin Street","Chicago","Illinois","60606","United States of America"
"557","1214","West Avenue","Cartersville","Georgia","30120","United States of America"
"558","House Number Not Found","Street Not Found","City Not Found","State Not Found","Postcode Not Found","Country Not Found"
"559","House Number Not Found","Street Not Found","Indianapolis","Indiana","46203","United States of America"
"560","House Number Not Found","Street Not Found","Tulsa","Oklahoma","74106","United States of America"
"561","66","Ashmore Road","Gold Coast","Queensland","4217","Australia"
"562","House Number Not Found","Street Not Found","Jefferson","Kansas","67340","United States of America"
"563","House Number Not Found","Street Not Found","City Not Found","State Not Found","Postcode Not Found","Country Not Found"
"564","531","East Jackson Boulevard","Jonesborough","Tennessee","37659","United States of America"
"565","House Number Not Found","Street Not Found","Minneapolis","Minnesota","55401","United States of America"
"566","House Number Not Found","Street Not Found","City Not Found","State Not Found","Postcode Not Found","Country Not Found"
"567","119","Mühlweg","Mainz","Rhineland-Palatinate","55128","Germany"
"568","117","South Ashley Street","Ann Arbor","Michigan","48104","United States of America"
"569","House Number Not Found","Halcyon Place","Concord","New Hampshire","03302","United States of America"
"570","150","Greenwich Street","New York City","New York","10007","United States of America"
"571","House Number Not Found","Lee Avenue","New York City","New York","11206","United States of America"
"572","House Number Not Found","Street Not Found","City Not Found","State Not Found","Postcode Not Found","Country Not Found"
"573","House Number Not Found","Street Not Found","Leiden","South Holland","2316HH","The Netherlands"
"574","House Number Not Found","Street Not Found","City Not Found","State Not Found","Postcode Not Found","Country Not Found"
"575","House Number Not Found","Street Not Found","Bartlesville","Oklahoma","74003","United States of America"
"576","1332","Golf Course Road","Springwater","Ontario","L0L 1Y0","Canada"
"577","House Number Not Found","Street Not Found","State College","Pennsylvania","16801","United States of America"
"578","House Number Not Found","Street Not Found","City Not Found","State Not Found","Postcode Not Found","Country Not Found"
"579","1821","13th Avenue","Seattle","Washington","98122","United States of America"
"580","House Number Not Found","Street Not Found","Cincinnati","Ohio","45202","United States of America"
"581","House Number Not Found","Street Not Found","San Diego","California","92101","United States of America"
"582","House Number Not Found","Street Not Found","Jefferson","Kansas","67340","United States of America"
"583","House Number Not Found","Street Not Found","Independence","Kansas","67301","United States of America"
"584","House Number Not Found","Street Not Found","Houston","Texas","77003:77007","United States of America"
"585","House Number Not Found","Street Not Found","Jefferson","Kansas","67340","United States of America"
"586","House Number Not Found","Street Not Found","Bethlehem","Pennsylvania","18018","United States of America"
"587","House Number Not Found","3rd Street","Detroit","Michigan","48226","United States of America"
"588","House Number Not Found","Street Not Found","Ballwin","Missouri","63011","United States of America"
"589","House Number Not Found","Street Not Found","Los Angeles","California","90036","United States of America"
"590","429","Henry Drive Southwest","Marietta","Georgia","30064","United States of America"
"591","House Number Not Found","Street Not Found","Baltimore","Maryland","21202","United States of America"
"592","House Number Not Found","Street Not Found","Sportsmen Acres Community","Oklahoma","Postcode Not Found","United States of America"
"593","1392","Atlantic Avenue","New York City","New York","11216","United States of America"
"594","House Number Not Found","Street Not Found","City Not Found","State Not Found","Postcode Not Found","Country Not Found"
"595","House Number Not Found","Street Not Found","Toronto","Ontario","M5J 1S9","Canada"
"596","House Number Not Found","Street Not Found","Charleston","South Carolina","29401","United States of America"
"597","2111","Mount Vernon Avenue","Alexandria","Virginia","22301","United States of America"
"598","430","North Olympic Avenue","Arlington","Washington","98223","United States of America"
"599","House Number Not Found","Warner Bridge Road","Sims Spring","Tennessee","37160","United States of America"
"600","272","Elm Street","New Haven","Connecticut","06511","United States of America"
"601","House Number Not Found","Street Not Found","Lexington","Kentucky","40508","United States of America"
"602","7999","Regents Drive","College Park","Maryland","20742","United States of America"
"603","House Number Not Found","Street Not Found","Philadelphia","Pennsylvania","19102","United States of America"
"604","House Number Not Found","Street Not Found","Johannesburg","Gauteng","2001","South Africa"
"605","House Number Not Found","Street Not Found","Williamsdale","Ohio","45011","United States of America"
"606","House Number Not Found","Street Not Found","Morgan Place","Ohio","45377","United States of America"
"607","House Number Not Found","Street Not Found","Surrey","British Columbia","V3S 6K7","Canada"
"608","House Number Not Found","Street Not Found","City Not Found","State Not Found","Postcode Not Found","Country Not Found"
"609","House Number Not Found","3rd Street","Detroit","Michigan","48226","United States of America"
"610","House Number Not Found","Street Not Found","Plumsted Township","New Jersey","08533","United States of America"
"611","House Number Not Found","Street Not Found","Baltimore","Maryland","21202","United States of America"
"612","House Number Not Found","South Knoblock Street","Stillwater","Oklahoma","74074","United States of America"
"613","House Number Not Found","Street Not Found","Quartz Hill","California","Postcode Not Found","United States of America"
"614","House Number Not Found","Street Not Found","Atlanta","Georgia","30342","United States of America"
"615","151","North Franklin Street","Chicago","Illinois","60606","United States of America"
"616","House Number Not Found","Street Not Found","Level Corner","Pennsylvania","17744","United States of America"
"617","House Number Not Found","Street Not Found","Hamilton","Ontario","L8L 1H1","Canada"
"618","House Number Not Found","Street Not Found","Philadelphia","Pennsylvania","19102","United States of America"
"619","House Number Not Found","Street Not Found","Morelia","Michoacán","58010","Mexico"
"620","House Number Not Found","Street Not Found","Cass City","Michigan","48726","United States of America"
"621","700","5th Avenue","Seattle","Washington","98104","United States of America"
"622","House Number Not Found","Centre Street S","Calgary","Alberta","T2G 2B6","Canada"
"623","House Number Not Found","Buchanan Road","Branson","Missouri","65616","United States of America"
"624","House Number Not Found","Street Not Found","Baltimore","Maryland","21202","United States of America"
"625","House Number Not Found","Street Not Found","St. Charles","Illinois","60184","United States of America"
"626","House Number Not Found","Steubenville Avenue","Cambridge","Ohio","43725","United States of America"
"627","House Number Not Found","Street Not Found","City Not Found","State Not Found","Postcode Not Found","Country Not Found"
"628","House Number Not Found","Broadway","London","England","SW1H 0BE","United Kingdom"
"629","House Number Not Found","Street Not Found","Rustenburg Local Municipality","North West","0322","South Africa"
"630","House Number Not Found","Street Not Found","City Not Found","State Not Found","Postcode Not Found","Country Not Found"
"631","House Number Not Found","Street Not Found","Jefferson","Kansas","67340","United States of America"
"632","House Number Not Found","Street Not Found","Beaver","Pennsylvania","15009","United States of America"
"633","547","East Oakland Avenue","Tallahassee","Florida","32301","United States of America"
"634","House Number Not Found","Street Not Found","Murfreesboro","Tennessee","Postcode Not Found","United States of America"
"635","House Number Not Found","Street Not Found","City Not Found","Iowa","50141","United States of America"
"636","House Number Not Found","Street Not Found","Dacorum","England","HP2 4QE","United Kingdom"
"637","House Number Not Found","Street Not Found","Columbus","Ohio","43216","United States of America"
"638","House Number Not Found","Street Not Found","Kuching","Sarawak","93XXX","Malaysia"
"639","House Number Not Found","Street Not Found","Washington","District of Columbia","20420","United States of America"
"640","House Number Not Found","Street Not Found","City Not Found","State Not Found","Postcode Not Found","Country Not Found"
"641","House Number Not Found","Street Not Found","Canada","Kentucky","41564","United States of America"
"642","House Number Not Found","Cornfield Road","Eastbourne","England","BN21 4PJ","United Kingdom"
"643","House Number Not Found","Street Not Found","South Bend","Indiana","46601","United States of America"
"644","House Number Not Found","Street Not Found","Saint Cloud","Minnesota","56303","United States of America"
"645","House Number Not Found","Street Not Found","Birr Municipal District","State Not Found","Postcode Not Found","Ireland"
"646","House Number Not Found","Street Not Found","City Not Found","State Not Found","Postcode Not Found","Country Not Found"
"647","House Number Not Found","Street Not Found","Woodstock","Illinois","60098","United States of America"
"648","House Number Not Found","Street Not Found","Jefferson","Kansas","67340","United States of America"
"649","465","MacLaren Street","Ottawa","Ontario","K2P 0M7","Canada"
"650","House Number Not Found","Street Not Found","Level Corner","Pennsylvania","17744","United States of America"
"651","20","Garden Street","Brewster","New York","10509","United States of America"
"652","House Number Not Found","Street Not Found","City Not Found","State Not Found","Postcode Not Found","Country Not Found"
"653","House Number Not Found","Street Not Found","Plumsted Township","New Jersey","08533","United States of America"
"654","House Number Not Found","Herrängsvägen","Herräng","Stockholm County","760 49","Sweden"
"655","House Number Not Found","Street Not Found","Jefferson","Kansas","67340","United States of America"
"656","House Number Not Found","Street Not Found","City Not Found","State Not Found","Postcode Not Found","Country Not Found"
"657","House Number Not Found","Street Not Found","Jefferson","Kansas","67340","United States of America"
"658","House Number Not Found","Warner Bridge Road","Sims Spring","Tennessee","37160","United States of America"
"659","House Number Not Found","Street Not Found","Henrietta Town","New York","14467","United States of America"
"660","House Number Not Found","Street Not Found","Lowell","Massachusetts","01825","United States of America"
"661","2922","2nd Road North","Arlington","Virginia","22201","United States of America"
"662","House Number Not Found","Street Not Found","Bartlesville","Oklahoma","74006","United States of America"
"663","House Number Not Found","Street Not Found","Greenwood","Indiana","46143","United States of America"
"664","House Number Not Found","Street Not Found","Jonesboro","Arkansas","72403","United States of America"
"665","House Number Not Found","Street Not Found","Greenville","North Carolina","27858","United States of America"
"666","151","North Franklin Street","Chicago","Illinois","60606","United States of America"
"667","House Number Not Found","Street Not Found","Soest","Utrecht","3769AK","The Netherlands"
"668","House Number Not Found","Street Not Found","City Not Found","State Not Found","Postcode Not Found","Country Not Found"
"669","700","5th Avenue","Seattle","Washington","98104","United States of America"
"670","House Number Not Found","Street Not Found","Nashville-Davidson","Tennessee","37219","United States of America"
"671","House Number Not Found","Street Not Found","Phoenix","Arizona","85004","United States of America"
"672","649","2nd Avenue","New York City","New York","10035","United States of America"
"673","House Number Not Found","Street Not Found","Ada","Oklahoma","74820","United States of America"
"674","House Number Not Found","Street Not Found","City Not Found","State Not Found","Postcode Not Found","Country Not Found"
"675","House Number Not Found","Street Not Found","City Not Found","State Not Found","Postcode Not Found","Country Not Found"
"676","House Number Not Found","Street Not Found","City Not Found","Arkansas","72082:72102:72143","United States of America"
"677","House Number Not Found","Street Not Found","Tanager Forest","Maryland","21108","United States of America"
"678","House Number Not Found","Street Not Found","Coffeyville","Kansas","67337","United States of America"
"679","House Number Not Found","Street Not Found","Nashik","Maharashtra","422001","India"
"680","151","North Franklin Street","Chicago","Illinois","60606","United States of America"
"681","House Number Not Found","Street Not Found","Albany","New York","12202","United States of America"
"682","22840","Soledad Canyon Road","Santa Clarita","California","91350","United States of America"
"683","House Number Not Found","Street Not Found","Houston","Texas","77002","United States of America"
"684","House Number Not Found","Warner Bridge Road","Sims Spring","Tennessee","37160","United States of America"
"685","House Number Not Found","Street Not Found","West Liberty","Ohio","Postcode Not Found","United States of America"
"686","House Number Not Found","Street Not Found","City Not Found","State Not Found","Postcode Not Found","Country Not Found"
"687","House Number Not Found","Street Not Found","City Not Found","State Not Found","Postcode Not Found","Country Not Found"
"688","House Number Not Found","Street Not Found","St. Louis","Missouri","63102-1102","United States of America"
"689","House Number Not Found","Street Not Found","Unterensingen","Baden-Württemberg","72669","Germany"
"690","House Number Not Found","Street Not Found","Jefferson","Kansas","67340","United States of America"
"691","House Number Not Found","Street Not Found","Shreveport","Louisiana","71101","United States of America"
"692","House Number Not Found","Street Not Found","Dover","Delaware","19904","United States of America"
"693","House Number Not Found","Street Not Found","City Not Found","State Not Found","Postcode Not Found","Country Not Found"
"694","House Number Not Found","Meade Road","North Reading","Massachusetts","01864","United States of America"
"695","House Number Not Found","Street Not Found","Minneapolis","Minnesota","55401","United States of America"
"696","House Number Not Found","Street Not Found","Broad Brook","Connecticut","06016","United States of America"
"697","House Number Not Found","Street Not Found","Crockett","Texas","75835","United States of America"
"698","House Number Not Found","Street Not Found","Jefferson","Kansas","67340","United States of America"
"699","39","Church Street","London","England","CR0 1RH","United Kingdom"
"700","House Number Not Found","Street Not Found","Stockton-on-Tees","England","TS19 0ES","United Kingdom"
"701","House Number Not Found","Street Not Found","Tetersburg","Indiana","46045","United States of America"
"702","House Number Not Found","Street Not Found","Sudbury","Massachusetts","01733","United States of America"
"703","1501","East 6th Street","Sterling","Illinois","61081","United States of America"
"704","House Number Not Found","Street Not Found","Miami","Florida","33131","United States of America"
"705","House Number Not Found","Broadway","London","England","SW1H 0BE","United Kingdom"
"706","House Number Not Found","Street Not Found","Hampton City","Virginia","23669-4019","United States of America"
"707","House Number Not Found","Street Not Found","Shinjuku","Tokyo","160-8484","Japan"
"708","House Number Not Found","Street Not Found","Sharpes Hill","South Carolina","29053","United States of America"
"709","House Number Not Found","Street Not Found","Cincinnati","Ohio","45202","United States of America"
"710","House Number Not Found","Street Not Found","City Not Found","State Not Found","Postcode Not Found","Country Not Found"
"711","House Number Not Found","Street Not Found","Washington","District of Columbia","20420","United States of America"
"712","House Number Not Found","Street Not Found","Bowling Green","Kentucky","42101","United States of America"
"713","House Number Not Found","Street Not Found","New Delhi","Delhi","110004","India"
"714","House Number Not Found","Benito Juárez","Monterrey","Nuevo León","64410","Mexico"
"715","House Number Not Found","Wyckoff Avenue","New York City","New York","11385","United States of America"
"716","House Number Not Found","Boulevard De Maisonneuve Ouest","Montreal","Quebec","H3A 3L4","Canada"
"717","5/8","London Road","Brighton","England","BN1 4JA","United Kingdom"
"718","House Number Not Found","Street Not Found","City Not Found","Louisiana","71362","United States of America"
"719","House Number Not Found","Street Not Found","North Guilford","Maine","Postcode Not Found","United States of America"
"720","House Number Not Found","Street Not Found","City Not Found","State Not Found","Postcode Not Found","Country Not Found"
"721","688","Columbus Avenue","New York City","New York","10025","United States of America"
"722","House Number Not Found","Street Not Found","Newcastle upon Tyne","England","NE1 7XF","United Kingdom"
"723","House Number Not Found","Street Not Found","Houston","Texas","77003:77007","United States of America"
"724","House Number Not Found","Hargrave Street","Winnipeg","Manitoba","R3A 0H7","Canada"
"725","House Number Not Found","Street Not Found","Nashville-Davidson","Tennessee","37219","United States of America"
"726","House Number Not Found","Street Not Found","Harrisburg","Pennsylvania","17120","United States of America"
"727","House Number Not Found","Jalan Malioboro","Yogyakarta","Special Region of Yogyakarta","55122","Indonesia"
"728","350","Canal Walk","Indianapolis","Indiana","46202","United States of America"
"729","House Number Not Found","Street Not Found","Buffalo","New York","14202","United States of America"
"730","254","West 47th Street","New York City","New York","10036","United States of America"
"731","House Number Not Found","Street Not Found","Colchester","England","CO4 5RY","United Kingdom"
"732","31","Beckenhofstrasse","Zurich","Zurich","8006","Switzerland"
"733","House Number Not Found","Street Not Found","City Not Found","State Not Found","Postcode Not Found","Country Not Found"
"734","House Number Not Found","Street Not Found","Newcastle upon Tyne","England","NE1 7XF","United Kingdom"
"735","House Number Not Found","Street Not Found","Perth","Western Australia","6004","Australia"
"736","House Number Not Found","Street Not Found","City Not Found","Mississippi","39759","United States of America"
"737","House Number Not Found","Wellington Quay","Dublin","State Not Found","D02 Y306","Ireland"
"738","House Number Not Found","Street Not Found","Cincinnati","Ohio","45202","United States of America"
"739","500","East Trade Street","Charlotte","North Carolina","28202","United States of America"
"740","House Number Not Found","Street Not Found","Columbus","Ohio","43216","United States of America"
"741","House Number Not Found","Moi Avenue","Nairobi","Nairobi","PO BOX 30074-00100 NAIROBI","Kenya"
"742","House Number Not Found","Kagurazaka-dori","Shinjuku","Tokyo","162-0805","Japan"
"743","House Number Not Found","Street Not Found","City Not Found","Vermont","Postcode Not Found","United States of America"
"744","150","Greenwich Street","New York City","New York","10007","United States of America"
"745","House Number Not Found","Street Not Found","Shah Alam","Selangor","40604","Malaysia"
"746","House Number Not Found","Street Not Found","Dunstable","England","LU5 4HS","United Kingdom"
"747","150","Greenwich Street","New York City","New York","10007","United States of America"
"748","House Number Not Found","Street Not Found","City Not Found","State Not Found","Postcode Not Found","Country Not Found"
"749","House Number Not Found","Burdock Way","Calderdale","England","HX3 6TD","United Kingdom"
"750","House Number Not Found","Brighton Loop Road","Silver Lake Summer Resort","Utah","Postcode Not Found","United States of America"
"751","House Number Not Found","Street Not Found","San Francisco","California","94114-1818","United States of America"
"752","House Number Not Found","Street Not Found","Springfield","Missouri","65897","United States of America"
"753","House Number Not Found","River Walk","San Antonio","Texas","78205","United States of America"
"754","House Number Not Found","Street Not Found","City Not Found","Arkansas","72082:72102:72143","United States of America"
"755","73","London Road","Derby","England","DE1 2QS","United Kingdom"
"756","House Number Not Found","Phra Sumen Road","Bangkok","Bangkok","10200","Thailand"
"757","House Number Not Found","Street Not Found","Las Vegas","Nevada","NV 89101","United States of America"
"758","House Number Not Found","Street Not Found","City Not Found","State Not Found","Postcode Not Found","Country Not Found"
"759","House Number Not Found","Street Not Found","Bethesda","Maryland","22814","United States of America"
"760","House Number Not Found","Street Not Found","Sudbury","Massachusetts","01733","United States of America"
"761","House Number Not Found","Street Not Found","City Not Found","State Not Found","Postcode Not Found","Country Not Found"
"762","411","South Houston Street","Dallas","Texas","75202","United States of America"
"763","House Number Not Found","Wynnstay Gardens","London","England","W8 6BA","United Kingdom"
"764","House Number Not Found","Street Not Found","Pretoria","Gauteng","0028","South Africa"
"765","House Number Not Found","Street Not Found","Philadelphia","Pennsylvania","19102","United States of America"
"766","House Number Not Found","Street Not Found","Jombang","East Java","61417","Indonesia"
"767","House Number Not Found","Street Not Found","Aglantzia","Cyprus","8000 000","Cyprus"
"768","House Number Not Found","West Oglethorpe Avenue","Savannah","Georgia","31401","United States of America"
"769","House Number Not Found","Street Not Found","New Orleans","Louisiana","70012","United States of America"
"770","House Number Not Found","East 5th Street","Dayton","Ohio","45403","United States of America"
"771","House Number Not Found","Arlegui","Quiapo","State Not Found","1001","Philippines"
"772","House Number Not Found","Street Not Found","Elsworth","England","CB23 4JE","United Kingdom"
"773","1501","East 6th Street","Sterling","Illinois","61081","United States of America"
"774","House Number Not Found","Street Not Found","Aurora","Colorado","80017","United States of America"
"775","214/1-8","Magan Nathuram Road","Mumbai","Maharashtra","400070","India"
"776","House Number Not Found","Street Not Found","Milwaukee","Wisconsin","53207-6127","United States of America"
"777","House Number Not Found","Street Not Found","Houston","Texas","77003:77007","United States of America"
"778","4","Stampesgade","Copenhagen","Capital Region of Denmark","1702","Denmark"
"779","House Number Not Found","Street Not Found","Plumsted Township","New Jersey","08533","United States of America"
"780","House Number Not Found","Street Not Found","City Not Found","State Not Found","Postcode Not Found","Country Not Found"
"781","House Number Not Found","George Bush Drive","Katy","Texas","77492","United States of America"
"782","House Number Not Found","Street Not Found","West Liberty","Ohio","Postcode Not Found","United States of America"
"783","House Number Not Found","Street Not Found","City Not Found","Alabama","36527","United States of America"
"784","House Number Not Found","Street Not Found","Wilkes-Barre","Pennsylvania","18701","United States of America"
"785","House Number Not Found","Wood Road","Kenosha","Wisconsin","53144","United States of America"
"786","House Number Not Found","Street Not Found","Spring Hill","Florida","34608","United States of America"
"787","House Number Not Found","Broadway","London","England","SW1H 0BE","United Kingdom"
"788","House Number Not Found","Street Not Found","Polokwane Local Municipality","Limpopo","0700","South Africa"
"789","House Number Not Found","Street Not Found","Madison","Wisconsin","53715","United States of America"
"790","House Number Not Found","Street Not Found","Munich","Bavaria","80333","Germany"
"791","House Number Not Found","Street Not Found","Port Elizabeth","Eastern Cape","6006","South Africa"
"792","House Number Not Found","Street Not Found","Nashville-Davidson","Tennessee","37219","United States of America"
"793","465","MacLaren Street","Ottawa","Ontario","K2P 0M7","Canada"
"794","House Number Not Found","Street Not Found","City Not Found","State Not Found","Postcode Not Found","Country Not Found"
"795","24","George Street","London","England","TW9 1HY","United Kingdom"
"796","68","Northfield Street","Montpelier","Vermont","05602","United States of America"
"797","House Number Not Found","Street Not Found","Level Corner","Pennsylvania","17744","United States of America"
"798","House Number Not Found","Street Not Found","Belfry","Kentucky","41535","United States of America"
"799","House Number Not Found","Street Not Found","Saint Paul","Minnesota","55105","United States of America"
"800","House Number Not Found","Street Not Found","Soest","Utrecht","3769AK","The Netherlands"
"801","House Number Not Found","Jalan Tasik Permaisuri 2","City Not Found","Kuala Lumpur","51020","Malaysia"
"802","House Number Not Found","Street Not Found","Idabel","Oklahoma","74745","United States of America"
"803","House Number Not Found","Street Not Found","Bomet","Bomet","Postcode Not Found","Kenya"
"804","House Number Not Found","Street Not Found","El Paso","Texas","79901","United States of America"
"805","151","North Franklin Street","Chicago","Illinois","60606","United States of America"
"806","House Number Not Found","Street Not Found","City Not Found","State Not Found","Postcode Not Found","Country Not Found"
"807","House Number Not Found","Broadway","London","England","SW1H 0BE","United Kingdom"
"808","House Number Not Found","Street Not Found","Chorley","England","Postcode Not Found","United Kingdom"
"809","150","Greenwich Street","New York City","New York","10007","United States of America"
"810","House Number Not Found","Grahame Street","Sydney","New South Wales","2774","Australia"
"811","39","Main Street","Hatfield","Massachusetts","01038","United States of America"
"812","House Number Not Found","West Wendover Avenue","Greensboro","North Carolina","27407","United States of America"
"813","House Number Not Found","Street Not Found","Jefferson","Kansas","67340","United States of America"
"814","House Number Not Found","44th Drive","New York City","New York","11101","United States of America"
"815","House Number Not Found","Broadway","London","England","SW1H 0BE","United Kingdom"
"816","House Number Not Found","Street Not Found","Santa Teresa","New Mexico","88008","United States of America"
"817","House Number Not Found","Broadway","London","England","SW1H 0BE","United Kingdom"
"818","House Number Not Found","Street Not Found","Jefferson","Kansas","67340","United States of America"
"819","180","Euclid Avenue","Cleveland","Ohio","44113","United States of America"
"820","House Number Not Found","West 11th Street","Little Rock","Arkansas","72202","United States of America"
"821","House Number Not Found","Street Not Found","Kuching","Sarawak","93XXX","Malaysia"
"822","74","Berry Street","Brisbane","Queensland","4004","Australia"
"823","9","Saldernstraße","Kiel","Schleswig-Holstein","24118","Germany"
"824","House Number Not Found","Street Not Found","Slippery Rock","Pennsylvania","Postcode Not Found","United States of America"
"825","House Number Not Found","Street Not Found","City Not Found","State Not Found","Postcode Not Found","Country Not Found"
"826","House Number Not Found","Dock Street","Leeds","England","LS10 1LX","United Kingdom"
"827","150","Greenwich Street","New York City","New York","10007","United States of America"
"828","House Number Not Found","Street Not Found","West Bloomfield Township","Michigan","48323","United States of America"
"829","House Number Not Found","Street Not Found","Oakville","Connecticut","06795","United States of America"
"830","House Number Not Found","Street Not Found","City Not Found","State Not Found","Postcode Not Found","Country Not Found"
"831","House Number Not Found","Street Not Found","Houston","Texas","77031","United States of America"
"832","House Number Not Found","Street Not Found","Fresno","California","93702","United States of America"
"833","House Number Not Found","Street Not Found","Bristol","England","BS1","United Kingdom"
"834","House Number Not Found","Street Not Found","City Not Found","State Not Found","Postcode Not Found","Country Not Found"
"835","1","Federal Street","Boston","Massachusetts","02110-1301","United States of America"
"836","House Number Not Found","Street Not Found","Jefferson","Kansas","67340","United States of America"
"837","150","Greenwich Street","New York City","New York","10007","United States of America"
"838","House Number Not Found","Street Not Found","Redhouse","Kentucky","Postcode Not Found","United States of America"
"839","House Number Not Found","Street Not Found","Hernando","Mississippi","38632","United States of America"
"840","House Number Not Found","Street Not Found","Tonbridge and Malling","England","TN15 0PU","United Kingdom"
"841","House Number Not Found","Street Not Found","Mississauga","Ontario","L5T 1M9","Canada"
"842","House Number Not Found","Street Not Found","City Not Found","State Not Found","Postcode Not Found","Country Not Found"
"843","22","East Leigh Street","Richmond City","Virginia","23219","United States of America"
"844","House Number Not Found","Street Not Found","Dudley","Massachusetts","01570","United States of America"
"845","House Number Not Found","Street Not Found","City Not Found","State Not Found","Postcode Not Found","Country Not Found"
"846","79","Friargate","Preston","England","PR1 2ED","United Kingdom"
"847","House Number Not Found","Broadway","London","England","SW1H 0BE","United Kingdom"
"848","House Number Not Found","Street Not Found","Fort Smith","Arkansas","72901","United States of America"
"849","House Number Not Found","Street Not Found","Toronto","Ontario","M5J 1S9","Canada"
"850","House Number Not Found","Broadway","London","England","SW1H 0BE","United Kingdom"
"851","House Number Not Found","Street Not Found","City Not Found","State Not Found","Postcode Not Found","Country Not Found"
"852","315","Trumbull Street","City of Hartford","Connecticut","06103","United States of America"
"853","22","East Leigh Street","Richmond City","Virginia","23219","United States of America"
"854","507","North Montreal Avenue","Dallas","Texas","75208","United States of America"
"855","House Number Not Found","Street Not Found","St. Louis","Missouri","63102-1102","United States of America"
"856","House Number Not Found","Street Not Found","Elsdon","England","NE19 2RJ","United Kingdom"
"857","House Number Not Found","Street Not Found","Washington","District of Columbia","20420","United States of America"
"858","House Number Not Found","Street Not Found","Cambridge","England","CB2 3PA","United Kingdom"
"859","House Number Not Found","Street Not Found","Sparks","Nevada","Postcode Not Found","United States of America"
"860","House Number Not Found","Street Not Found","City Not Found","State Not Found","Postcode Not Found","Country Not Found"
"861","House Number Not Found","Square Dimokratias","Bochali","Peloponnese, West Greece and Ionian Sea","29100","Greece"
"862","House Number Not Found","Street Not Found","Birr Municipal District","State Not Found","Postcode Not Found","Ireland"
"863","House Number Not Found","Street Not Found","City Not Found","State Not Found","Postcode Not Found","Country Not Found"
"864","House Number Not Found","North 10th Street","Noblesville","Indiana","46060","United States of America"
"865","House Number Not Found","<U+3051><U+3084><U+304D><U+901A><U+308A>","Akita","Akita Prefecture","010-0967","Japan"
"866","House Number Not Found","Street Not Found","Granite City","Illinois","62040","United States of America"
"867","House Number Not Found","3rd Street","Detroit","Michigan","48226","United States of America"
"868","House Number Not Found","Street Not Found","Machelen","Flanders","1830","Belgium"
"869","House Number Not Found","Street Not Found","City Not Found","State Not Found","Postcode Not Found","Country Not Found"
"870","House Number Not Found","Street Not Found","Edinburgh","Scotland","EH16 6GB","United Kingdom"
"871","House Number Not Found","Street Not Found","Toronto","Ontario","M5J 1S9","Canada"
"872","House Number Not Found","Broadway","London","England","SW1H 0BE","United Kingdom"
"873","House Number Not Found","Street Not Found","Speedway","Indiana","46224","United States of America"
"874","House Number Not Found","Mawdsley Street","Manchester","England","M3 4JP","United Kingdom"
"875","House Number Not Found","Warner Bridge Road","Sims Spring","Tennessee","37160","United States of America"
"876","House Number Not Found","Street Not Found","Washington","District of Columbia","20420","United States of America"
"877","House Number Not Found","Street Not Found","Auburn","Alabama","36830","United States of America"
"878","House Number Not Found","Street Not Found","City Not Found","State Not Found","Postcode Not Found","Country Not Found"
"879","House Number Not Found","Street Not Found","West Liberty","Ohio","Postcode Not Found","United States of America"
"880","House Number Not Found","Street Not Found","City Not Found","State Not Found","Postcode Not Found","Country Not Found"
"881","House Number Not Found","Street Not Found","Buffalo","New York","14202","United States of America"
"882","House Number Not Found","Street Not Found","City Not Found","Georgia","Postcode Not Found","United States of America"
"883","House Number Not Found","Grand Avenue","Des Moines","Iowa","50309","United States of America"
"884","House Number Not Found","Mineral Spring Avenue","Pawtucket","Rhode Island","02860","United States of America"
"885","House Number Not Found","Street Not Found","Saint Marys","Georgia","31558","United States of America"
"886","House Number Not Found","Street Not Found","City Not Found","State Not Found","Postcode Not Found","Country Not Found"
"887","House Number Not Found","Street Not Found","Jefferson","Kansas","67340","United States of America"
"888","House Number Not Found","Street Not Found","Jefferson","Kansas","67340","United States of America"
"889","House Number Not Found","Street Not Found","McKinney","Texas","75070","United States of America"
"890","House Number Not Found","Street Not Found","City Not Found","State Not Found","Postcode Not Found","Country Not Found"
"891","House Number Not Found","Street Not Found","Horsham","England","RH20 4HG","United Kingdom"
"892","1","Federal Street","Boston","Massachusetts","02110-1301","United States of America"
"893","House Number Not Found","Street Not Found","Waverley","England","GU9 7QR","United Kingdom"
"894","House Number Not Found","Street Not Found","Jefferson","Kansas","67340","United States of America"
"895","House Number Not Found","Street Not Found","Washington","District of Columbia","20420","United States of America"
"896","House Number Not Found","Street Not Found","St. Louis","Missouri","63102-1102","United States of America"
"897","House Number Not Found","Broadway","London","England","SW1H 0BE","United Kingdom"
"898","House Number Not Found","JL KELAPA","Banjer","North Sulawesi","95112","Indonesia"
"899","House Number Not Found","Street Not Found","Lewiston","Maine","04210","United States of America"
"900","House Number Not Found","Street Not Found","City Not Found","State Not Found","Postcode Not Found","Country Not Found"
"901","House Number Not Found","River Walk","San Antonio","Texas","78205","United States of America"
"902","House Number Not Found","Street Not Found","Sudbury","Massachusetts","01733","United States of America"
"903","House Number Not Found","Street Not Found","City Not Found","State Not Found","Postcode Not Found","Country Not Found"
"904","House Number Not Found","Street Not Found","Le Hunt","Kansas","67301","United States of America"
"905","1","Federal Street","Boston","Massachusetts","02110-1301","United States of America"
"906","House Number Not Found","Street Not Found","Ha Wun Yiu","State Not Found","DD5 1145","China"
"907","37","Allersma","Eindhoven","North Brabant","5655CB","The Netherlands"
"908","House Number Not Found","Street Not Found","Sliders","Virginia","Postcode Not Found","United States of America"
"909","29","81b Street","Dubai","Dubai","128940","United Arab Emirates"
"910","House Number Not Found","Street Not Found","City Not Found","State Not Found","Postcode Not Found","Country Not Found"
"911","House Number Not Found","Mawdsley Street","Manchester","England","M3 4JP","United Kingdom"
"912","House Number Not Found","Street Not Found","Calderdale","England","OL14 5RJ","United Kingdom"
"913","House Number Not Found","Broadway","London","England","SW1H 0BE","United Kingdom"
"914","House Number Not Found","Street Not Found","Sandton","Gauteng","2196","South Africa"
"915","House Number Not Found","Street Not Found","Al Qarahin","Makkah Region","Postcode Not Found","Saudi Arabia"
"916","201","South Broadway","Green Bay","Wisconsin","54303","United States of America"
"917","House Number Not Found","Street Not Found","Roanoke","Virginia","24011","United States of America"
"918","309","East Main Street","Lexington","South Carolina","29072","United States of America"
"919","House Number Not Found","Street Not Found","City Not Found","State Not Found","Postcode Not Found","Country Not Found"
"920","House Number Not Found","Street Not Found","Bellaghy","Northern Ireland","BT41 3SS","United Kingdom"
"921","49","Prinsekaai","Bergen op Zoom","North Brabant","4611EV","The Netherlands"
"922","House Number Not Found","Street Not Found","Northampton","Massachusetts","01060","United States of America"
"923","House Number Not Found","Street Not Found","Vashon","Washington","98070","United States of America"
"924","House Number Not Found","Street Not Found","Mountain Ash","Wales","CF45","United Kingdom"
"925","House Number Not Found","Green Street","Truro","England","TR1 2LH","United Kingdom"
"926","House Number Not Found","Granville Street","Helensburgh","Scotland","G84 7RF","United Kingdom"
"927","1304","Elati Street","Denver","Colorado","80204","United States of America"
"928","House Number Not Found","Street Not Found","Cooper City","Florida","33328","United States of America"
"929","House Number Not Found","Street Not Found","Shakopee","Minnesota","55379","United States of America"
"930","House Number Not Found","Street Not Found","Le Hunt","Kansas","67301","United States of America"
"931","House Number Not Found","Street Not Found","Jyväskylä","Western Finland","Postcode Not Found","Finland"
"932","House Number Not Found","Marine Drive","Scarborough","England","YO11 1SN","United Kingdom"
"933","House Number Not Found","Street Not Found","City Not Found","State Not Found","Postcode Not Found","Country Not Found"
"934","House Number Not Found","Moi Avenue","Nairobi","Nairobi","PO BOX 30074-00100 NAIROBI","Kenya"
"935","House Number Not Found","Street Not Found","Vogtei","Thuringia","99986","Germany"
"936","House Number Not Found","Street Not Found","Lumberton","Texas","77657","United States of America"
"937","House Number Not Found","Street Not Found","Westville","KwaZulu-Natal","3639","South Africa"
"938","19","Street Not Found","Broken Bow","Oklahoma","74728","United States of America"
"939","House Number Not Found","Street Not Found","Chapel Hill","North Carolina","27516","United States of America"
"940","House Number Not Found","Street Not Found","Tulsa","Oklahoma","74103","United States of America"
"941","House Number Not Found","Street Not Found","City Not Found","State Not Found","Postcode Not Found","Country Not Found"
"942","House Number Not Found","Blacklands Terrace","London","England","SW3 4UG","United Kingdom"
"943","125","Locust Street","Akron","Ohio","44302","United States of America"
"944","House Number Not Found","Street Not Found","West Liberty","Ohio","Postcode Not Found","United States of America"
"945","House Number Not Found","Street Not Found","San Francisco","California","94107","United States of America"
"946","House Number Not Found","Street Not Found","Seoul","State Not Found","04521","South Korea"
"947","House Number Not Found","Street Not Found","Stockholm","Stockholm County","111 45","Sweden"
"948","House Number Not Found","Street Not Found","Washington","District of Columbia","20420","United States of America"
"949","House Number Not Found","Street Not Found","Newcastle upon Tyne","England","NE1 7XF","United Kingdom"
"950","420","South Howes Street","Fort Collins","Colorado","80521-2871","United States of America"
"951","House Number Not Found","Street Not Found","Armagh","Northern Ireland","BT61 7DY","United Kingdom"
"952","15361","State Route 207","Coles Corner","Washington","98826","United States of America"
"953","House Number Not Found","Street Not Found","Shawnee","Kansas","66203","United States of America"
"954","House Number Not Found","Street Not Found","Guildford","England","GU1 4HB","United Kingdom"
"955","House Number Not Found","Street Not Found","City Not Found","State Not Found","Postcode Not Found","Country Not Found"
"956","House Number Not Found","Broadway","London","England","SW1H 0BE","United Kingdom"
"957","35","The Drive","Chiltern","England","HP7 9AD","United Kingdom"
"958","House Number Not Found","Cricket Avenue","Lower Merion Township","Pennsylvania","19003","United States of America"
"959","151","North Franklin Street","Chicago","Illinois","60606","United States of America"
"960","House Number Not Found","Street Not Found","Bartlesville","Oklahoma","74006","United States of America"
"961","House Number Not Found","Broadway","London","England","SW1H 0BE","United Kingdom"
"962","House Number Not Found","Street Not Found","City Not Found","State Not Found","Postcode Not Found","Country Not Found"
"963","House Number Not Found","Street Not Found","London","Ontario","N6A 2T3","Canada"
"964","House Number Not Found","Street Not Found","Harrisburg","Pennsylvania","17120","United States of America"
"965","House Number Not Found","Street Not Found","Baltimore","Maryland","21202","United States of America"
"966","House Number Not Found","Street Not Found","Sampaloc","State Not Found","1015","Philippines"
"967","House Number Not Found","Mawdsley Street","Manchester","England","M3 4JP","United Kingdom"
"968","5/8","London Road","Brighton","England","BN1 4JA","United Kingdom"
"969","House Number Not Found","Street Not Found","Pittsburgh","Pennsylvania","15219","United States of America"
"970","House Number Not Found","Port Arthur Avenue","Mena","Arkansas","71953","United States of America"
"971","House Number Not Found","Street Not Found","Jefferson","Kansas","67340","United States of America"
"972","House Number Not Found","Street Not Found","Bouctouche","New Brunswick","E4S 3K2","Canada"
"973","House Number Not Found","Street Not Found","Washington","District of Columbia","20420","United States of America"
"974","House Number Not Found","Street Not Found","Johannesburg","Gauteng","2001","South Africa"
"975","House Number Not Found","Street Not Found","Vogtei","Thuringia","99986","Germany"
"976","House Number Not Found","Warner Bridge Road","Sims Spring","Tennessee","37160","United States of America"
"977","150","Greenwich Street","New York City","New York","10007","United States of America"
"978","House Number Not Found","Sector - 16 A Rd","Faridabád","Haryana","121001","India"
"979","House Number Not Found","Street Not Found","City Not Found","Zahlé District","1801","Lebanon"
"980","House Number Not Found","Street Not Found","City Not Found","State Not Found","Postcode Not Found","Country Not Found"
"981","House Number Not Found","Street Not Found","Springdale","Arkansas","72764","United States of America"
"982","House Number Not Found","Street Not Found","Newcastle upon Tyne","England","NE1 7XF","United Kingdom"
"983","House Number Not Found","Street Not Found","City Not Found","State Not Found","Postcode Not Found","Country Not Found"
"984","1311","Street Not Found","Wilson","North Carolina","27893","United States of America"
"985","House Number Not Found","Street Not Found","Pacific City","Oregon","97315","United States of America"
"986","House Number Not Found","Street Not Found","Jefferson","Kansas","67340","United States of America"
"987","House Number Not Found","Street Not Found","Cedar Springs","Michigan","49319","United States of America"
"988","House Number Not Found","Street Not Found","Pretoria","Gauteng","0028","South Africa"
"989","House Number Not Found","Street Not Found","Houston","Texas","77003:77007","United States of America"
"990","House Number Not Found","Street Not Found","City Not Found","State Not Found","Postcode Not Found","Country Not Found"
"991","House Number Not Found","Street Not Found","Cabot","Arkansas","72023","United States of America"
"992","House Number Not Found","Lazarus Court","Doncaster","England","DN1 3NF","United Kingdom"
"993","House Number Not Found","Street Not Found","Warwick","England","CV31 1XF","United Kingdom"
"994","House Number Not Found","Street Not Found","Philadelphia","Pennsylvania","19102","United States of America"
"995","House Number Not Found","Street Not Found","Jefferson","Kansas","67340","United States of America"
"996","32","High Street","Stony Stratford","England","MK11 1AF","United Kingdom"
"997","House Number Not Found","Broadway","London","England","SW1H 0BE","United Kingdom"
"998","House Number Not Found","Street Not Found","Taubaté","São Paulo","12070-000","Brazil"
"999","House Number Not Found","Street Not Found","West Liberty","Ohio","Postcode Not Found","United States of America"
"1000","House Number Not Found","Street Not Found","Atlanta","Georgia","30303","United States of America"
