"","housenumber","street","city","state","zip","country"
"1","House Number Not Found","Street Not Found","McKinney","Texas","75070","United States of America"
"2","150","Greenwich Street","New York City","New York","10007","United States of America"
"3","99 West","South Street","Orlando","Florida","32801","United States of America"
"4","151","North Franklin Street","Chicago","Illinois","60606","United States of America"
"5","1392","Atlantic Avenue","New York City","New York","11216","United States of America"
"6","House Number Not Found","Street Not Found","Toronto","Ontario","M5J 1S9","Canada"
"7","House Number Not Found","Street Not Found","City Not Found","State Not Found","Postcode Not Found","Country Not Found"
"8","House Number Not Found","Street Not Found","Columbus","Ohio","43085","United States of America"
"9","House Number Not Found","Street Not Found","Mackay","Queensland","4740","Australia"
"10","House Number Not Found","Mississippi Street","Buffalo","New York","14203","United States of America"
"11","House Number Not Found","Street Not Found","City Not Found","State Not Found","Postcode Not Found","Country Not Found"
"12","House Number Not Found","Street Not Found","Mackay","Queensland","4740","Australia"
"13","House Number Not Found","Street Not Found","Jefferson","Kansas","67340","United States of America"
"14","House Number Not Found","Street Not Found","Sulphur","Louisiana","70663","United States of America"
"15","House Number Not Found","Street Not Found","Kearney","Nebraska","68847","United States of America"
"16","House Number Not Found","Street Not Found","Denmark","Maine","04022","United States of America"
"17","150","Greenwich Street","New York City","New York","10007","United States of America"
"18","150","Greenwich Street","New York City","New York","10007","United States of America"
"19","House Number Not Found","Street Not Found","Hot Springs","Arkansas","71913","United States of America"
"20","1954","Post Road","Fairfield","Connecticut","06890","United States of America"
"21","House Number Not Found","Street Not Found","City Not Found","Utah","Postcode Not Found","United States of America"
"22","House Number Not Found","Street Not Found","Sliders","Virginia","Postcode Not Found","United States of America"
"23","House Number Not Found","Street Not Found","Durham","North Carolina","27701","United States of America"
"24","House Number Not Found","Warner Bridge Road","Sims Spring","Tennessee","37160","United States of America"
"25","House Number Not Found","Street Not Found","Los Angeles","California","90012","United States of America"
"26","House Number Not Found","Street Not Found","Bartlesville","Oklahoma","74006","United States of America"
"27","House Number Not Found","Street Not Found","Fresno","California","93702","United States of America"
"28","House Number Not Found","Street Not Found","Boise City","Idaho","83735","United States of America"
"29","House Number Not Found","Street Not Found","Frisco","Texas","75034","United States of America"
"30","House Number Not Found","Street Not Found","Raleigh","North Carolina","27603","United States of America"
"31","House Number Not Found","Street Not Found","London","England","W1U 4QF","United Kingdom"
"32","House Number Not Found","Street Not Found","City Not Found","State Not Found","Postcode Not Found","Country Not Found"
"33","15","Cowperthwaite Square","Westfield","New Jersey","07090","United States of America"
"34","House Number Not Found","Street Not Found","Jefferson","Kansas","67340","United States of America"
"35","House Number Not Found","Street Not Found","Cincinnati","Ohio","45202","United States of America"
"36","House Number Not Found","Street Not Found","Philadelphia","Pennsylvania","19102","United States of America"
"37","House Number Not Found","Street Not Found","Chapelton","State Not Found","JMACN03","Country Not Found"
"38","1635","Farrington Road","Bells","North Carolina","27523","United States of America"
"39","House Number Not Found","Street Not Found","Chapelton","State Not Found","JMACN03","Country Not Found"
"40","House Number Not Found","Street Not Found","St. Louis","Missouri","63102-1102","United States of America"
"41","House Number Not Found","Street Not Found","West Liberty","Ohio","Postcode Not Found","United States of America"
"42","House Number Not Found","Street Not Found","Huntington Beach","California","CA 92646","United States of America"
"43","House Number Not Found","Street Not Found","Redhouse","Kentucky","Postcode Not Found","United States of America"
"44","House Number Not Found","Street Not Found","City Not Found","State Not Found","Postcode Not Found","Country Not Found"
"45","House Number Not Found","Street Not Found","Washington","District of Columbia","20420","United States of America"
"46","House Number Not Found","Street Not Found","St. Louis","Missouri","63102-1102","United States of America"
"47","House Number Not Found","Street Not Found","Locust","North Carolina","28097","United States of America"
"48","House Number Not Found","Street Not Found","Houston","Texas","77003:77007","United States of America"
"49","House Number Not Found","Street Not Found","Quitman","Louisiana","71268","United States of America"
"50","House Number Not Found","Street Not Found","San Francisco","California","94107","United States of America"
"51","House Number Not Found","Street Not Found","Fresno","California","93702","United States of America"
"52","House Number Not Found","Street Not Found","Fresno","California","93702","United States of America"
"53","150","Greenwich Street","New York City","New York","10007","United States of America"
"54","House Number Not Found","Street Not Found","City Not Found","State Not Found","Postcode Not Found","Country Not Found"
"55","1635","Farrington Road","Bells","North Carolina","27523","United States of America"
"56","House Number Not Found","Street Not Found","City Not Found","State Not Found","Postcode Not Found","Country Not Found"
"57","House Number Not Found","Street Not Found","Whaleys Corners","Delaware","Postcode Not Found","United States of America"
"58","House Number Not Found","Street Not Found","Singapore","State Not Found","574408","Singapore"
"59","House Number Not Found","Street Not Found","Philadelphia","Pennsylvania","19102","United States of America"
"60","House Number Not Found","South Nimitz Parkway","Fredericksburg","Texas","78624","United States of America"
"61","House Number Not Found","Street Not Found","Cardiff","Wales","CF","United Kingdom"
"62","House Number Not Found","Street Not Found","Los Angeles","California","90028","United States of America"
"63","House Number Not Found","Street Not Found","Washington","District of Columbia","20420","United States of America"
"64","House Number Not Found","Street Not Found","Cedar Rapids","Iowa","52401","United States of America"
"65","House Number Not Found","Street Not Found","Pittsburgh","Pennsylvania","15219","United States of America"
"66","800","West Frost Street","Plattsburg","Missouri","64477","United States of America"
"67","House Number Not Found","West Oglethorpe Avenue","Savannah","Georgia","31401","United States of America"
"68","House Number Not Found","Street Not Found","New Orleans","Louisiana","70012","United States of America"
"69","House Number Not Found","Valencia Street","Lindsay","California","93247","United States of America"
"70","House Number Not Found","Street Not Found","Le Hunt","Kansas","67301","United States of America"
"71","House Number Not Found","Street Not Found","Georgetown","Texas","78626<U+200E>","United States of America"
"72","500","East Trade Street","Charlotte","North Carolina","28202","United States of America"
"73","House Number Not Found","Street Not Found","City Not Found","Alabama","36582","United States of America"
"74","71","Liberty Street","Newburgh","New York","12550","United States of America"
"75","House Number Not Found","Street Not Found","Chapelton","State Not Found","JMACN03","Country Not Found"
"76","House Number Not Found","Warner Bridge Road","Sims Spring","Tennessee","37160","United States of America"
"77","House Number Not Found","Street Not Found","Plumsted Township","New Jersey","08533","United States of America"
"78","House Number Not Found","Street Not Found","Atlanta","Georgia","30303","United States of America"
"79","House Number Not Found","Street Not Found","Los Angeles","California","90012","United States of America"
"80","House Number Not Found","Street Not Found","Toronto","Ontario","M5J 1S9","Canada"
"81","House Number Not Found","Street Not Found","City Not Found","State Not Found","Postcode Not Found","Country Not Found"
"82","House Number Not Found","Street Not Found","West Liberty","Ohio","Postcode Not Found","United States of America"
"83","2922","2nd Road North","Arlington","Virginia","22201","United States of America"
"84","House Number Not Found","Street Not Found","Burbank","Washington","99323","United States of America"
"85","House Number Not Found","Street Not Found","Washington","District of Columbia","20420","United States of America"
"86","1","Federal Street","Boston","Massachusetts","02110-1301","United States of America"
"87","House Number Not Found","Street Not Found","Jefferson","Kansas","67340","United States of America"
"88","House Number Not Found","Street Not Found","Mountain View","California","94041","United States of America"
"89","House Number Not Found","Street Not Found","Sharpes Hill","South Carolina","29053","United States of America"
"90","411","South Houston Street","Dallas","Texas","75202","United States of America"
"91","House Number Not Found","Street Not Found","Covington","Georgia","30014","United States of America"
"92","House Number Not Found","Twigg Street","Corpus Christi","Texas","78401","United States of America"
"93","House Number Not Found","Street Not Found","City Not Found","State Not Found","Postcode Not Found","Country Not Found"
"94","House Number Not Found","Street Not Found","City Not Found","State Not Found","Postcode Not Found","Country Not Found"
"95","House Number Not Found","Street Not Found","Los Angeles","California","90012","United States of America"
"96","House Number Not Found","Centre Street S","Calgary","Alberta","T2G 2B6","Canada"
"97","House Number Not Found","Street Not Found","Lindale","Texas","75771","United States of America"
"98","House Number Not Found","Street Not Found","Columbia","Tennessee","38401","United States of America"
"99","House Number Not Found","Street Not Found","Tysons","Virginia","22043","United States of America"
"100","House Number Not Found","Street Not Found","Singapore","State Not Found","574408","Singapore"
"101","House Number Not Found","Street Not Found","Hamilton","Ontario","L8P 2C7","Canada"
"102","House Number Not Found","Street Not Found","City Not Found","State Not Found","Postcode Not Found","Country Not Found"
"103","House Number Not Found","Street Not Found","City Not Found","State Not Found","Postcode Not Found","Country Not Found"
"104","House Number Not Found","Street Not Found","West Liberty","Ohio","Postcode Not Found","United States of America"
"105","House Number Not Found","Street Not Found","Bay Lake","Florida","32830-8426","United States of America"
"106","273","Columbus Avenue","New York City","New York","10023","United States of America"
"107","House Number Not Found","Street Not Found","Tucson","Arizona","85701","United States of America"
"108","10, 12","Avenue des Mayennets","Sion","Valais/Wallis","1950","Switzerland"
"109","House Number Not Found","Street Not Found","Les Bons Villers","Wallonia","6211","Belgium"
"110","House Number Not Found","Street Not Found","South Towne Park","Iowa","52778","United States of America"
"111","150","Greenwich Street","New York City","New York","10007","United States of America"
"112","House Number Not Found","Street Not Found","Ada","Oklahoma","74820","United States of America"
"113","669","Queen Street","Fredericton","New Brunswick","E3B 1C3","Canada"
"114","House Number Not Found","Street Not Found","Le Hunt","Kansas","67301","United States of America"
"115","House Number Not Found","Street Not Found","Jefferson","Kansas","67340","United States of America"
"116","House Number Not Found","Street Not Found","Lima","Ohio","45801","United States of America"
"117","865","6th Avenue","New York City","New York","10001","United States of America"
"118","House Number Not Found","Street Not Found","Jefferson","Kansas","67340","United States of America"
"119","House Number Not Found","Street Not Found","City Not Found","Louisiana","71362","United States of America"
"120","House Number Not Found","Street Not Found","Redhouse","Kentucky","Postcode Not Found","United States of America"
"121","House Number Not Found","Street Not Found","Eason","Oklahoma","74878","United States of America"
"122","House Number Not Found","Street Not Found","City Not Found","Georgia","30528","United States of America"
"123","House Number Not Found","Street Not Found","Jefferson","Kansas","67340","United States of America"
"124","House Number Not Found","Street Not Found","Independence","Kansas","67301","United States of America"
"125","220","Market Street","Philadelphia","Pennsylvania","19106","United States of America"
"126","House Number Not Found","Street Not Found","Minneapolis","Minnesota","55401","United States of America"
"127","House Number Not Found","Street Not Found","Town of East Hartford","Connecticut","06108","United States of America"
"128","House Number Not Found","Street Not Found","Kansas City","Missouri","64106","United States of America"
"129","House Number Not Found","Street Not Found","City Not Found","New Mexico","Postcode Not Found","United States of America"
"130","House Number Not Found","Street Not Found","City Not Found","State Not Found","Postcode Not Found","Country Not Found"
"131","House Number Not Found","Street Not Found","Kansas City","Kansas","66101","United States of America"
"132","House Number Not Found","Ajmer Road","Jaipur Municipal Corporation","Rajasthan","302006","India"
"133","House Number Not Found","Street Not Found","Fresno","California","93702","United States of America"
"134","House Number Not Found","Street Not Found","Toronto","Ontario","M5J 1S9","Canada"
"135","House Number Not Found","Street Not Found","City Not Found","Iowa","50141","United States of America"
"136","House Number Not Found","Street Not Found","Level Corner","Pennsylvania","17744","United States of America"
"137","House Number Not Found","Street Not Found","Tyler","Alabama","36785","United States of America"
"138","House Number Not Found","Street Not Found","Belles","Saint Joseph Parish","00152","Dominica"
"139","House Number Not Found","Street Not Found","Dallas","Texas","75231","United States of America"
"140","House Number Not Found","Street Not Found","Houston","Texas","77003:77007","United States of America"
"141","House Number Not Found","Street Not Found","Putnam Township","Michigan","48169","United States of America"
"142","House Number Not Found","Street Not Found","Jefferson","Kansas","67340","United States of America"
"143","House Number Not Found","Street Not Found","Georgetown","Texas","78626","United States of America"
"144","House Number Not Found","Street Not Found","City Not Found","State Not Found","Postcode Not Found","Country Not Found"
"145","38","Bethel Street","New Bedford","Massachusetts","02740-4938","United States of America"
"146","House Number Not Found","Street Not Found","Six Forks","Delaware","19954","United States of America"
"147","109","South Hancock Street","Madison","Wisconsin","53703","United States of America"
"148","502","South Farwell Street","Eau Claire","Wisconsin","54701","United States of America"
"149","House Number Not Found","Street Not Found","Portland","Oregon","97258","United States of America"
"150","House Number Not Found","Street Not Found","North Attleborough","Massachusetts","02760","United States of America"
"151","House Number Not Found","Street Not Found","Las Vegas","Nevada","89101","United States of America"
"152","150","Greenwich Street","New York City","New York","10007","United States of America"
"153","House Number Not Found","Street Not Found","City Not Found","State Not Found","Postcode Not Found","Country Not Found"
"154","House Number Not Found","Street Not Found","City Not Found","State Not Found","Postcode Not Found","Country Not Found"
"155","House Number Not Found","Geneva Lake Shore Path","Lake Geneva","Wisconsin","53147","United States of America"
"156","House Number Not Found","Street Not Found","Merthyr Tydfil","Wales","CF48 1UN","United Kingdom"
"157","House Number Not Found","Street Not Found","Los Angeles","California","90012","United States of America"
"158","1901","Haist Street","Pelham","Ontario","L0S 1E5","Canada"
"159","House Number Not Found","Street Not Found","Mountain City","Tennessee","37683","United States of America"
"160","700","Monticello Avenue","Charlottesville","Virginia","22903","United States of America"
"161","House Number Not Found","Centre Street S","Calgary","Alberta","T2G 2B6","Canada"
"162","House Number Not Found","Street Not Found","City Not Found","Georgia","Postcode Not Found","United States of America"
"163","1635","Farrington Road","Bells","North Carolina","27523","United States of America"
"164","House Number Not Found","Street Not Found","Portsmouth","England","PO2 9AW","United Kingdom"
"165","House Number Not Found","3rd Street","Detroit","Michigan","48226","United States of America"
"166","House Number Not Found","Street Not Found","Rapid City","South Dakota","55701","United States of America"
"167","House Number Not Found","Street Not Found","Tucson","Arizona","85701","United States of America"
"168","House Number Not Found","Street Not Found","Madison","Wisconsin","53715","United States of America"
"169","House Number Not Found","Street Not Found","Pittsburg","Kansas","66762","United States of America"
"170","House Number Not Found","Street Not Found","Houston","Texas","77003:77007","United States of America"
"171","House Number Not Found","Street Not Found","Spokane","Washington","99201","United States of America"
"172","House Number Not Found","Street Not Found","City Not Found","California","Postcode Not Found","United States of America"
"173","House Number Not Found","Street Not Found","West Liberty","Ohio","Postcode Not Found","United States of America"
"174","House Number Not Found","Street Not Found","City Not Found","State Not Found","Postcode Not Found","Country Not Found"
"175","House Number Not Found","Street Not Found","Jefferson","Kansas","67340","United States of America"
"176","House Number Not Found","Street Not Found","Saint-Avold","Grand Est","57500","France"
"177","House Number Not Found","Street Not Found","Birr Municipal District","State Not Found","Postcode Not Found","Ireland"
"178","House Number Not Found","Street Not Found","Texarkana","Texas","71854:75501","United States of America"
"179","420","South Howes Street","Fort Collins","Colorado","80521-2871","United States of America"
"180","House Number Not Found","Street Not Found","Kansas City","Missouri","64109","United States of America"
"181","House Number Not Found","Street Not Found","Warwick","Rhode Island","02868","United States of America"
"182","House Number Not Found","Street Not Found","Jefferson","Kansas","67340","United States of America"
"183","House Number Not Found","Kimball Avenue","Manhattan","Kansas","66506","United States of America"
"184","House Number Not Found","Street Not Found","Los Angeles","California","90012","United States of America"
"185","House Number Not Found","Street Not Found","Reno","Nevada","89505","United States of America"
"186","House Number Not Found","Street Not Found","Fresno","California","93702","United States of America"
"187","House Number Not Found","Street Not Found","San Diego","California","92101","United States of America"
"188","House Number Not Found","Street Not Found","City Not Found","New Aquitaine","23230","France"
"189","House Number Not Found","Street Not Found","Portland","Oregon","97240","United States of America"
"190","House Number Not Found","Street Not Found","Baltimore","Maryland","21202","United States of America"
"191","House Number Not Found","Street Not Found","Fort Dodge","Iowa","50501","United States of America"
"192","House Number Not Found","Street Not Found","City Not Found","State Not Found","Postcode Not Found","Country Not Found"
"193","House Number Not Found","Street Not Found","City Not Found","State Not Found","Postcode Not Found","Country Not Found"
"194","54","Fairfield Street","Montclair","New Jersey","07042","United States of America"
"195","House Number Not Found","West 11th Street","Little Rock","Arkansas","72202","United States of America"
"196","House Number Not Found","Street Not Found","South Carthage","Tennessee","37030","United States of America"
"197","House Number Not Found","Street Not Found","Sharpes Hill","South Carolina","29053","United States of America"
"198","House Number Not Found","Summers Street","Charleston","West Virginia","25301","United States of America"
"199","House Number Not Found","West Circle Drive","East Lansing","Michigan","48825:48864","United States of America"
"200","House Number Not Found","Street Not Found","Edmond","Oklahoma","73034","United States of America"
"201","House Number Not Found","Street Not Found","Kansas City","Missouri","64106","United States of America"
"202","House Number Not Found","Street Not Found","City Not Found","Georgia","Postcode Not Found","United States of America"
"203","House Number Not Found","Street Not Found","City Not Found","State Not Found","Postcode Not Found","Country Not Found"
"204","House Number Not Found","Herrängsvägen","Herräng","Stockholm County","760 49","Sweden"
"205","House Number Not Found","Boulevard De Maisonneuve Ouest","Montreal","Quebec","H3A 3L4","Canada"
"206","House Number Not Found","Street Not Found","Lawrence","Kansas","66044","United States of America"
"207","House Number Not Found","Street Not Found","Phoenix","Arizona","85004","United States of America"
"208","151","North Franklin Street","Chicago","Illinois","60606","United States of America"
"209","350","Canal Walk","Indianapolis","Indiana","46202","United States of America"
"210","House Number Not Found","Street Not Found","San Diego","California","92101","United States of America"
"211","150","Greenwich Street","New York City","New York","10007","United States of America"
"212","House Number Not Found","Street Not Found","Miami","Florida","33131","United States of America"
"213","House Number Not Found","Street Not Found","Eugene","Oregon","97401","United States of America"
"214","309","East 11th Street","Austin","Texas","78701","United States of America"
"215","House Number Not Found","Street Not Found","San Diego","California","92101","United States of America"
"216","House Number Not Found","Street Not Found","Grapevine","Texas","75261","United States of America"
"217","House Number Not Found","Street Not Found","Joplin","Missouri","64801","United States of America"
"218","House Number Not Found","Street Not Found","Columbia","Missouri","65203","United States of America"
"219","House Number Not Found","Street Not Found","Six Forks","Delaware","19954","United States of America"
"220","House Number Not Found","Street Not Found","Houston","Texas","77003:77007","United States of America"
"221","House Number Not Found","3rd Street","Detroit","Michigan","48226","United States of America"
"222","House Number Not Found","Rockland Street","Westbury","New York","11590","United States of America"
"223","House Number Not Found","Street Not Found","Washington","District of Columbia","20420","United States of America"
"224","House Number Not Found","Street Not Found","Yishun","State Not Found","757828","Singapore"
"225","House Number Not Found","Street Not Found","Oakdale","California","95361","United States of America"
"226","House Number Not Found","Street Not Found","Fresno","California","93702","United States of America"
"227","House Number Not Found","Street Not Found","Shinjuku","Tokyo","163-8001","Japan"
"228","House Number Not Found","Street Not Found","City Not Found","State Not Found","Postcode Not Found","Country Not Found"
"229","House Number Not Found","Street Not Found","City Not Found","State Not Found","Postcode Not Found","Country Not Found"
"230","House Number Not Found","Street Not Found","Jefferson","Kansas","67340","United States of America"
"231","House Number Not Found","Street Not Found","Tyler","Alabama","36785","United States of America"
"232","3015","Maine Avenue","Medford","New York","11763","United States of America"
"233","House Number Not Found","Street Not Found","City Not Found","State Not Found","Postcode Not Found","Country Not Found"
"234","House Number Not Found","Street Not Found","Las Vegas","Nevada","89101","United States of America"
"235","House Number Not Found","Street Not Found","Milwaukee","Wisconsin","53207-6127","United States of America"
"236","House Number Not Found","Street Not Found","City Not Found","State Not Found","Postcode Not Found","Country Not Found"
"237","1601","Richmond Avenue","Houston","Texas","77006","United States of America"
"238","House Number Not Found","South Lexington Avenue","White Plains","New York","10606","United States of America"
"239","650","Page Mill Road","Palo Alto","California","94304","United States of America"
"240","House Number Not Found","Street Not Found","Jonesboro","Arkansas","72403","United States of America"
"241","96","Summer Street","Malden","Massachusetts","02148","United States of America"
"242","House Number Not Found","Street Not Found","Upper Arlington","Ohio","43220","United States of America"
"243","House Number Not Found","John F. Kennedy Boulevard","North Bergen","New Jersey","07047-2227","United States of America"
"244","House Number Not Found","Street Not Found","San Diego","California","92101","United States of America"
"245","House Number Not Found","Street Not Found","Jefferson","Kansas","67340","United States of America"
"246","House Number Not Found","Street Not Found","Jefferson","Kansas","67340","United States of America"
"247","House Number Not Found","Street Not Found","Vancouver","British Columbia","V6Z","Canada"
"248","House Number Not Found","Street Not Found","Brick Township","New Jersey","08723-4049","United States of America"
"249","House Number Not Found","13th Street","Lubbock","Texas","79401","United States of America"
"250","House Number Not Found","Street Not Found","City Not Found","State Not Found","Postcode Not Found","Country Not Found"
"251","House Number Not Found","Street Not Found","New Lothrop","Michigan","48460","United States of America"
"252","1","Federal Street","Boston","Massachusetts","02110-1301","United States of America"
"253","House Number Not Found","Street Not Found","Jacksonville","Florida","32207","United States of America"
"254","150","Greenwich Street","New York City","New York","10007","United States of America"
"255","House Number Not Found","Street Not Found","City Not Found","State Not Found","Postcode Not Found","Country Not Found"
"256","House Number Not Found","Street Not Found","West Liberty","Ohio","Postcode Not Found","United States of America"
"257","208","Craven Street","New Bern","North Carolina","28560","United States of America"
"258","1","Federal Street","Boston","Massachusetts","02110-1301","United States of America"
"259","House Number Not Found","Street Not Found","City Not Found","State Not Found","Postcode Not Found","Country Not Found"
"260","House Number Not Found","West Side Highway","Sacramento","California","95814","United States of America"
"261","House Number Not Found","Street Not Found","West Liberty","Ohio","Postcode Not Found","United States of America"
"262","House Number Not Found","Street Not Found","Los Angeles","California","90048","United States of America"
"263","151","North Franklin Street","Chicago","Illinois","60606","United States of America"
"264","House Number Not Found","Street Not Found","Portland","Oregon","97258","United States of America"
"265","House Number Not Found","M. Velez Street","Cebu City","Cebu","6000","Philippines"
"266","House Number Not Found","Street Not Found","Galt City","Florida","32583","United States of America"
"267","House Number Not Found","Street Not Found","Atlanta","Georgia","30303","United States of America"
"268","House Number Not Found","North State Street","Chicago","Illinois","60601","United States of America"
"269","House Number Not Found","Street Not Found","Jupiter","Florida","33458","United States of America"
"270","House Number Not Found","Street Not Found","Jupiter","Florida","33458","United States of America"
"271","House Number Not Found","Street Not Found","San Francisco","California","94103","United States of America"
"272","House Number Not Found","Hunyadi tér","Pusztavacs","Central Hungary","2378","Hungary"
"273","House Number Not Found","Street Not Found","Hinesville","Georgia","31313","United States of America"
"274","House Number Not Found","Street Not Found","Kansas City","Missouri","64106","United States of America"
"275","House Number Not Found","Street Not Found","Phoenix","Arizona","85004","United States of America"
"276","150","Greenwich Street","New York City","New York","10007","United States of America"
"277","15361","State Route 207","Coles Corner","Washington","98826","United States of America"
"278","House Number Not Found","Street Not Found","Picketts Creek","Georgia","30101","United States of America"
"279","55","Webster Avenue","New Rochelle","New York","10801","United States of America"
"280","House Number Not Found","Street Not Found","Chaska","Minnesota","55318","United States of America"
"281","House Number Not Found","Street Not Found","City of Middleton","Wisconsin","53562","United States of America"
"282","House Number Not Found","Street Not Found","Fort Myers","Florida","33901","United States of America"
"283","House Number Not Found","Street Not Found","Lewisville","Texas","75057","United States of America"
"284","House Number Not Found","Street Not Found","Marquette","Michigan","49855","United States of America"
"285","House Number Not Found","Street Not Found","Jefferson","Kansas","67340","United States of America"
"286","151","North Franklin Street","Chicago","Illinois","60606","United States of America"
"287","House Number Not Found","Street Not Found","City Not Found","State Not Found","Postcode Not Found","Country Not Found"
"288","House Number Not Found","Street Not Found","Alexandria","Indiana","46001","United States of America"
"289","House Number Not Found","Street Not Found","Stormville","New York","12582","United States of America"
"290","House Number Not Found","Street Not Found","Yukon","Oklahoma","73099","United States of America"
"291","House Number Not Found","Street Not Found","Pasadena","California","91105","United States of America"
"292","House Number Not Found","Street Not Found","City Not Found","State Not Found","Postcode Not Found","Country Not Found"
"293","1635","Farrington Road","Bells","North Carolina","27523","United States of America"
"294","House Number Not Found","Street Not Found","Round Rock","Texas","78664","United States of America"
"295","House Number Not Found","Street Not Found","Jefferson","Kansas","67340","United States of America"
"296","House Number Not Found","Street Not Found","Patterson","New York","12563","United States of America"
"297","House Number Not Found","37th Street Northwest","Washington","District of Columbia","20008","United States of America"
"298","133-135","Mansfield Road","City of Nottingham","England","NG1 3FQ","United Kingdom"
"299","House Number Not Found","Street Not Found","Washington","District of Columbia","20420","United States of America"
"300","House Number Not Found","Street Not Found","Columbus","Ohio","43216","United States of America"
"301","74","Berry Street","Brisbane","Queensland","4004","Australia"
"302","House Number Not Found","Street Not Found","Tucson","Arizona","85701","United States of America"
"303","House Number Not Found","Street Not Found","Anaheim","California","92805","United States of America"
"304","350","Canal Walk","Indianapolis","Indiana","46202","United States of America"
"305","House Number Not Found","Street Not Found","Tulsa","Oklahoma","74128","United States of America"
"306","1624","Broadway","Boulder","Colorado","80302","United States of America"
"307","House Number Not Found","South Skyline Drive","Thousand Oaks","California","CA 91362","United States of America"
"308","House Number Not Found","Street Not Found","Covington","Georgia","30015","United States of America"
"309","350","Canal Walk","Indianapolis","Indiana","46202","United States of America"
"310","House Number Not Found","Street Not Found","Sliders","Virginia","Postcode Not Found","United States of America"
"311","150","Greenwich Street","New York City","New York","10007","United States of America"
"312","House Number Not Found","Street Not Found","Santee","California","92071-4417","United States of America"
"313","House Number Not Found","Street Not Found","Oakville","Connecticut","06795","United States of America"
"314","House Number Not Found","Street Not Found","Kansas City","Missouri","64106","United States of America"
"315","700","5th Avenue","Seattle","Washington","98104","United States of America"
"316","House Number Not Found","Street Not Found","Beaumont","Texas","77702","United States of America"
"317","House Number Not Found","Street Not Found","City Not Found","State Not Found","Postcode Not Found","Country Not Found"
"318","House Number Not Found","Street Not Found","Oceanside","California","92054","United States of America"
"319","House Number Not Found","Street Not Found","Imperial Beach","California","91932","United States of America"
"320","House Number Not Found","Boulevard De Maisonneuve Ouest","Montreal","Quebec","H3A 3L4","Canada"
"321","House Number Not Found","Street Not Found","Mooresville","North Carolina","28115","United States of America"
"322","House Number Not Found","Street Not Found","Plumsted Township","New Jersey","08533","United States of America"
"323","150","Greenwich Street","New York City","New York","10007","United States of America"
"324","House Number Not Found","Street Not Found","Reading","England","RG4 7SY","United Kingdom"
"325","818","Broadway","Redwood City","California","94063","United States of America"
"326","House Number Not Found","Street Not Found","City Not Found","State Not Found","Postcode Not Found","Country Not Found"
"327","150","Greenwich Street","New York City","New York","10007","United States of America"
"328","House Number Not Found","Street Not Found","Lynchburg","Virginia","24501","United States of America"
"329","House Number Not Found","Street Not Found","Thurmont","Maryland","21788","United States of America"
"330","House Number Not Found","Street Not Found","Philadelphia","Pennsylvania","19102","United States of America"
"331","House Number Not Found","Street Not Found","Philadelphia","Pennsylvania","19102","United States of America"
"332","House Number Not Found","Hood Street","Chambersburg","Pennsylvania","17201","United States of America"
"333","House Number Not Found","Street Not Found","City Not Found","State Not Found","Postcode Not Found","Country Not Found"
"334","1635","Farrington Road","Bells","North Carolina","27523","United States of America"
"335","House Number Not Found","Street Not Found","Kansas City","Missouri","64106","United States of America"
"336","House Number Not Found","Koikawa-suji","Kobe","Hyogo Prefecture","650-0037","Japan"
"337","411","South Houston Street","Dallas","Texas","75202","United States of America"
"338","House Number Not Found","Wyckoff Avenue","New York City","New York","11385","United States of America"
"339","House Number Not Found","Street Not Found","Sussex","Wisconsin","53089","United States of America"
"340","House Number Not Found","Street Not Found","New Orleans","Louisiana","70012","United States of America"
"341","House Number Not Found","Street Not Found","Baltimore","Maryland","21202","United States of America"
"342","House Number Not Found","Street Not Found","Plumsted Township","New Jersey","08533","United States of America"
"343","House Number Not Found","Street Not Found","City Not Found","Iowa","50141","United States of America"
"344","House Number Not Found","Street Not Found","San Diego","California","92101","United States of America"
"345","House Number Not Found","Street Not Found","Vinton","Virginia","24179","United States of America"
"346","House Number Not Found","Marine Park Drive Northeast","Salmon Arm","British Columbia","V1E 3M1","Canada"
"347","House Number Not Found","Street Not Found","Plumsted Township","New Jersey","08533","United States of America"
"348","House Number Not Found","Street Not Found","Cincinnati","Ohio","45202","United States of America"
"349","299","Chemin Markham","Mount Royal","Quebec","H3P 3E5","Canada"
"350","House Number Not Found","Broadway","London","England","SW1H 0BE","United Kingdom"
"351","House Number Not Found","Street Not Found","Rio de Janeiro","Rio de Janeiro","20060-050","Brazil"
"352","House Number Not Found","Street Not Found","Rippey","Iowa","50235","United States of America"
"353","House Number Not Found","Street Not Found","Rio de Janeiro","Rio de Janeiro","20060-050","Brazil"
"354","11","Street Not Found","Skórka","Lódz Voivodeship","95-045","Poland"
"355","1392","Atlantic Avenue","New York City","New York","11216","United States of America"
"356","House Number Not Found","North Main Street","City of Gainesville Municipal Boundaries","Florida","32601","United States of America"
"357","House Number Not Found","Street Not Found","Grapevine","Texas","75261","United States of America"
"358","7541","18th Avenue Northwest","Seattle","Washington","98117","United States of America"
"359","House Number Not Found","Street Not Found","Toronto","Ontario","M5J 1S9","Canada"
"360","House Number Not Found","Street Not Found","Buffalo","New York","14202","United States of America"
"361","House Number Not Found","Edgewater Drive","Fairview Shores","Florida","32804","United States of America"
"362","House Number Not Found","Street Not Found","West Liberty","Ohio","Postcode Not Found","United States of America"
"363","House Number Not Found","Street Not Found","Baltimore","Maryland","21202","United States of America"
"364","House Number Not Found","North Acoma Boulevard","Lake Havasu City","Arizona","86406","United States of America"
"365","House Number Not Found","Street Not Found","City Not Found","State Not Found","Postcode Not Found","Country Not Found"
"366","House Number Not Found","Street Not Found","St. Louis","Missouri","63113","United States of America"
"367","729","Avenida Assis Chateaubriand","Belo Horizonte","Minas Gerais","30150-101","Brazil"
"368","House Number Not Found","Street Not Found","San Diego","California","92101","United States of America"
"369","House Number Not Found","Street Not Found","Jefferson","Kansas","67340","United States of America"
"370","House Number Not Found","Mawdsley Street","Manchester","England","M3 4JP","United Kingdom"
"371","House Number Not Found","Street Not Found","Houston","Texas","77020","United States of America"
"372","House Number Not Found","Street Not Found","Carlsbad","California","92008","United States of America"
"373","House Number Not Found","Street Not Found","Del Mar","California","92014","United States of America"
"374","House Number Not Found","Street Not Found","San Diego","California","CA 92128","United States of America"
"375","House Number Not Found","Street Not Found","Fresno","California","93702","United States of America"
"376","House Number Not Found","Street Not Found","La Mesa","California","91945","United States of America"
"377","House Number Not Found","Street Not Found","San Diego","California","92037-4291","United States of America"
"378","House Number Not Found","Street Not Found","Encinitas","California","92007","United States of America"
"379","619","Alice Street","Ramona","California","92065","United States of America"
"380","House Number Not Found","Street Not Found","Coronado","California","92135","United States of America"
"381","House Number Not Found","Street Not Found","Poway","California","92064","United States of America"
"382","House Number Not Found","Street Not Found","City Not Found","State Not Found","Postcode Not Found","Country Not Found"
"383","House Number Not Found","Bayview Avenue","Port Washington","New York","11050","United States of America"
"384","House Number Not Found","Street Not Found","Chanute","Kansas","66720","United States of America"
"385","500","East Main Street","Mechanicsburg","Pennsylvania","17055","United States of America"
"386","House Number Not Found","Street Not Found","City Not Found","North Carolina","27513-4997","United States of America"
"387","House Number Not Found","Street Not Found","City Not Found","State Not Found","Postcode Not Found","Country Not Found"
"388","House Number Not Found","Street Not Found","City Not Found","State Not Found","Postcode Not Found","Country Not Found"
"389","House Number Not Found","Street Not Found","Fort Wayne","Indiana","46802","United States of America"
"390","27","Catoonah Street","Ridgefield","Connecticut","06867","United States of America"
"391","House Number Not Found","Street Not Found","Wichita","Kansas","Postcode Not Found","United States of America"
"392","House Number Not Found","Street Not Found","Mukdahan","Mukdahan Province","49000","Thailand"
"393","House Number Not Found","South Oak Street","Roanoke","Texas","76262","United States of America"
"394","House Number Not Found","Street Not Found","Garden Valley","California","95633","United States of America"
"395","1","Federal Street","Boston","Massachusetts","02110-1301","United States of America"
"396","House Number Not Found","West Side Highway","Sacramento","California","95814","United States of America"
"397","610","Locust Street","Owensboro","Kentucky","42301","United States of America"
"398","House Number Not Found","Street Not Found","Walnut Creek","California","94596","United States of America"
"399","House Number Not Found","Street Not Found","Jackson","Tennessee","38301","United States of America"
"400","House Number Not Found","Street Not Found","Jefferson","Kansas","67340","United States of America"
"401","House Number Not Found","Backlot Drive","Orlando","Florida","32819-7827","United States of America"
"402","150","Greenwich Street","New York City","New York","10007","United States of America"
"403","House Number Not Found","Castlereagh St Cycleway (south)","Sydney","New South Wales","2000","Australia"
"404","House Number Not Found","Street Not Found","Rugby","England","CV23 1AL","United Kingdom"
"405","House Number Not Found","Street Not Found","Rapid City","South Dakota","55701","United States of America"
"406","House Number Not Found","Street Not Found","Jefferson","Kansas","67340","United States of America"
"407","350","Canal Walk","Indianapolis","Indiana","46202","United States of America"
"408","122","Waiohine Gorge Road","City Not Found","Wellington","Postcode Not Found","New Zealand"
"409","House Number Not Found","Street Not Found","Norwich","England","NR1 3HF","United Kingdom"
"410","House Number Not Found","Street Not Found","Alameda","California","94501","United States of America"
"411","House Number Not Found","Street Not Found","Winhall","Vermont","05515","United States of America"
"412","7451","Bradburn Boulevard","Westminster","Colorado","80030","United States of America"
"413","133","South 3rd Street","Louisville","Kentucky","40202","United States of America"
"414","150","Greenwich Street","New York City","New York","10007","United States of America"
"415","House Number Not Found","Street Not Found","City Not Found","State Not Found","Postcode Not Found","Country Not Found"
"416","House Number Not Found","Street Not Found","Austin","Texas","78753","United States of America"
"417","House Number Not Found","Grand Avenue","Des Moines","Iowa","50309","United States of America"
"418","1635","Farrington Road","Bells","North Carolina","27523","United States of America"
"419","House Number Not Found","Morris Park Avenue","New York City","New York","10461","United States of America"
"420","420","South Howes Street","Fort Collins","Colorado","80521-2871","United States of America"
"421","House Number Not Found","Hurricane Creek Road","Hurricane","West Virginia","25526","United States of America"
"422","3851","Seagrape Drive","San Pedro Town","Belize District","Postcode Not Found","Belize"
"423","House Number Not Found","Street Not Found","City Not Found","North Carolina","Postcode Not Found","United States of America"
"424","150","Greenwich Street","New York City","New York","10007","United States of America"
"425","House Number Not Found","Street Not Found","City Not Found","State Not Found","Postcode Not Found","Country Not Found"
"426","House Number Not Found","Street Not Found","Houston","Texas","77003:77007","United States of America"
"427","House Number Not Found","Street Not Found","La Mesa","California","91941","United States of America"
"428","House Number Not Found","Street Not Found","San Francisco","California","94103","United States of America"
"429","House Number Not Found","Enterprise Drive","Bird in Hand","Pennsylvania","17576","United States of America"
"430","House Number Not Found","Street Not Found","Lincoln","Nebraska","68502","United States of America"
"431","House Number Not Found","Street Not Found","Los Angeles","California","90012","United States of America"
"432","House Number Not Found","Street Not Found","Los Angeles","California","90012","United States of America"
"433","House Number Not Found","Street Not Found","Highland","Indiana","46322","United States of America"
"434","House Number Not Found","Street Not Found","Neodesha","Kansas","66757","United States of America"
"435","House Number Not Found","Street Not Found","Coffeyville","Kansas","67337","United States of America"
"436","151","North Franklin Street","Chicago","Illinois","60606","United States of America"
"437","House Number Not Found","Street Not Found","City Not Found","State Not Found","Postcode Not Found","Country Not Found"
"438","House Number Not Found","Street Not Found","Le Hunt","Kansas","67301","United States of America"
"439","House Number Not Found","Street Not Found","Miami","Florida","33131","United States of America"
"440","House Number Not Found","Street Not Found","Pittsburgh","Pennsylvania","15219","United States of America"
"441","House Number Not Found","Street Not Found","Bremen","Free and Hanseatic City of Bremen","28195","Germany"
"442","House Number Not Found","Street Not Found","Hilliard","Ohio","43026","United States of America"
"443","House Number Not Found","Street Not Found","Independence","Kansas","67301","United States of America"
"444","House Number Not Found","Street Not Found","City Not Found","Iowa","50141","United States of America"
"445","House Number Not Found","Street Not Found","Milton","Georgia","30004","United States of America"
"446","House Number Not Found","Street Not Found","Lima","Ohio","45801","United States of America"
"447","House Number Not Found","Street Not Found","Georgetown","Delaware","19947","United States of America"
"448","House Number Not Found","Street Not Found","Jefferson","Kansas","67340","United States of America"
"449","House Number Not Found","Street Not Found","Grapevine","Texas","76051","United States of America"
"450","House Number Not Found","Street Not Found","Rugby","England","CV23 1AL","United Kingdom"
"451","House Number Not Found","Street Not Found","Myrtle Beach","South Carolina","29577","United States of America"
"452","House Number Not Found","Street Not Found","City Not Found","State Not Found","Postcode Not Found","Country Not Found"
"453","House Number Not Found","Street Not Found","Pittsburgh","Pennsylvania","15219","United States of America"
"454","House Number Not Found","Street Not Found","St. Albert","Alberta","T8N 5C9","Canada"
"455","House Number Not Found","Street Not Found","Fresno","California","93702","United States of America"
"456","House Number Not Found","Street Not Found","Normal","Illinois","61790","United States of America"
"457","House Number Not Found","Street Not Found","Silver City","New Mexico","88061","United States of America"
"458","1304","Indiana Avenue","Alamogordo","New Mexico","88310-7110","United States of America"
"459","House Number Not Found","Street Not Found","Ruidoso","New Mexico","88355","United States of America"
"460","House Number Not Found","Street Not Found","Carlsbad","New Mexico","88220","United States of America"
"461","House Number Not Found","Street Not Found","Farmington","New Mexico","87401","United States of America"
"462","150","Greenwich Street","New York City","New York","10007","United States of America"
"463","802","Galisteo Street","Santa Fe","New Mexico","87505","United States of America"
"464","99 West","South Street","Orlando","Florida","32801","United States of America"
"465","House Number Not Found","Street Not Found","Waitemata","Auckland","1001","New Zealand"
"466","House Number Not Found","Street Not Found","Kentland","Indiana","47951","United States of America"
"467","5712 Hudson ave","58th Street","West New York","New Jersey","07093","United States of America"
"468","House Number Not Found","Street Not Found","Springfield","Missouri","65804","United States of America"
"469","22","East Leigh Street","Richmond City","Virginia","23219","United States of America"
"470","House Number Not Found","Street Not Found","Burbank","California","91504","United States of America"
"471","House Number Not Found","Street Not Found","Jersey Village","Texas","77040","United States of America"
"472","House Number Not Found","Street Not Found","Los Angeles","California","90012","United States of America"
"473","House Number Not Found","Street Not Found","Franklin","Kentucky","42134","United States of America"
"474","House Number Not Found","Street Not Found","Ithaca","New York","14850","United States of America"
"475","House Number Not Found","Street Not Found","Coventry","England","CV1 3AD","United Kingdom"
"476","House Number Not Found","Doubletree Road","Oak Park","California","91377","United States of America"
"477","House Number Not Found","Street Not Found","San Francisco","California","94103","United States of America"
"478","House Number Not Found","Street Not Found","Albuquerque","New Mexico","87102","United States of America"
"479","700","5th Avenue","Seattle","Washington","98104","United States of America"
"480","House Number Not Found","Street Not Found","Leon","Wisconsin","54656","United States of America"
"481","House Number Not Found","Street Not Found","Baltimore","Maryland","21202","United States of America"
"482","151","North Franklin Street","Chicago","Illinois","60606","United States of America"
"483","House Number Not Found","Street Not Found","West Liberty","Ohio","Postcode Not Found","United States of America"
"484","House Number Not Found","Street Not Found","Fishers","Indiana","46038","United States of America"
"485","House Number Not Found","Street Not Found","Clinton","Maryland","20735","United States of America"
"486","22","East Leigh Street","Richmond City","Virginia","23219","United States of America"
"487","House Number Not Found","Street Not Found","City Not Found","State Not Found","Postcode Not Found","Country Not Found"
"488","House Number Not Found","Street Not Found","Jefferson","Kansas","67340","United States of America"
"489","House Number Not Found","Street Not Found","Monticello","Georgia","Postcode Not Found","United States of America"
"490","House Number Not Found","Street Not Found","City Not Found","State Not Found","Postcode Not Found","Country Not Found"
"491","House Number Not Found","Street Not Found","City Not Found","State Not Found","Postcode Not Found","Country Not Found"
"492","House Number Not Found","Street Not Found","Sydney","New South Wales","2145","Australia"
"493","1392","Atlantic Avenue","New York City","New York","11216","United States of America"
"494","8301","Lemont Road","Darien","Illinois","60561","United States of America"
"495","House Number Not Found","Street Not Found","City Not Found","State Not Found","Postcode Not Found","Country Not Found"
"496","150","Greenwich Street","New York City","New York","10007","United States of America"
"497","House Number Not Found","Street Not Found","Toronto","Ontario","M5J 1S9","Canada"
"498","House Number Not Found","Street Not Found","Washington","District of Columbia","20420","United States of America"
"499","House Number Not Found","East 3rd Street","Anaconda","Montana","Postcode Not Found","United States of America"
"500","House Number Not Found","Street Not Found","Pretoria","Gauteng","0028","South Africa"
"501","House Number Not Found","Vine Street","Lafayette","Louisiana","70501","United States of America"
"502","House Number Not Found","Street Not Found","City Not Found","State Not Found","Postcode Not Found","Country Not Found"
"503","180","Euclid Avenue","Cleveland","Ohio","44113","United States of America"
"504","150","Greenwich Street","New York City","New York","10007","United States of America"
"505","House Number Not Found","Street Not Found","Petawawa","Ontario","K8H 1X6","Canada"
"506","150","Greenwich Street","New York City","New York","10007","United States of America"
"507","House Number Not Found","West Side Highway","Sacramento","California","95814","United States of America"
"508","House Number Not Found","Balmoral Road","Dumfries","Scotland","DG1 3BD","United Kingdom"
"509","House Number Not Found","Street Not Found","Raleigh","North Carolina","27603","United States of America"
"510","House Number Not Found","Street Not Found","Las Vegas","Nevada","89101","United States of America"
"511","House Number Not Found","Street Not Found","Big Run","West Virginia","26217","United States of America"
"512","House Number Not Found","Street Not Found","City Not Found","State Not Found","Postcode Not Found","Country Not Found"
"513","411","South Houston Street","Dallas","Texas","75202","United States of America"
"514","House Number Not Found","Street Not Found","Houston","Texas","77003:77007","United States of America"
"515","House Number Not Found","Street Not Found","Level Corner","Pennsylvania","17744","United States of America"
"516","House Number Not Found","Santa Barbara Street","Santa Barbara","California","93101","United States of America"
"517","House Number Not Found","Street Not Found","Andover","Massachusetts","01810","United States of America"
"518","House Number Not Found","Street Not Found","City Not Found","State Not Found","Postcode Not Found","Country Not Found"
"519","House Number Not Found","Castlereagh St Cycleway (south)","Sydney","New South Wales","2000","Australia"
"520","House Number Not Found","Ohlone Way","Emeryville","California","94608","United States of America"
"521","House Number Not Found","Street Not Found","Saint Lawrence","State Not Found","JE31LU","Jersey"
"522","House Number Not Found","Street Not Found","City Not Found","State Not Found","Postcode Not Found","Country Not Found"
"523","151","North Franklin Street","Chicago","Illinois","60606","United States of America"
"524","House Number Not Found","Street Not Found","Rugby","England","CV23 1AL","United Kingdom"
"525","House Number Not Found","Street Not Found","City Not Found","Utah","Postcode Not Found","United States of America"
"526","House Number Not Found","Street Not Found","Irvine","California","92616","United States of America"
"527","House Number Not Found","Street Not Found","Cape Town","Western Cape","8001","South Africa"
"528","42, 44","Carrer de Can Bruixa","Barcelona","Catalonia","08028","Spain"
"529","House Number Not Found","Street Not Found","City Not Found","California","93614","United States of America"
"530","House Number Not Found","Street Not Found","Nashville-Davidson","Tennessee","37219","United States of America"
"531","House Number Not Found","Street Not Found","Coffeyville","Kansas","67337","United States of America"
"532","House Number Not Found","Street Not Found","Baton Rouge","Louisiana","70802","United States of America"
"533","House Number Not Found","Street Not Found","New Orleans","Louisiana","70012","United States of America"
"534","House Number Not Found","Street Not Found","Harborough","England","Postcode Not Found","United Kingdom"
"535","House Number Not Found","Green Bay Road","Highwood","Illinois","60040","United States of America"
"536","18","Mehalkei HaMayim","Jerusalem","Jerusalem District","NO","Israel"
"537","House Number Not Found","Street Not Found","City Not Found","Mississippi","39759","United States of America"
"538","House Number Not Found","Sycamore Drive","Naperville","Illinois","60540","United States of America"
"539","House Number Not Found","Street Not Found","City Not Found","State Not Found","Postcode Not Found","Country Not Found"
"540","915","North Lamar Boulevard","Austin","Texas","78703","United States of America"
"541","House Number Not Found","Street Not Found","City Not Found","State Not Found","Postcode Not Found","Country Not Found"
"542","House Number Not Found","Street Not Found","Wildwood","Missouri","63038","United States of America"
"543","House Number Not Found","Street Not Found","City Not Found","State Not Found","Postcode Not Found","Country Not Found"
"544","House Number Not Found","Street Not Found","West Liberty","Ohio","Postcode Not Found","United States of America"
"545","House Number Not Found","Castle Meadow","Norwich","England","NR1 3DH","United Kingdom"
"546","10364","105 Street NW","Edmonton","Alberta","T5J 0C4","Canada"
"547","House Number Not Found","Street Not Found","Los Angeles","California","90012","United States of America"
"548","House Number Not Found","Street Not Found","Atlanta","Georgia","30312","United States of America"
"549","House Number Not Found","Street Not Found","Worcester","Massachusetts","MA01604","United States of America"
"550","309","East 11th Street","Austin","Texas","78701","United States of America"
"551","350","Canal Walk","Indianapolis","Indiana","46202","United States of America"
"552","700","5th Avenue","Seattle","Washington","98104","United States of America"
"553","House Number Not Found","Street Not Found","Adelaide","South Australia","5000","Australia"
"554","House Number Not Found","Street Not Found","Huntsville","Texas","Postcode Not Found","United States of America"
"555","House Number Not Found","Street Not Found","Saint Paul","Minnesota","55101","United States of America"
"556","House Number Not Found","Street Not Found","Sherwood","Arkansas","72116","United States of America"
"557","House Number Not Found","East Camelback Road","Scottsdale","Arizona","86251","United States of America"
"558","700","5th Avenue","Seattle","Washington","98104","United States of America"
"559","2345","College Avenue","Berkeley","California","94720-1076","United States of America"
"560","House Number Not Found","West Homer Street","Chicago","Illinois","690639","United States of America"
"561","House Number Not Found","Street Not Found","New Orleans","Louisiana","70012","United States of America"
"562","House Number Not Found","Street Not Found","Wild Peach Village","Texas","Postcode Not Found","United States of America"
"563","House Number Not Found","Hargrave Street","Winnipeg","Manitoba","R3A 0H7","Canada"
"564","700","5th Avenue","Seattle","Washington","98104","United States of America"
"565","1392","Atlantic Avenue","New York City","New York","11216","United States of America"
"566","915","North Lamar Boulevard","Austin","Texas","78703","United States of America"
"567","House Number Not Found","Street Not Found","City Not Found","State Not Found","Postcode Not Found","Country Not Found"
"568","10364","105 Street NW","Edmonton","Alberta","T5J 0C4","Canada"
"569","4125","Beaumont Road","East Lansing","Michigan","48910","United States of America"
"570","House Number Not Found","Street Not Found","Irvine","California","CA 92614","United States of America"
"571","House Number Not Found","Street Not Found","Las Vegas","Nevada","89101","United States of America"
"572","531","East Jackson Boulevard","Jonesborough","Tennessee","37659","United States of America"
"573","House Number Not Found","Street Not Found","Baton Rouge","Louisiana","70802","United States of America"
"574","House Number Not Found","Long Road","Chesterfield","Missouri","63005","United States of America"
"575","House Number Not Found","Street Not Found","Denton","Texas","76201","United States of America"
"576","House Number Not Found","Street Not Found","Monroe","North Carolina","28112","United States of America"
"577","House Number Not Found","Street Not Found","Los Angeles","California","90066","United States of America"
"578","House Number Not Found","Street Not Found","Fernley","Nevada","89408","United States of America"
"579","House Number Not Found","Street Not Found","Wichita","Kansas","67202","United States of America"
"580","House Number Not Found","Street Not Found","City Not Found","State Not Found","Postcode Not Found","Country Not Found"
"581","House Number Not Found","Austin Street","Richmond","Texas","44769","United States of America"
"582","House Number Not Found","Street Not Found","South Holland","Illinois","60473","United States of America"
"583","House Number Not Found","Dizengoff","Tel Aviv-Yafo","Tel Aviv District","NO","Israel"
"584","House Number Not Found","Street Not Found","Rugby","England","CV23 1AL","United Kingdom"
"585","House Number Not Found","Street Not Found","City Not Found","State Not Found","Postcode Not Found","Country Not Found"
"586","House Number Not Found","Street Not Found","Newport Beach","California","92658","United States of America"
"587","House Number Not Found","Street Not Found","North Guilford","Maine","Postcode Not Found","United States of America"
"588","House Number Not Found","Street Not Found","Shreveport","Louisiana","71101","United States of America"
"589","House Number Not Found","Street Not Found","City Not Found","State Not Found","Postcode Not Found","Country Not Found"
"590","House Number Not Found","Street Not Found","Waitemata","Auckland","1001","New Zealand"
"591","1","South Main Street","Salinas","California","93901","United States of America"
"592","House Number Not Found","Street Not Found","City Not Found","State Not Found","Postcode Not Found","Country Not Found"
"593","7","Truganini Street","Burnie","Tasmania","7320","Australia"
"594","House Number Not Found","Hill Street","Rocky Mount","North Carolina","27801","United States of America"
"595","House Number Not Found","Street Not Found","Pigeon Forge","Tennessee","37863","United States of America"
"596","House Number Not Found","Street Not Found","City Not Found","State Not Found","Postcode Not Found","Country Not Found"
"597","House Number Not Found","Street Not Found","Georgetown","Kentucky","40324","United States of America"
"598","House Number Not Found","Street Not Found","New Orleans","Louisiana","70012","United States of America"
"599","House Number Not Found","Victoria Bridge","Gloucester","England","GL1 2EW","United Kingdom"
"600","House Number Not Found","Street Not Found","Mifflin","Ohio","Postcode Not Found","United States of America"
"601","House Number Not Found","Street Not Found","St. Louis","Missouri","63102-1102","United States of America"
"602","House Number Not Found","Street Not Found","Yukon","Oklahoma","73099","United States of America"
"603","House Number Not Found","Street Not Found","City Not Found","State Not Found","Postcode Not Found","Country Not Found"
"604","House Number Not Found","Street Not Found","Loudonville","Ohio","44842","United States of America"
"605","House Number Not Found","Street Not Found","Washington","District of Columbia","20420","United States of America"
"606","99 West","South Street","Orlando","Florida","32801","United States of America"
"607","House Number Not Found","Street Not Found","Timberlea","Nova Scotia","B4B 0M3","Canada"
"608","House Number Not Found","Street Not Found","Paris","Ile-de-France","75015","France"
"609","House Number Not Found","Street Not Found","City Not Found","Wisconsin","Postcode Not Found","United States of America"
"610","180","Euclid Avenue","Cleveland","Ohio","44113","United States of America"
"611","House Number Not Found","Street Not Found","Columbus","Ohio","43216","United States of America"
"612","House Number Not Found","Broadway","London","England","SW1H 0BE","United Kingdom"
"613","House Number Not Found","Fowler Drive","Pueblo","Colorado","81001","United States of America"
"614","House Number Not Found","Street Not Found","São Miguel do Rio Torto e Rossio ao Sul do Tejo","Centro","2205-507","Portugal"
"615","House Number Not Found","Street Not Found","Vaughan","Ontario","L4K 5R3","Canada"
"616","House Number Not Found","Street Not Found","Level Corner","Pennsylvania","17744","United States of America"
"617","House Number Not Found","West Hopkins Street","San Marcos","Texas","78666","United States of America"
"618","House Number Not Found","Street Not Found","White City","Oregon","97503","United States of America"
"619","House Number Not Found","Street Not Found","Denmark","Maine","04022","United States of America"
"620","House Number Not Found","Street Not Found","Durham","North Carolina","27701","United States of America"
"621","House Number Not Found","Broadway","London","England","SW1H 0BE","United Kingdom"
"622","House Number Not Found","Trinity Drive","Los Alamos","New Mexico","87544","United States of America"
"623","House Number Not Found","Street Not Found","Germantown","Maryland","20874","United States of America"
"624","House Number Not Found","Street Not Found","Oklahoma City","Oklahoma","73102:73104","United States of America"
"625","House Number Not Found","Street Not Found","Baton Rouge","Louisiana","70802","United States of America"
"626","House Number Not Found","Street Not Found","City Not Found","State Not Found","Postcode Not Found","Country Not Found"
"627","House Number Not Found","Street Not Found","Toronto","Ontario","M5J 1S9","Canada"
"628","House Number Not Found","East Lee Avenue","Sapulpa","Oklahoma","74066","United States of America"
"629","House Number Not Found","Street Not Found","Toronto","Ontario","M5J 1S9","Canada"
"630","2001","Bloomington Avenue South","Minneapolis","Minnesota","55404","United States of America"
"631","House Number Not Found","Street Not Found","San Francisco","California","94103","United States of America"
"632","53","Bothwell Street","Glasgow","Scotland","G","United Kingdom"
"633","House Number Not Found","Street Not Found","Shreveport","Louisiana","71101","United States of America"
"634","House Number Not Found","Street Not Found","Norfolk","Virginia","23510","United States of America"
"635","House Number Not Found","Street Not Found","City Not Found","State Not Found","Postcode Not Found","Country Not Found"
"636","House Number Not Found","Street Not Found","City Not Found","State Not Found","Postcode Not Found","Country Not Found"
"637","House Number Not Found","Street Not Found","Atlanta","Georgia","30303","United States of America"
"638","House Number Not Found","Street Not Found","Plumsted Township","New Jersey","08533","United States of America"
"639","House Number Not Found","Street Not Found","Plumsted Township","New Jersey","08533","United States of America"
"640","House Number Not Found","Street Not Found","Igbobi","Lagos","YABA","Nigeria"
"641","House Number Not Found","Street Not Found","Shreveport","Louisiana","71101","United States of America"
"642","House Number Not Found","Street Not Found","Abington Township","Pennsylvania","19046","United States of America"
"643","House Number Not Found","Street Not Found","Stephenville","Texas","76401","United States of America"
"644","House Number Not Found","Street Not Found","Toronto","Ontario","M5J 1S9","Canada"
"645","99 West","South Street","Orlando","Florida","32801","United States of America"
"646","House Number Not Found","Street Not Found","Stephenville","Texas","76401","United States of America"
"647","House Number Not Found","Street Not Found","Town of Clay","New York","13041","United States of America"
"648","465","MacLaren Street","Ottawa","Ontario","K2P 0M7","Canada"
"649","1","Federal Street","Boston","Massachusetts","02110-1301","United States of America"
"650","House Number Not Found","Street Not Found","Elkhart","Indiana","46516","United States of America"
"651","House Number Not Found","Street Not Found","Toronto","Ontario","M5J 1S9","Canada"
"652","House Number Not Found","Street Not Found","Copan","Oklahoma","74022","United States of America"
"653","House Number Not Found","Wilson Avenue","Bellmore","New York","11710","United States of America"
"654","House Number Not Found","Street Not Found","Bryan","Texas","77801","United States of America"
"655","909","Broadway","New York City","New York","10010","United States of America"
"656","309","East 11th Street","Austin","Texas","78701","United States of America"
"657","House Number Not Found","Street Not Found","San Diego","California","92101","United States of America"
"658","150","Greenwich Street","New York City","New York","10007","United States of America"
"659","27460","Pacific Coast Highway","Malibu","California","90265","United States of America"
"660","House Number Not Found","Broadway","London","England","SW1H 0BE","United Kingdom"
"661","House Number Not Found","Street Not Found","City Not Found","State Not Found","Postcode Not Found","Country Not Found"
"662","273","Columbus Avenue","New York City","New York","10023","United States of America"
"663","House Number Not Found","Street Not Found","Sauk Centre","Minnesota","56378","United States of America"
"664","House Number Not Found","Street Not Found","Morrow","Ohio","45152","United States of America"
"665","House Number Not Found","Street Not Found","City Not Found","State Not Found","Postcode Not Found","Country Not Found"
"666","House Number Not Found","Street Not Found","Huntington Beach","California","CA 92646","United States of America"
"667","House Number Not Found","Street Not Found","City Not Found","State Not Found","Postcode Not Found","Country Not Found"
"668","House Number Not Found","Street Not Found","Shawnee","Oklahoma","74801","United States of America"
"669","House Number Not Found","Street Not Found","Cincinnati","Ohio","45202","United States of America"
"670","House Number Not Found","Street Not Found","Brownsville","Texas","78520:78521","United States of America"
"671","House Number Not Found","Street Not Found","City Not Found","State Not Found","Postcode Not Found","Country Not Found"
"672","House Number Not Found","Street Not Found","Tanager Forest","Maryland","21108","United States of America"
"673","House Number Not Found","Street Not Found","Houston","Texas","77003:77007","United States of America"
"674","House Number Not Found","Street Not Found","City Not Found","State Not Found","Postcode Not Found","Country Not Found"
"675","House Number Not Found","Street Not Found","City Not Found","State Not Found","Postcode Not Found","Country Not Found"
"676","House Number Not Found","Street Not Found","St. Louis","Missouri","63102-1102","United States of America"
"677","House Number Not Found","Street Not Found","Sportsmen Acres Community","Oklahoma","Postcode Not Found","United States of America"
"678","House Number Not Found","Street Not Found","Sliders","Virginia","Postcode Not Found","United States of America"
"679","House Number Not Found","Street Not Found","Les Bons Villers","Wallonia","6211","Belgium"
"680","15361","State Route 207","Coles Corner","Washington","98826","United States of America"
"681","House Number Not Found","Street Not Found","Jefferson","Kansas","67340","United States of America"
"682","House Number Not Found","Griffin Alley","Memphis","Tennessee","38126","United States of America"
"683","3741","West Chester Pike","Newtown Township","Pennsylvania","19073","United States of America"
"684","House Number Not Found","Campus Drive","Moon Township","Pennsylvania","15046","United States of America"
"685","House Number Not Found","Street Not Found","City Not Found","State Not Found","Postcode Not Found","Country Not Found"
"686","House Number Not Found","Street Not Found","Oakville","Connecticut","06795","United States of America"
"687","House Number Not Found","Broadway","London","England","SW1H 0BE","United Kingdom"
"688","House Number Not Found","Street Not Found","City Not Found","Louisiana","71362","United States of America"
"689","House Number Not Found","Street Not Found","Springdale","Arkansas","72764","United States of America"
"690","House Number Not Found","Street Not Found","Buffalo","New York","14202","United States of America"
"691","House Number Not Found","Brookside Circle","Greenwood","South Carolina","29648","United States of America"
"692","House Number Not Found","Street Not Found","City Not Found","Victoria","3002","Australia"
"693","House Number Not Found","Street Not Found","Shreveport","Louisiana","71101","United States of America"
"694","420","South Howes Street","Fort Collins","Colorado","80521-2871","United States of America"
"695","House Number Not Found","Street Not Found","City Not Found","Louisiana","71362","United States of America"
"696","House Number Not Found","Street Not Found","Jefferson","Kansas","67340","United States of America"
"697","House Number Not Found","Street Not Found","City Not Found","State Not Found","Postcode Not Found","Country Not Found"
"698","House Number Not Found","Flagpole Plaza","New York City","Liberty Island","10004","United States of America"
"699","House Number Not Found","Street Not Found","Houston","Texas","77002","United States of America"
"700","House Number Not Found","Street Not Found","Igbobi","Lagos","YABA","Nigeria"
"701","House Number Not Found","Street Not Found","City Not Found","Oklahoma","Postcode Not Found","United States of America"
"702","House Number Not Found","Dixie Highway","Groveland Township","Michigan","48350:48442","United States of America"
"703","House Number Not Found","South High School","Columbus","Kansas","66725","United States of America"
"704","House Number Not Found","Street Not Found","Adelaide","South Australia","5000","Australia"
"705","309","East Main Street","Lexington","South Carolina","29072","United States of America"
"706","House Number Not Found","Street Not Found","Los Angeles","California","90012","United States of America"
"707","House Number Not Found","Street Not Found","Jefferson","Kansas","67340","United States of America"
"708","House Number Not Found","Street Not Found","City Not Found","State Not Found","Postcode Not Found","Country Not Found"
"709","House Number Not Found","Sumter Street","Columbia","South Carolina","29201","United States of America"
"710","House Number Not Found","Street Not Found","Costa Mesa","California","92627","United States of America"
"711","House Number Not Found","Street Not Found","Jupiter","Florida","33477","United States of America"
"712","House Number Not Found","Falls Avenue","Twin Falls","Idaho","83301","United States of America"
"713","House Number Not Found","Street Not Found","Los Angeles","California","90012","United States of America"
"714","55","Webster Avenue","New Rochelle","New York","10801","United States of America"
"715","House Number Not Found","Street Not Found","Kinsey","Alabama","36303","United States of America"
"716","House Number Not Found","Street Not Found","Fresno","California","93702","United States of America"
"717","1392","Atlantic Avenue","New York City","New York","11216","United States of America"
"718","House Number Not Found","Street Not Found","City Not Found","State Not Found","Postcode Not Found","Country Not Found"
"719","House Number Not Found","Street Not Found","Henderson","Nevada","NV 89074","United States of America"
"720","House Number Not Found","Halcyon Place","Concord","New Hampshire","03302","United States of America"
"721","House Number Not Found","Street Not Found","Hamilton","Ontario","L0R 2H6","Canada"
"722","House Number Not Found","Street Not Found","Fresno","California","93702","United States of America"
"723","700","5th Avenue","Seattle","Washington","98104","United States of America"
"724","House Number Not Found","Street Not Found","Lincoln","Arkansas","72744","United States of America"
"725","117","South Ashley Street","Ann Arbor","Michigan","48104","United States of America"
"726","House Number Not Found","Street Not Found","Plumsted Township","New Jersey","08533","United States of America"
"727","House Number Not Found","Street Not Found","Rochester","New York","14604","United States of America"
"728","House Number Not Found","Baltimore Street","Gettysburg","Pennsylvania","17325","United States of America"
"729","House Number Not Found","Street Not Found","Patterson","California","99536","United States of America"
"730","House Number Not Found","Street Not Found","Soest","Utrecht","3769AK","The Netherlands"
"731","House Number Not Found","Street Not Found","West Liberty","Ohio","Postcode Not Found","United States of America"
"732","71","Liberty Street","Newburgh","New York","12550","United States of America"
"733","House Number Not Found","Street Not Found","Jefferson","Kansas","67340","United States of America"
"734","House Number Not Found","Street Not Found","Chehalis","Washington","98532-1926","United States of America"
"735","House Number Not Found","Street Not Found","Adelaide","South Australia","5000","Australia"
"736","House Number Not Found","Street Not Found","Bartlesville","Oklahoma","74006","United States of America"
"737","House Number Not Found","Street Not Found","Plumsted Township","New Jersey","08533","United States of America"
"738","717","Emerson Street","Evanston","Illinois","60201","United States of America"
"739","House Number Not Found","Broadway","London","England","SW1H 0BE","United Kingdom"
"740","House Number Not Found","Broadway","London","England","SW1H 0BE","United Kingdom"
"741","House Number Not Found","Street Not Found","City Not Found","New York","12823","United States of America"
"742","House Number Not Found","Street Not Found","Oakville","Connecticut","06795","United States of America"
"743","House Number Not Found","Street Not Found","Boca Raton","Florida","33486","United States of America"
"744","150","Greenwich Street","New York City","New York","10007","United States of America"
"745","House Number Not Found","Rukkedalsvegen","City Not Found","Buskerud","Postcode Not Found","Norway"
"746","1900","Commerce Street","Tacoma","Washington","98402","United States of America"
"747","House Number Not Found","Street Not Found","Columbus","Ohio","43216","United States of America"
"748","House Number Not Found","Street Not Found","City Not Found","State Not Found","Postcode Not Found","Country Not Found"
"749","House Number Not Found","Street Not Found","Sliders","Virginia","Postcode Not Found","United States of America"
"750","House Number Not Found","Street Not Found","San Diego","California","92101","United States of America"
"751","House Number Not Found","Street Not Found","Bellville","Texas","77418","United States of America"
"752","200","East University Drive","Mesa","Arizona","85201","United States of America"
"753","House Number Not Found","Street Not Found","City Not Found","State Not Found","Postcode Not Found","Country Not Found"
"754","House Number Not Found","Street Not Found","Los Angeles","California","90012","United States of America"
"755","House Number Not Found","Broadway","London","England","SW1H 0BE","United Kingdom"
"756","House Number Not Found","Street Not Found","City Not Found","Georgia","Postcode Not Found","United States of America"
"757","House Number Not Found","Street Not Found","McKinney","Texas","75070","United States of America"
"758","House Number Not Found","Santa Barbara Street","Santa Barbara","California","93101","United States of America"
"759","House Number Not Found","Street Not Found","Upper Darby","Pennsylvania","19026","United States of America"
"760","House Number Not Found","Street Not Found","San Diego","California","92101","United States of America"
"761","House Number Not Found","Street Not Found","West Liberty","Ohio","Postcode Not Found","United States of America"
"762","House Number Not Found","Street Not Found","City Not Found","State Not Found","Postcode Not Found","Country Not Found"
"763","865","6th Avenue","New York City","New York","10001","United States of America"
"764","150","Greenwich Street","New York City","New York","10007","United States of America"
"765","House Number Not Found","Street Not Found","San Diego","California","92101","United States of America"
"766","House Number Not Found","Street Not Found","Le Hunt","Kansas","67301","United States of America"
"767","150","Greenwich Street","New York City","New York","10007","United States of America"
"768","House Number Not Found","Street Not Found","City Not Found","State Not Found","Postcode Not Found","Country Not Found"
"769","69","Aripo Road","Aripo","Tunapuna-Piarco","0000","Trinidad and Tobago"
"770","309","East 11th Street","Austin","Texas","78701","United States of America"
"771","House Number Not Found","Castlereagh St Cycleway (south)","Sydney","New South Wales","2000","Australia"
"772","House Number Not Found","Arlegui","Quiapo","State Not Found","1001","Philippines"
"773","3741","West Chester Pike","Newtown Township","Pennsylvania","19073","United States of America"
"774","House Number Not Found","Street Not Found","Hazel Dell","Washington","98665","United States of America"
"775","House Number Not Found","Metric Boulevard","Austin","Texas","78728","United States of America"
"776","1305","North Broadway Street","Milwaukee","Wisconsin","53202","United States of America"
"777","House Number Not Found","Street Not Found","Harlow","England","CM20 2JS","United Kingdom"
"778","House Number Not Found","Street Not Found","Long Beach","California","90802","United States of America"
"779","House Number Not Found","Street Not Found","Iowa City","Iowa","52240","United States of America"
"780","House Number Not Found","Street Not Found","Hillsboro","Oregon","97124","United States of America"
"781","House Number Not Found","West Amarillo Boulevard","Amarillo","Texas","79101","United States of America"
"782","House Number Not Found","Street Not Found","Jefferson","Kansas","67340","United States of America"
"783","House Number Not Found","Linsley Street","North Haven","Connecticut","06473","United States of America"
"784","House Number Not Found","Street Not Found","Angleton","Texas","77515","United States of America"
"785","House Number Not Found","Street Not Found","Leavenworth","Kansas","66027","United States of America"
"786","House Number Not Found","Cherry Street","Philadelphia","Pennsylvania","19103","United States of America"
"787","House Number Not Found","Street Not Found","City Not Found","Louisiana","71362","United States of America"
"788","House Number Not Found","Street Not Found","Las Cruces","New Mexico","88013-3006","United States of America"
"789","House Number Not Found","Street Not Found","City Not Found","State Not Found","Postcode Not Found","Country Not Found"
"790","House Number Not Found","Street Not Found","Fort Worth","Texas","76102","United States of America"
"791","House Number Not Found","Chramcówki","Zakopane","Lesser Poland Voivodeship","34-500","Poland"
"792","House Number Not Found","Street Not Found","San Diego","California","92101","United States of America"
"793","House Number Not Found","Street Not Found","Inverness","Scotland","IV2 4BH","United Kingdom"
"794","House Number Not Found","Footpath","Victoria","Texas","77901","United States of America"
"795","House Number Not Found","Chamberlain Avenue","Totowa","New Jersey","07502","United States of America"
"796","House Number Not Found","Grange Central","Telford","England","TF3 4DA","United Kingdom"
"797","House Number Not Found","Street Not Found","The Municipal District of Celbridge  Leixlip","State Not Found","W23 W2K8","Ireland"
"798","House Number Not Found","Street Not Found","City Not Found","Minnesota","Postcode Not Found","United States of America"
"799","House Number Not Found","Rue Roger-Pilon","Dollard-Des-Ormeaux","Quebec","H9A 2K2","Canada"
"800","House Number Not Found","Street Not Found","Newcastle","Oklahoma","73065","United States of America"
"801","House Number Not Found","Street Not Found","City Not Found","State Not Found","Postcode Not Found","Country Not Found"
"802","House Number Not Found","Street Not Found","Tralee Municipal District","State Not Found","Postcode Not Found","Ireland"
"803","700","5th Avenue","Seattle","Washington","98104","United States of America"
"804","House Number Not Found","Street Not Found","Buffalo","New York","14202","United States of America"
"805","House Number Not Found","Street Not Found","St. Louis","Missouri","63102-1102","United States of America"
"806","House Number Not Found","Street Not Found","Bladenboro","North Carolina","28320","United States of America"
"807","19","Street Not Found","Broken Bow","Oklahoma","74728","United States of America"
"808","439","East 19th Avenue","Denver","Colorado","80203","United States of America"
"809","House Number Not Found","East Bellevue Street","Opelousas","Louisiana","70570","United States of America"
"810","150","Greenwich Street","New York City","New York","10007","United States of America"
"811","700","5th Avenue","Seattle","Washington","98104","United States of America"
"812","150","Greenwich Street","New York City","New York","10007","United States of America"
"813","House Number Not Found","Street Not Found","Philadelphia","Pennsylvania","19102","United States of America"
"814","House Number Not Found","Street Not Found","Iowa City","Iowa","52240","United States of America"
"815","House Number Not Found","3rd Street","Detroit","Michigan","48226","United States of America"
"816","House Number Not Found","Street Not Found","Rugby","England","CV23 1AL","United Kingdom"
"817","House Number Not Found","Street Not Found","Rugby","England","CV23 1AL","United Kingdom"
"818","House Number Not Found","Street Not Found","Coffeyville","Kansas","67337","United States of America"
"819","House Number Not Found","Street Not Found","Pittsburgh","Pennsylvania","15219","United States of America"
"820","House Number Not Found","Street Not Found","Sharpes Hill","South Carolina","29053","United States of America"
"821","151","North Franklin Street","Chicago","Illinois","60606","United States of America"
"822","House Number Not Found","Street Not Found","Canterbury","England","CT2 0EH","United Kingdom"
"823","House Number Not Found","Street Not Found","Washington","District of Columbia","20420","United States of America"
"824","150","Greenwich Street","New York City","New York","10007","United States of America"
"825","House Number Not Found","Street Not Found","City Not Found","State Not Found","Postcode Not Found","Country Not Found"
"826","House Number Not Found","Street Not Found","City Not Found","Victoria","3002","Australia"
"827","802","6th Street","Bremerton","Washington","98337","United States of America"
"828","House Number Not Found","Street Not Found","City Not Found","State Not Found","Postcode Not Found","Country Not Found"
"829","House Number Not Found","Street Not Found","Oklahoma City","Oklahoma","73102:73104","United States of America"
"830","House Number Not Found","Street Not Found","West Liberty","Ohio","Postcode Not Found","United States of America"
"831","House Number Not Found","Dickinson Avenue","Greenville","North Carolina","27834","United States of America"
"832","House Number Not Found","Street Not Found","City Not Found","Louisiana","71362","United States of America"
"833","House Number Not Found","Street Not Found","Jefferson","Kansas","67340","United States of America"
"834","House Number Not Found","Street Not Found","Toronto","Ontario","M5J 1S9","Canada"
"835","House Number Not Found","Street Not Found","Stratford","Connecticut","06614","United States of America"
"836","House Number Not Found","Street Not Found","Jefferson","Kansas","67340","United States of America"
"837","House Number Not Found","Street Not Found","Independence","Kansas","67301","United States of America"
"838","House Number Not Found","Street Not Found","Jefferson","Kansas","67340","United States of America"
"839","House Number Not Found","Street Not Found","Birmingham","England","B4","United Kingdom"
"840","House Number Not Found","North McCarran Boulevard","Reno","Nevada","89512","United States of America"
"841","House Number Not Found","Carey Avenue","Burnaby","British Columbia","V5G 4M9","Canada"
"842","1392","Atlantic Avenue","New York City","New York","11216","United States of America"
"843","House Number Not Found","Street Not Found","Los Angeles","California","90012","United States of America"
"844","39","George Street","Birmingham","England","B3","United Kingdom"
"845","309","East 11th Street","Austin","Texas","78701","United States of America"
"846","House Number Not Found","Street Not Found","Jefferson","Kansas","67340","United States of America"
"847","M","Quarry Bank Road","Newcastle-under-Lyme","England","ST5 5AD","United Kingdom"
"848","House Number Not Found","Street Not Found","Hillcrest","Indiana","47112","United States of America"
"849","House Number Not Found","Broadway","London","England","SW1H 0BE","United Kingdom"
"850","House Number Not Found","Street Not Found","Milan","Lombardy","20122","Italy"
"851","House Number Not Found","Street Not Found","St. Louis","Missouri","63102-1102","United States of America"
"852","House Number Not Found","River Walk","San Antonio","Texas","78205","United States of America"
"853","150","Greenwich Street","New York City","New York","10007","United States of America"
"854","53","Bothwell Street","Glasgow","Scotland","G","United Kingdom"
"855","House Number Not Found","Street Not Found","Poole","England","BH15 1HJ","United Kingdom"
"856","House Number Not Found","Street Not Found","San Diego","California","92101","United States of America"
"857","House Number Not Found","Street Not Found","Houston","Texas","77003:77007","United States of America"
"858","11","Nowogrodzka","Warsaw","Masovian Voivodeship","00-513","Poland"
"859","House Number Not Found","Street Not Found","Fresno","California","93702","United States of America"
"860","House Number Not Found","Street Not Found","Fresno","California","93702","United States of America"
"861","House Number Not Found","Street Not Found","City Not Found","State Not Found","Postcode Not Found","Country Not Found"
"862","House Number Not Found","Street Not Found","Jefferson","Kansas","67340","United States of America"
"863","House Number Not Found","Morris Park Avenue","New York City","New York","10461","United States of America"
"864","House Number Not Found","Street Not Found","Menomonee Falls","Wisconsin","53052","United States of America"
"865","House Number Not Found","Street Not Found","Naples","Florida","34102","United States of America"
"866","House Number Not Found","Street Not Found","Sliders","Virginia","Postcode Not Found","United States of America"
"867","53","Bothwell Street","Glasgow","Scotland","G","United Kingdom"
"868","House Number Not Found","Street Not Found","City Not Found","State Not Found","Postcode Not Found","Country Not Found"
"869","House Number Not Found","Street Not Found","Jefferson","Kansas","67340","United States of America"
"870","339","Douglass Street","New York City","New York","11217","United States of America"
"871","150","Greenwich Street","New York City","New York","10007","United States of America"
"872","House Number Not Found","West Church Street","Newark","Ohio","43055","United States of America"
"873","18567","Acker Street","Magnolia","Texas","77354","United States of America"
"874","House Number Not Found","Street Not Found","City Not Found","State Not Found","Postcode Not Found","Country Not Found"
"875","House Number Not Found","Broadway","London","England","SW1H 0BE","United Kingdom"
"876","House Number Not Found","Shah Waliullah Road","Lyari Town","State Not Found","72500","Pakistan"
"877","700","5th Avenue","Seattle","Washington","98104","United States of America"
"878","House Number Not Found","Street Not Found","Toronto","Ontario","M5J 1S9","Canada"
"879","House Number Not Found","Street Not Found","Toronto","Ontario","M5J 1S9","Canada"
"880","House Number Not Found","Street Not Found","City Not Found","State Not Found","Postcode Not Found","Country Not Found"
"881","House Number Not Found","Basnett Street","Liverpool","England","L1 1DE","United Kingdom"
"882","150","Greenwich Street","New York City","New York","10007","United States of America"
"883","House Number Not Found","Street Not Found","City Not Found","State Not Found","Postcode Not Found","Country Not Found"
"884","House Number Not Found","Street Not Found","City Not Found","Utah","Postcode Not Found","United States of America"
"885","House Number Not Found","Street Not Found","Sharpes Hill","South Carolina","29053","United States of America"
"886","House Number Not Found","Street Not Found","Donaldsonville","Louisiana","70346","United States of America"
"887","House Number Not Found","Street Not Found","Jefferson","Kansas","67340","United States of America"
"888","House Number Not Found","West 11th Street","Little Rock","Arkansas","72202","United States of America"
"889","House Number Not Found","Street Not Found","Milford","Pennsylvania","Postcode Not Found","United States of America"
"890","150","Greenwich Street","New York City","New York","10007","United States of America"
"891","69","Aripo Road","Aripo","Tunapuna-Piarco","0000","Trinidad and Tobago"
"892","700","5th Avenue","Seattle","Washington","98104","United States of America"
"893","House Number Not Found","Street Not Found","Huntland","Tennessee","37345","United States of America"
"894","House Number Not Found","Norht Oconee Greenway","Athens-Clarke County Unified Government","Georgia","303341458","United States of America"
"895","House Number Not Found","Street Not Found","Beverly Hills","California","90064","United States of America"
"896","House Number Not Found","Street Not Found","New Orleans","Louisiana","70012","United States of America"
"897","House Number Not Found","Street Not Found","Waitemata","Auckland","1001","New Zealand"
"898","House Number Not Found","Street Not Found","Midlothian","Texas","76065","United States of America"
"899","House Number Not Found","Street Not Found","St. Louis","Missouri","63102-1102","United States of America"
"900","House Number Not Found","Street Not Found","Nashville-Davidson","Tennessee","37206","United States of America"
"901","House Number Not Found","Street Not Found","Kingston","Ohio","Postcode Not Found","United States of America"
"902","655","Main Street","Moncton","New Brunswick","E1C 1E8","Canada"
"903","31","Bay Street","Quinte West","Ontario","K8V 1R9","Canada"
"904","House Number Not Found","Street Not Found","Albuquerque","New Mexico","87102","United States of America"
"905","House Number Not Found","Street Not Found","Redhouse","Kentucky","Postcode Not Found","United States of America"
"906","House Number Not Found","Street Not Found","Cedar Rapids","Iowa","52401","United States of America"
"907","150","Greenwich Street","New York City","New York","10007","United States of America"
"908","House Number Not Found","Herrängsvägen","Herräng","Stockholm County","760 49","Sweden"
"909","House Number Not Found","Street Not Found","City Not Found","State Not Found","Postcode Not Found","Country Not Found"
"910","House Number Not Found","Street Not Found","Houston","Texas","77003:77007","United States of America"
"911","House Number Not Found","Street Not Found","Trenton","Ohio","45067","United States of America"
"912","House Number Not Found","Street Not Found","Bay Lake","Florida","32830-8426","United States of America"
"913","1635","Farrington Road","Bells","North Carolina","27523","United States of America"
"914","House Number Not Found","Street Not Found","Plumsted Township","New Jersey","08533","United States of America"
"915","House Number Not Found","Street Not Found","Miami","Florida","33131","United States of America"
"916","House Number Not Found","Street Not Found","Hope","New York","Postcode Not Found","United States of America"
"917","House Number Not Found","Street Not Found","Winston-Salem","North Carolina","Postcode Not Found","United States of America"
"918","1","New Road","South Hams","England","TQ6 0NR","United Kingdom"
"919","House Number Not Found","Street Not Found","Las Vegas","Nevada","89101","United States of America"
"920","House Number Not Found","Mawdsley Street","Manchester","England","M3 4JP","United Kingdom"
"921","House Number Not Found","Street Not Found","City Not Found","State Not Found","Postcode Not Found","Country Not Found"
"922","411","South Houston Street","Dallas","Texas","75202","United States of America"
"923","612","Main Street","Springfield","Oregon","97477","United States of America"
"924","1635","Farrington Road","Bells","North Carolina","27523","United States of America"
"925","6922","North Little Falls Road","Falls Church","Virginia","22213","United States of America"
"926","House Number Not Found","Street Not Found","Baton Rouge","Louisiana","70802","United States of America"
"927","House Number Not Found","Tolt Avenue","Carnation","Washington","98014","United States of America"
"928","House Number Not Found","Street Not Found","Kent","Ohio","44240","United States of America"
"929","150","Greenwich Street","New York City","New York","10007","United States of America"
"930","House Number Not Found","Street Not Found","City Not Found","State Not Found","Postcode Not Found","Country Not Found"
"931","412","West Palmer Street","Charlotte","North Carolina","28203","United States of America"
"932","150","Greenwich Street","New York City","New York","10007","United States of America"
"933","150","Greenwich Street","New York City","New York","10007","United States of America"
"934","917","Broadway East","Seattle","Washington","98102","United States of America"
"935","House Number Not Found","Street Not Found","Ireland","Texas","Postcode Not Found","United States of America"
"936","15361","State Route 207","Coles Corner","Washington","98826","United States of America"
"937","House Number Not Found","Street Not Found","Ville de Bruxelles - Stad Brussel","Brussels-Capital","1000","Belgium"
"938","House Number Not Found","Street Not Found","Fresno","California","93721","United States of America"
"939","House Number Not Found","Street Not Found","Ashland","Oregon","97520","United States of America"
"940","House Number Not Found","Street Not Found","City Not Found","State Not Found","Postcode Not Found","Country Not Found"
"941","House Number Not Found","Street Not Found","Boston","Massachusetts","02152","United States of America"
"942","House Number Not Found","Street Not Found","Cape Town","Western Cape","8001","South Africa"
"943","House Number Not Found","Street Not Found","Jefferson","Kansas","67340","United States of America"
"944","House Number Not Found","Street Not Found","City Not Found","Arkansas","72082:72102:72143","United States of America"
"945","350","Canal Walk","Indianapolis","Indiana","46202","United States of America"
"946","House Number Not Found","Street Not Found","Houston","Texas","77003:77007","United States of America"
"947","House Number Not Found","Street Not Found","Washington","District of Columbia","20420","United States of America"
"948","House Number Not Found","Indiana Street","Woodbridge","California","95258","United States of America"
"949","House Number Not Found","Street Not Found","Hope","New York","Postcode Not Found","United States of America"
"950","House Number Not Found","Orange Street","Jacksonville","Florida","32202","United States of America"
"951","House Number Not Found","Street Not Found","Jefferson","Kansas","67340","United States of America"
"952","House Number Not Found","Street Not Found","City Not Found","State Not Found","Postcode Not Found","Country Not Found"
"953","House Number Not Found","Street Not Found","Jefferson","Kansas","67340","United States of America"
"954","804","Virginia Circle Northeast","Atlanta","Georgia","30306","United States of America"
"955","House Number Not Found","Street Not Found","City Not Found","State Not Found","Postcode Not Found","Country Not Found"
"956","House Number Not Found","Street Not Found","Winston-Salem","North Carolina","27284","United States of America"
"957","House Number Not Found","Street Not Found","City Not Found","State Not Found","Postcode Not Found","Country Not Found"
"958","House Number Not Found","High Street","Truckee","California","96160","United States of America"
"959","House Number Not Found","Street Not Found","Washington","District of Columbia","20420","United States of America"
"960","1863","5300 Road","Coffeyville","Kansas","67337","United States of America"
"961","House Number Not Found","Street Not Found","Wichita","Kansas","67202","United States of America"
"962","House Number Not Found","Street Not Found","Stephenville","Texas","76401","United States of America"
"963","618","West Clark Street","Champaign","Illinois","61820-4660","United States of America"
"964","House Number Not Found","Street Not Found","Rogers","Arkansas","Postcode Not Found","United States of America"
"965","House Number Not Found","Street Not Found","Igbobi","Lagos","YABA","Nigeria"
"966","865","6th Avenue","New York City","New York","10001","United States of America"
"967","House Number Not Found","Street Not Found","Las Vegas","Nevada","89101","United States of America"
"968","House Number Not Found","Street Not Found","City Not Found","State Not Found","Postcode Not Found","Country Not Found"
"969","House Number Not Found","East Hutchison Street","San Marcos","Texas","78666","United States of America"
"970","House Number Not Found","East 41st Terrace South","Kansas City","Missouri","64133","United States of America"
"971","350","Canal Walk","Indianapolis","Indiana","46202","United States of America"
"972","House Number Not Found","Street Not Found","Syracuse","New York","13290","United States of America"
"973","House Number Not Found","Street Not Found","Fresno","California","93702","United States of America"
"974","House Number Not Found","Market Street","South Norfolk","England","NR18 0AL","United Kingdom"
"975","388","Fulton Street","San Francisco","California","94102","United States of America"
"976","House Number Not Found","Street Not Found","Vienna","Vienna","1010","Austria"
"977","House Number Not Found","Broadway","London","England","SW1H 0BE","United Kingdom"
"978","House Number Not Found","Street Not Found","Sharpes Hill","South Carolina","29053","United States of America"
"979","House Number Not Found","Street Not Found","South Tyneside","England","NE33 1PG","United Kingdom"
"980","House Number Not Found","Street Not Found","Goodyear","Arizona","85338","United States of America"
"981","House Number Not Found","Street Not Found","Houston","Texas","77002","United States of America"
"982","House Number Not Found","Street Not Found","Fresno","California","93702","United States of America"
"983","House Number Not Found","Street Not Found","Glenham","New York","12524","United States of America"
"984","House Number Not Found","Street Not Found","Midland","Texas","79701","United States of America"
"985","700","5th Avenue","Seattle","Washington","98104","United States of America"
"986","House Number Not Found","Broadway","London","England","SW1H 0BE","United Kingdom"
"987","House Number Not Found","Street Not Found","Pittsburgh","Pennsylvania","15219","United States of America"
"988","House Number Not Found","daimon kaidou","Nagawa","Nagano Prefecture","Postcode Not Found","Japan"
"989","House Number Not Found","Street Not Found","Lancaster","England","LA1 3BB","United Kingdom"
"990","House Number Not Found","Street Not Found","City Not Found","England","TF11 9DJ","United Kingdom"
"991","22","East Leigh Street","Richmond City","Virginia","23219","United States of America"
"992","22","East Leigh Street","Richmond City","Virginia","23219","United States of America"
"993","House Number Not Found","Street Not Found","Waco","Texas","76706","United States of America"
"994","House Number Not Found","Street Not Found","Jefferson","Kansas","67340","United States of America"
"995","309","East 11th Street","Austin","Texas","78701","United States of America"
"996","House Number Not Found","East Tenth Street","Tempe","Arizona","85287","United States of America"
"997","295","West Center Street","Provo","Utah","84601","United States of America"
"998","1304","Elati Street","Denver","Colorado","80204","United States of America"
"999","House Number Not Found","Street Not Found","Vashon","Washington","98070","United States of America"
"1000","150","Greenwich Street","New York City","New York","10007","United States of America"
